202401010020 METAR EGKK 010020Z 24014KT 9999 BKN026 08/04 Q0997=
202401010050 METAR EGKK 010050Z 24013KT 9999 BKN029 08/04 Q0997=
202401010120 METAR EGKK 010120Z 24011KT 9999 BKN025 08/04 Q0997=
202401010150 METAR EGKK 010150Z 25012KT 9999 BKN026 08/04 Q0998=
202401010220 METAR EGKK 010220Z 25013KT 9999 BKN024 08/04 Q0998=
202401010250 METAR EGKK 010250Z 25014KT 9999 SCT025 BKN035 08/04 Q0999=
202401010320 METAR EGKK 010320Z 25015KT 9999 FEW027 SCT032 BKN038 08/04 Q0999=
202401010350 METAR EGKK 010350Z 25013KT 9999 FEW024 BKN043 08/04 Q1000=
202401010420 METAR EGKK 010420Z 25011KT 9999 FEW025 BKN036 08/04 Q1000=
202401010450 METAR EGKK 010450Z 24012KT 9999 BKN024 07/04 Q1001=
202401010520 METAR EGKK 010520Z 25011KT 9999 SCT024 07/04 Q1001=
202401010550 METAR EGKK 010550Z 24010KT 9999 FEW027 07/04 Q1001=
202401010620 METAR EGKK 010620Z 24009KT 9999 FEW027 07/03 Q1002=
202401010650 METAR EGKK 010650Z 22005KT 9999 SCT027 07/03 Q1002=
202401010720 METAR EGKK 010720Z 22006KT 9999 FEW029 07/03 Q1003=
202401010750 METAR EGKK 010750Z 23007KT CAVOK 07/03 Q1003=
202401010820 METAR EGKK 010820Z 24008KT CAVOK 07/03 Q1004=
202401010850 METAR EGKK 010850Z 24007KT CAVOK 07/03 Q1004=
202401010920 METAR EGKK 010920Z 24007KT CAVOK 07/03 Q1004=
202401010950 METAR EGKK 010950Z 24008KT CAVOK 07/03 Q1005=
202401011020 METAR EGKK 011020Z 24008KT CAVOK 07/03 Q1005=
202401011050 METAR EGKK 011050Z 23008KT CAVOK 08/03 Q1005=
202401011120 METAR EGKK 011120Z 23008KT CAVOK 08/04 Q1005=
202401011150 METAR EGKK 011150Z 22009KT CAVOK 08/04 Q1005=
202401011220 METAR EGKK 011220Z 23007KT CAVOK 08/04 Q1005=
202401011250 METAR EGKK 011250Z 21007KT CAVOK 09/04 Q1005=
202401011320 METAR EGKK 011320Z 21005KT 190V250 CAVOK 09/05 Q1004=
202401011350 METAR EGKK 011350Z 20006KT CAVOK 09/05 Q1004=
202401011420 METAR EGKK 011420Z 18004KT 150V220 CAVOK 09/05 Q1003=
202401011450 METAR EGKK 011450Z 18004KT 9999 VCSH FEW024 SCT032 09/06 Q1003=
202401011520 METAR EGKK 011520Z 20008KT 9999 -RA FEW027 SCT035 09/06 Q1003=
202401011550 METAR EGKK 011550Z 19004KT 150V220 9000 -RA FEW018 BKN044 08/07 Q1003=
202401011620 METAR EGKK 011620Z 16005KT 7000 -RA SCT011 BKN020 08/07 Q1002=
202401011650 METAR EGKK 011650Z 17008KT 6000 -RA SCT010 BKN014 09/08 Q1001=
202401011720 METAR EGKK 011720Z 18009KT 160V220 9000 -RA FEW007 BKN012 09/08 Q1000=
202401011750 METAR EGKK 011750Z 17009KT 9000 -RA BKN011 09/08 Q1000=
202401011820 METAR EGKK 011820Z 18012KT 140V210 7000 -RA BKN009 09/08 Q0999=
202401011850 METAR EGKK 011850Z 18010KT 140V210 9999 -RA BKN011 09/08 Q0998=
202401011920 METAR EGKK 011920Z 19010KT 150V220 9000 -RA BKN010 09/08 Q0997=
202401011950 METAR EGKK 011950Z 17011KT 130V200 9000 -RA BKN010 09/09 Q0996=
202401012020 METAR EGKK 012020Z 17011KT 140V200 5000 -RA BKN009 10/09 Q0995=
202401012050 METAR EGKK 012050Z 19015KT 140V220 8000 -RA FEW008 BKN012 10/09 Q0993=
202401012120 METAR EGKK 012120Z 21013KT 170V230 9000 -RA BKN009 10/10 Q0993=
202401012150 METAR EGKK 012150Z 21013KT 9999 -RA BKN011 11/10 Q0992=
202401012220 METAR EGKK 012220Z 21013KT 6000 -RA BKN008 11/10 Q0991=
202401012250 METAR EGKK 012250Z 21015G25KT 7000 -RA BKN009 11/11 Q0990=
202401012320 METAR EGKK 012320Z 22015G25KT 190V250 6000 -RA BKN007 11/11 Q0990=
202401012350 METAR EGKK 012350Z 22014KT 180V240 6000 -RA BKN007 12/11 Q0990=
202401020020 METAR EGKK 020020Z 22014G24KT 6000 -RADZ BKN008 12/11 Q0989=
202401020050 METAR EGKK 020050Z 23012KT 9999 BKN008 12/11 Q0989=
202401020120 METAR EGKK 020120Z 23014KT 6000 -RA BKN008 12/11 Q0990=
202401020150 METAR EGKK 020150Z 24012KT 9999 SCT009 BKN014 12/11 Q0990=
202401020220 METAR EGKK 020220Z 23011KT 9999 FEW008 SCT024 12/11 Q0991=
202401020250 METAR EGKK 020250Z 23010KT 9999 SCT022 12/11 Q0991=
202401020320 METAR EGKK 020320Z 23009KT 9999 SCT022 12/10 Q0991=
202401020350 METAR EGKK 020350Z 22010KT 9999 SCT022 12/10 Q0991=
202401020420 METAR EGKK 020420Z 23008KT 9999 FEW021 12/10 Q0992=
202401020450 METAR EGKK 020450Z 22007KT 9999 SCT013 12/10 Q0991=
202401020520 METAR EGKK 020520Z 21008KT 9999 BKN012 12/10 Q0991=
202401020550 METAR EGKK 020550Z 22010KT 9999 SCT013 12/10 Q0991=
202401020620 METAR EGKK 020620Z 22008KT CAVOK 11/10 Q0991=
202401020650 METAR EGKK 020650Z 21007KT CAVOK 11/10 Q0990=
202401020720 METAR EGKK 020720Z 20006KT 9999 -RA FEW010 11/11 Q0990=
202401020750 METAR EGKK 020750Z 18004KT 150V220 9999 -RA FEW008 11/11 Q0989=
202401020820 METAR EGKK 020820Z 18004KT 140V210 6000 -RA FEW008 SCT013 11/11 Q0989=
202401020850 METAR EGKK 020850Z 16005KT 110V210 6000 -RA SCT006 BKN025 11/11 Q0988=
202401020920 METAR EGKK 020920Z 21011KT 9999 -RA BKN007 12/11 Q0987=
202401020950 METAR EGKK 020950Z 22013KT 9999 -RA BKN008 12/12 Q0986=
202401021020 METAR EGKK 021020Z 22017G30KT 9999 -RA SCT007 SCT013 BKN018 13/12 Q0986=
202401021050 METAR EGKK 021050Z 21014G28KT 9999 -RA SCT010 BKN021 13/12 Q0985=
202401021120 METAR EGKK 021120Z 20015G25KT 170V230 3000 RA BKN008 12/11 Q0984=
202401021150 METAR EGKK 021150Z 20015KT 160V230 3500 RA BKN007 12/12 Q0983=
202401021220 METAR EGKK 021220Z 20020G34KT 160V230 3500 RA SCT008 BKN011 12/12 Q0981=
202401021250 METAR EGKK 021250Z 22019G30KT 9999 -RA BKN008 13/12 Q0981 RERA=
202401021320 METAR EGKK 021320Z 22017G30KT 190V250 7000 -RA BKN007 13/12 Q0980=
202401021350 METAR EGKK 021350Z 21019G35KT 7000 -RA BKN010 13/11 Q0979=
202401021420 METAR EGKK 021420Z 22023G42KT 9999 VCSH BKN016 13/10 Q0978=
202401021450 METAR EGKK 021450Z 23026G38KT 9999 SCT023 BKN030 13/08 Q0979=
202401021520 METAR EGKK 021520Z 24023G49KT 220V280 9999 BKN028 12/08 Q0980=
202401021550 METAR EGKK 021550Z 24023G36KT 9999 SCT014 BKN027 12/07 Q0981=
202401021620 METAR EGKK 021620Z 25021G35KT 9999 BKN029 12/07 Q0982=
202401021650 METAR EGKK 021650Z 25024G36KT 9999 FEW023 BKN026 11/07 Q0983=
202401021720 METAR EGKK 021720Z 25023KT 9999 BKN028 BKN035 11/06 Q0984=
202401021750 METAR EGKK 021750Z 24020KT 9999 BKN025 11/07 Q0984=
202401021820 METAR EGKK 021820Z 25017KT 9999 BKN025 BKN034 11/07 Q0985=
202401021850 METAR EGKK 021850Z 25018G29KT 9999 BKN030 11/06 Q0986=
202401021920 METAR EGKK 021920Z 25017KT 9999 BKN030 11/06 Q0986=
202401021950 METAR EGKK 021950Z 25017KT 9999 BKN031 11/06 Q0987=
202401022020 METAR EGKK 022020Z 24014G24KT 9999 BKN029 11/06 Q0987=
202401022050 METAR EGKK 022050Z 24015KT 9999 BKN028 11/06 Q0988=
202401022120 METAR EGKK 022120Z 24013KT 9999 BKN030 10/06 Q0988=
202401022150 METAR EGKK 022150Z 24013KT 9999 FEW025 BKN030 10/06 Q0989=
202401022220 METAR EGKK 022220Z 24011KT 9999 FEW026 SCT032 11/07 Q0989=
202401022250 METAR EGKK 022250Z 23011KT 9999 SCT024 10/07 Q0989=
202401022320 METAR EGKK 022320Z 23010KT 9999 BKN025 10/07 Q0989=
202401022350 METAR EGKK 022350Z 23012KT 9999 BKN025 10/07 Q0990=
202401030020 METAR EGKK 030020Z 23011G21KT 9999 FEW024 10/07 Q0990=
202401030050 METAR EGKK 030050Z 24009KT CAVOK 10/07 Q0990=
202401030120 METAR EGKK 030120Z 23009KT 9999 FEW043 10/07 Q0989=
202401030150 METAR EGKK 030150Z 23012KT 9999 SCT020 10/07 Q0989=
202401030220 METAR EGKK 030220Z 23012KT 9999 FEW022 SCT045 10/07 Q0989=
202401030250 METAR EGKK 030250Z 23009KT 9999 FEW023 09/06 Q0989=
202401030320 METAR EGKK 030320Z 23011KT 9999 SCT022 09/07 Q0989=
202401030350 METAR EGKK 030350Z 23008KT 9999 FEW019 09/07 Q0989=
202401030420 METAR EGKK 030420Z 24011KT 9999 SCT020 10/07 Q0989=
202401030450 METAR EGKK 030450Z 24013G23KT 9999 FEW025 SCT042 10/06 Q0989=
202401030520 METAR EGKK 030520Z 24010KT 9999 BKN043 09/06 Q0990=
202401030550 METAR EGKK 030550Z 23011KT 9999 FEW044 09/06 Q0990=
202401030620 METAR EGKK 030620Z 23009KT 9999 SCT042 09/06 Q0990=
202401030650 METAR EGKK 030650Z 23010KT 9999 FEW024 SCT040 09/06 Q0990=
202401030720 METAR EGKK 030720Z 23009KT 9999 FEW021 09/06 Q0990=
202401030750 METAR EGKK 030750Z 22006KT 9999 FEW020 09/07 Q0990=
202401030820 METAR EGKK 030820Z 23009G19KT 9999 FEW023 10/07 Q0990=
202401030850 METAR EGKK 030850Z 23011KT 9999 FEW023 10/07 Q0990=
202401030920 METAR EGKK 030920Z 23011KT 200V260 9999 -RA FEW025 SCT044 10/07 Q0990=
202401030950 METAR EGKK 030950Z 23010KT 9999 -RA SCT021 SCT038 10/08 Q0990=
202401031020 METAR EGKK 031020Z 23013KT 9999 SCT023 11/07 Q0990=
202401031050 METAR EGKK 031050Z 23012KT 9999 SCT024 11/07 Q0990=
202401031120 METAR EGKK 031120Z 22011KT 190V250 9999 SCT025 BKN045 11/07 Q0990=
202401031150 METAR EGKK 031150Z 23012KT 9999 SCT025 SCT045 11/07 Q0989=
202401031220 METAR EGKK 031220Z 23011KT 9999 FEW022 SCT034 11/07 Q0989=
202401031250 METAR EGKK 031250Z 24011KT 9999 SCT024 11/07 Q0989=
202401031320 METAR EGKK 031320Z 23009KT 9999 SCT028 11/07 Q0989=
202401031350 METAR EGKK 031350Z 24011KT 9999 SCT029 BKN044 11/06 Q0989=
202401031420 METAR EGKK 031420Z 26015KT 9999 BKN027 11/06 Q0990=
202401031450 METAR EGKK 031450Z 27013KT 9999 SCT029 10/05 Q0990=
202401031520 METAR EGKK 031520Z 26015KT 9999 SCT029 10/06 Q0991=
202401031550 METAR EGKK 031550Z 25011KT 9999 SCT024 10/06 Q0991=
202401031620 METAR EGKK 031620Z 26012KT 9999 SCT025 10/06 Q0992=
202401031650 METAR EGKK 031650Z 25011KT 9999 SCT039 10/06 Q0992=
202401031720 METAR EGKK 031720Z 25010KT 9999 FEW024 SCT049 10/06 Q0993=
202401031750 METAR EGKK 031750Z 25011KT 9999 FEW022 SCT035 10/06 Q0993=
202401031820 METAR EGKK 031820Z 25009KT 9999 -RA BKN022 09/07 Q0994=
202401031850 METAR EGKK 031850Z 25012KT 9999 -RA SCT023 BKN043 09/06 Q0994=
202401031920 METAR EGKK 031920Z 26014KT 9999 SCT020 BKN036 09/06 Q0995=
202401031950 METAR EGKK 031950Z 26014KT 9999 FEW020 BKN032 09/06 Q0995=
202401032020 METAR EGKK 032020Z 26014KT 9999 FEW018 SCT036 09/06 Q0996=
202401032050 METAR EGKK 032050Z 26013KT 9999 FEW018 BKN032 09/06 Q0996=
202401032120 METAR EGKK 032120Z 26011KT 9999 SCT030 08/06 Q0997=
202401032150 METAR EGKK 032150Z 26011KT 9999 FEW018 08/06 Q0998=
202401032220 METAR EGKK 032220Z 24008KT 9999 FEW017 08/06 Q0998=
202401032250 METAR EGKK 032250Z 23007KT 9999 SCT020 08/06 Q0999=
202401032320 METAR EGKK 032320Z 24008KT 9999 FEW022 SCT035 08/06 Q0999=
202401032350 METAR EGKK 032350Z 24009KT 9999 FEW020 SCT031 08/06 Q0999=
202401040020 METAR EGKK 040020Z 23006KT 9999 FEW018 08/06 Q1000=
202401040050 METAR EGKK 040050Z 24009KT 9999 FEW014 08/06 Q1000=
202401040120 METAR EGKK 040120Z 24009KT 9999 -SHRA FEW014 SCT048 08/07 Q1000=
202401040150 METAR EGKK 040150Z 24010KT 9999 SCT018 08/07 Q1001=
202401040220 METAR EGKK 040220Z 24009KT 9999 SCT020 08/06 Q1001=
202401040250 METAR EGKK 040250Z 24009KT 9999 FEW045 08/05 Q1001=
202401040320 METAR EGKK 040320Z 24008KT 9999 FEW025 08/05 Q1002=
202401040350 METAR EGKK 040350Z 23009KT 9999 SCT018 07/05 Q1002=
202401040420 METAR EGKK 040420Z 23007KT 9999 FEW020 07/05 Q1002=
202401040450 METAR EGKK 040450Z 23007KT 9999 FEW026 07/05 Q1002=
202401040520 METAR EGKK 040520Z 24006KT CAVOK 06/04 Q1003=
202401040550 METAR EGKK 040550Z 24007KT CAVOK 06/04 Q1003=
202401040620 METAR EGKK 040620Z 22006KT CAVOK 06/04 Q1003=
202401040650 METAR EGKK 040650Z 22007KT CAVOK 06/04 Q1003=
202401040720 METAR EGKK 040720Z 23008KT CAVOK 06/04 Q1003=
202401040750 METAR EGKK 040750Z 23007KT CAVOK 06/04 Q1004=
202401040820 METAR EGKK 040820Z 22008KT CAVOK 05/04 Q1004=
202401040850 METAR EGKK 040850Z 23006KT CAVOK 06/04 Q1004=
202401040920 METAR EGKK 040920Z 23008KT CAVOK 07/04 Q1004=
202401040950 METAR EGKK 040950Z 22005KT CAVOK 07/04 Q1003=
202401041020 METAR EGKK 041020Z 20003KT CAVOK 07/05 Q1004=
202401041050 METAR EGKK 041050Z 21005KT CAVOK 08/05 Q1004=
202401041120 METAR EGKK 041120Z 21003KT 160V250 CAVOK 09/05 Q1003=
202401041150 METAR EGKK 041150Z VRB02KT CAVOK 09/05 Q1003=
202401041220 METAR EGKK 041220Z 14003KT 110V170 CAVOK 09/05 Q1002=
202401041250 METAR EGKK 041250Z 13004KT 9999 FEW045 09/05 Q1001=
202401041320 METAR EGKK 041320Z 12004KT 9999 FEW024 SCT032 09/06 Q1001=
202401041350 METAR EGKK 041350Z 12006KT 8000 -RA SCT018 09/06 Q1000=
202401041420 METAR EGKK 041420Z 10006KT 9999 -RA FEW023 SCT041 08/07 Q0999=
202401041450 METAR EGKK 041450Z 09005KT 8000 -RA FEW011 SCT039 BKN045 08/07 Q0999=
202401041520 METAR EGKK 041520Z 07006KT 8000 -RA FEW023 BKN032 BKN044 08/08 Q0998=
202401041550 METAR EGKK 041550Z 06008KT 6000 -RA SCT004 SCT024 BKN030 08/07 Q0997=
202401041620 METAR EGKK 041620Z 07010KT 6000 RA FEW004 SCT015 08/07 Q0996=
202401041650 METAR EGKK 041650Z 06006KT 040V100 6000 -RA FEW005 SCT010 BKN042 08/08 Q0995 RERA=
202401041720 METAR EGKK 041720Z 07012KT 5000 -RA BKN004 BKN009 BKN013 08/08 Q0994=
202401041750 METAR EGKK 041750Z NIL=
202401041820 METAR EGKK 041820Z 17012G22KT 130V210 9999 -RA SCT011 BKN042 10/09 Q0993=
202401041850 METAR EGKK 041850Z 16010KT 9999 -RA SCT010 BKN039 10/09 Q0992=
202401041920 METAR EGKK 041920Z 19012KT 150V230 9999 -RA BKN010 BKN016 BKN030 10/09 Q0992=
202401041950 METAR EGKK 041950Z 19011G21KT 160V220 7000 -RA BKN012 BKN017 10/09 Q0992=
202401042020 METAR EGKK 042020Z 21008KT 9000 -RA SCT010 BKN044 09/08 Q0992=
202401042050 METAR EGKK 042050Z 18004KT 140V220 9999 FEW012 SCT023 BKN035 09/08 Q0992=
202401042120 METAR EGKK 042120Z 18003KT 120V210 9999 SCT012 BKN025 BKN030 09/08 Q0992=
202401042150 METAR EGKK 042150Z 20004KT 8000 -RA SCT006 BKN014 09/08 Q0991=
202401042220 METAR EGKK 042220Z 19004KT 160V220 5000 -RA SCT005 BKN009 09/08 Q0991=
202401042250 METAR EGKK 042250Z 19003KT 150V210 8000 -RA SCT006 BKN008 08/08 Q0991=
202401042320 METAR EGKK 042320Z 26003KT 190V320 4000 -RA FEW003 BKN005 08/08 Q0991=
202401042350 METAR EGKK 042350Z 32012KT 6000 -RA BKN005 07/07 Q0991=
202401050020 METAR EGKK 050020Z 32016KT 9999 -RADZ BKN006 06/06 Q0992=
202401050050 METAR EGKK 050050Z 32015KT 8000 -RADZ BKN007 06/05 Q0992=
202401050120 METAR EGKK 050120Z 32019KT 8000 -RA BKN007 05/04 Q0993=
202401050150 METAR EGKK 050150Z 31017KT 7000 -RADZ BKN007 05/04 Q0994=
202401050220 METAR EGKK 050220Z 31019KT 7000 -RA FEW008 BKN011 05/04 Q0994=
202401050250 METAR EGKK 050250Z 30020KT 9999 -RA BKN011 BKN021 05/04 Q0995=
202401050320 METAR EGKK 050320Z 30015KT 9999 -RA BKN009 BKN017 05/04 Q0996=
202401050350 METAR EGKK 050350Z 28014G24KT 9999 -RA BKN012 05/04 Q0996=
202401050420 METAR EGKK 050420Z 28017KT 9999 -RA BKN011 06/04 Q0997=
202401050450 METAR EGKK 050450Z 28014KT 9999 -RA BKN011 BKN036 06/04 Q0997=
202401050520 METAR EGKK 050520Z 28015KT 9999 -RA BKN012 05/04 Q0997=
202401050550 METAR EGKK 050550Z 29013KT 9999 BKN012 05/04 Q0998=
202401050620 METAR EGKK 050620Z 29013KT 9999 -DZ BKN011 06/04 Q0998=
202401050650 METAR EGKK 050650Z 28010KT 9999 SCT012 05/04 Q0999=
202401050720 METAR EGKK 050720Z 28011KT 9999 SCT014 05/04 Q0999=
202401050750 METAR EGKK 050750Z 28009KT 9999 FEW016 05/04 Q0999=
202401050820 METAR EGKK 050820Z 28010KT 9999 FEW013 05/04 Q1000=
202401050850 METAR EGKK 050850Z 29010KT 9999 FEW014 05/03 Q1000=
202401050920 METAR EGKK 050920Z 28010KT 9999 FEW016 05/04 Q1001=
202401050950 METAR EGKK 050950Z 28010KT 9999 FEW015 06/04 Q1001=
202401051020 METAR EGKK 051020Z 28010KT 9999 FEW014 SCT043 06/04 Q1002=
202401051050 METAR EGKK 051050Z 29009KT 9999 FEW014 SCT042 06/04 Q1002=
202401051120 METAR EGKK 051120Z 30009KT 9999 FEW014 SCT042 06/04 Q1002=
202401051150 METAR EGKK 051150Z 30011KT 9999 FEW014 SCT042 06/04 Q1002=
202401051220 METAR EGKK 051220Z 29010KT 9999 FEW014 BKN038 07/04 Q1002=
202401051250 METAR EGKK 051250Z 30011KT 9999 FEW014 SCT037 07/04 Q1002=
202401051320 METAR EGKK 051320Z 31010KT 9999 SCT034 07/04 Q1002=
202401051350 METAR EGKK 051350Z 31008KT 290V350 CAVOK 07/04 Q1002=
202401051420 METAR EGKK 051420Z 32009KT 9999 BKN016 07/04 Q1003=
202401051450 METAR EGKK 051450Z 30009KT 9999 BKN016 07/04 Q1003=
202401051520 METAR EGKK 051520Z 29008KT 270V330 9999 FEW017 SCT028 BKN035 07/04 Q1004=
202401051550 METAR EGKK 051550Z 29006KT 9999 BKN030 07/04 Q1004=
202401051620 METAR EGKK 051620Z 29005KT 9999 BKN028 07/04 Q1005=
202401051650 METAR EGKK 051650Z 28005KT 9999 BKN030 07/04 Q1005=
202401051720 METAR EGKK 051720Z 30008KT 9999 BKN033 07/03 Q1005=
202401051750 METAR EGKK 051750Z 32006KT 280V360 9999 BKN032 07/03 Q1006=
202401051820 METAR EGKK 051820Z 30005KT 9999 BKN031 BKN038 07/04 Q1006=
202401051850 METAR EGKK 051850Z 30005KT 9999 BKN032 07/04 Q1006=
202401051920 METAR EGKK 051920Z 30006KT 9999 BKN034 07/04 Q1007=
202401051950 METAR EGKK 051950Z 31008KT 9999 BKN037 07/04 Q1007=
202401052020 METAR EGKK 052020Z 31006KT 9999 SCT041 BKN048 07/04 Q1007=
202401052050 METAR EGKK 052050Z 31005KT 9999 -RA FEW020 SCT025 BKN030 07/04 Q1008=
202401052120 METAR EGKK 052120Z 32006KT 8000 -RA SCT011 SCT020 BKN029 06/05 Q1008=
202401052150 METAR EGKK 052150Z 32006KT 9999 -RA FEW020 SCT027 BKN031 06/05 Q1008=
202401052220 METAR EGKK 052220Z 34004KT 9999 FEW027 SCT046 06/04 Q1008=
202401052250 METAR EGKK 052250Z 31003KT 9999 SCT044 06/05 Q1009=
202401052320 METAR EGKK 052320Z 34003KT 9999 BKN042 06/04 Q1009=
202401052350 METAR EGKK 052350Z 31003KT 9999 FEW018 BKN039 06/04 Q1009=
202401060020 METAR EGKK 060020Z 31003KT 9999 FEW014 SCT040 05/05 Q1009=
202401060050 METAR EGKK 060050Z 33002KT 9999 SCT012 BKN042 05/04 Q1010=
202401060120 METAR EGKK 060120Z 32003KT 9999 FEW016 BKN031 05/05 Q1010=
202401060150 METAR EGKK 060150Z VRB02KT 9999 FEW010 BKN041 05/04 Q1010=
202401060220 METAR EGKK 060220Z 33004KT 9999 SCT009 BKN031 05/05 Q1010=
202401060250 METAR EGKK 060250Z 32004KT 9000 SCT008 BKN012 06/05 Q1011=
202401060320 METAR EGKK 060320Z 31005KT 9000 SCT009 BKN037 06/05 Q1011=
202401060350 METAR EGKK 060350Z 33004KT 9000 FEW010 BKN015 06/05 Q1011=
202401060420 METAR EGKK 060420Z 33006KT 7000 -RA SCT010 BKN016 06/05 Q1011=
202401060450 METAR EGKK 060450Z 01004KT 8000 SCT015 BKN020 06/05 Q1011=
202401060520 METAR EGKK 060520Z 01005KT 9000 BKN011 06/05 Q1012=
202401060550 METAR EGKK 060550Z 01005KT 9999 BKN021 05/04 Q1012=
202401060620 METAR EGKK 060620Z 34005KT 290V010 9999 SCT039 06/04 Q1013=
202401060650 METAR EGKK 060650Z 33005KT 9999 SCT038 05/03 Q1013=
202401060720 METAR EGKK 060720Z 34006KT 300V010 9999 FEW015 BKN037 05/03 Q1014=
202401060750 METAR EGKK 060750Z 32005KT 9999 SCT030 BKN037 05/03 Q1014=
202401060820 METAR EGKK 060820Z 32005KT 290V360 9999 BKN031 05/03 Q1014=
202401060850 METAR EGKK 060850Z 33007KT 9999 SCT035 05/03 Q1015=
202401060920 METAR EGKK 060920Z 34008KT 300V010 9999 SCT030 05/03 Q1015=
202401060950 METAR EGKK 060950Z 34006KT 300V010 9999 FEW019 SCT035 06/03 Q1016=
202401061020 METAR EGKK 061020Z 34006KT 310V020 9999 FEW018 SCT032 06/03 Q1016=
202401061050 METAR EGKK 061050Z 35007KT 300V030 9999 FEW018 SCT030 06/03 Q1016=
202401061120 METAR EGKK 061120Z 34008G19KT 270V060 9999 SCT020 SCT040 06/03 Q1017=
202401061150 METAR EGKK 061150Z 36008KT 9999 SCT026 SCT041 06/03 Q1017=
202401061220 METAR EGKK 061220Z 35008G20KT 260V030 9999 SCT017 06/03 Q1017=
202401061250 METAR EGKK 061250Z 36009KT 320V030 9999 FEW023 SCT040 06/03 Q1017=
202401061320 METAR EGKK 061320Z 35010KT 9999 SCT018 SCT025 06/03 Q1017=
202401061350 METAR EGKK 061350Z 36008KT 9999 FEW018 BKN031 06/03 Q1017=
202401061420 METAR EGKK 061420Z 35008KT 9999 FEW020 BKN032 06/03 Q1017=
202401061450 METAR EGKK 061450Z 35007KT 9999 FEW019 BKN035 06/03 Q1017=
202401061520 METAR EGKK 061520Z 36008KT 9999 SCT036 06/02 Q1018=
202401061550 METAR EGKK 061550Z 36007KT 9999 FEW024 SCT039 06/02 Q1018=
202401061620 METAR EGKK 061620Z 34007KT 310V050 9999 FEW024 BKN033 06/02 Q1018=
202401061650 METAR EGKK 061650Z 34006KT 9999 FEW020 BKN040 06/02 Q1019=
202401061720 METAR EGKK 061720Z 34007KT 9999 BKN042 06/02 Q1019=
202401061750 METAR EGKK 061750Z 35007KT 9999 BKN039 06/02 Q1019=
202401061820 METAR EGKK 061820Z 35006KT 9999 BKN039 05/02 Q1019=
202401061850 METAR EGKK 061850Z 35008KT 9999 FEW020 BKN036 05/02 Q1020=
202401061920 METAR EGKK 061920Z 34009KT 9999 FEW017 SCT027 05/02 Q1020=
202401061950 METAR EGKK 061950Z 01006KT 9999 VCSH SCT014 SCT029 05/03 Q1020=
202401062020 METAR EGKK 062020Z 36007KT 9999 SCT016 SCT021 05/03 Q1020=
202401062050 METAR EGKK 062050Z VRB07G17KT 9999 VCSH FEW018 BKN029 05/02 Q1020=
202401062120 METAR EGKK 062120Z 01006KT 9999 VCSH SCT017 SCT034 05/03 Q1020=
202401062150 METAR EGKK 062150Z 02010KT 9999 -SHRA BKN015 05/02 Q1020=
202401062220 METAR EGKK 062220Z 01007KT 9999 -RA BKN014 04/02 Q1020=
202401062250 METAR EGKK 062250Z 01007G20KT 300V090 9999 FEW017 04/02 Q1021=
202401062320 METAR EGKK 062320Z 02008KT 9999 BKN013 04/02 Q1021=
202401062350 METAR EGKK 062350Z 02009KT 9999 SCT027 04/02 Q1021=
202401070020 METAR EGKK 070020Z 02009KT 9999 SCT028 04/00 Q1022=
202401070050 METAR EGKK 070050Z 01007KT 9999 BKN032 03/M00 Q1022=
202401070120 METAR EGKK 070120Z 01009KT 9999 BKN028 03/M01 Q1022=
202401070150 METAR EGKK 070150Z 01008KT 9999 FEW028 03/M01 Q1022=
202401070220 METAR EGKK 070220Z 36009KT CAVOK 03/M01 Q1022=
202401070250 METAR EGKK 070250Z 36008KT CAVOK 02/M01 Q1023=
202401070320 METAR EGKK 070320Z 36008KT CAVOK 02/M01 Q1023=
202401070350 METAR EGKK 070350Z 01007KT CAVOK 02/M02 Q1023=
202401070420 METAR EGKK 070420Z 01007KT CAVOK 02/M02 Q1023=
202401070450 METAR EGKK 070450Z 35006KT CAVOK 02/M02 Q1023=
202401070520 METAR EGKK 070520Z 35008KT CAVOK 02/M03 Q1023=
202401070550 METAR EGKK 070550Z 34008KT 300V360 CAVOK 02/M02 Q1024=
202401070620 METAR EGKK 070620Z 34007KT 320V110 9999 SCT047 02/M02 Q1024=
202401070650 METAR EGKK 070650Z 35007KT 330V050 9999 FEW030 SCT048 02/M02 Q1024=
202401070720 METAR EGKK 070720Z 34006KT 9999 FEW029 02/M02 Q1024=
202401070750 METAR EGKK 070750Z 35005KT 270V020 CAVOK 02/M02 Q1025=
202401070820 METAR EGKK 070820Z 35004KT 320V020 CAVOK 01/M02 Q1025=
202401070850 METAR EGKK 070850Z 35003KT 300V070 CAVOK 02/M02 Q1025=
202401070920 METAR EGKK 070920Z 36005KT 310V010 CAVOK 02/M01 Q1026=
202401070950 METAR EGKK 070950Z 01006KT 350V090 CAVOK 03/M01 Q1026=
202401071020 METAR EGKK 071020Z 03007KT 360V140 CAVOK 03/M01 Q1026=
202401071050 METAR EGKK 071050Z 02008KT 350V080 9999 FEW025 04/M01 Q1026=
202401071120 METAR EGKK 071120Z 02008KT CAVOK 04/M01 Q1026=
202401071150 METAR EGKK 071150Z 03012KT 340V100 9999 FEW049 04/M01 Q1026=
202401071220 METAR EGKK 071220Z 02013KT 9999 FEW047 04/M02 Q1026=
202401071250 METAR EGKK 071250Z 02010KT 9999 SCT042 05/M01 Q1026=
202401071320 METAR EGKK 071320Z 01013KT 340V040 9999 SCT041 04/M02 Q1026=
202401071350 METAR EGKK 071350Z 01011G22KT 340V120 9999 BKN049 04/M02 Q1026=
202401071420 METAR EGKK 071420Z VRB09G23KT 9999 BKN038 04/M02 Q1027=
202401071450 METAR EGKK 071450Z 02010KT 350V060 9999 BKN039 04/M02 Q1027=
202401071520 METAR EGKK 071520Z 01011KT 9999 BKN042 04/M02 Q1027=
202401071550 METAR EGKK 071550Z 01012KT 9999 SCT031 BKN041 04/M02 Q1027=
202401071620 METAR EGKK 071620Z 02012KT 9999 BKN029 04/M02 Q1028=
202401071650 METAR EGKK 071650Z 02012KT 9999 BKN026 04/M02 Q1028=
202401071720 METAR EGKK 071720Z 03014KT 9999 BKN027 04/M02 Q1028=
202401071750 METAR EGKK 071750Z 04010KT 9999 BKN023 03/M01 Q1029=
202401071820 METAR EGKK 071820Z 03009KT 9999 BKN018 03/M00 Q1029=
202401071850 METAR EGKK 071850Z 03010KT 9999 BKN028 03/M01 Q1029=
202401071920 METAR EGKK 071920Z 02009KT 9999 BKN031 03/M01 Q1029=
202401071950 METAR EGKK 071950Z 02010KT 9999 BKN035 03/M01 Q1030=
202401072020 METAR EGKK 072020Z 03010KT 9999 BKN031 03/M01 Q1030=
202401072050 METAR EGKK 072050Z 03009KT 010V070 9999 BKN030 03/M01 Q1030=
202401072120 METAR EGKK 072120Z 04011KT 9999 BKN032 03/M02 Q1030=
202401072150 METAR EGKK 072150Z 03009KT 9999 SCT028 03/M02 Q1030=
202401072220 METAR EGKK 072220Z 03012KT 9999 BKN031 03/M02 Q1030=
202401072250 METAR EGKK 072250Z 03010KT 9999 BKN033 03/M02 Q1030=
202401072320 METAR EGKK 072320Z 03011KT 9999 BKN033 03/M02 Q1030=
202401072350 METAR EGKK 072350Z 04009KT 9999 BKN035 03/M02 Q1030=
202401080020 METAR EGKK 080020Z 03009KT 9999 BKN035 03/M02 Q1031=
202401080050 METAR EGKK 080050Z 03007KT 9999 BKN036 03/M02 Q1031=
202401080120 METAR EGKK 080120Z 03007KT 9999 BKN035 02/M02 Q1031=
202401080150 METAR EGKK 080150Z 03008KT 9999 BKN038 02/M02 Q1031=
202401080220 METAR EGKK 080220Z 03008KT 9999 OVC038 03/M03 Q1031=
202401080250 METAR EGKK 080250Z 04007KT 9999 OVC038 03/M03 Q1031=
202401080320 METAR EGKK 080320Z 02006KT 9999 OVC041 03/M03 Q1031=
202401080350 METAR EGKK 080350Z 02008KT 9999 OVC041 03/M03 Q1031=
202401080420 METAR EGKK 080420Z 02010KT 9999 OVC045 03/M03 Q1031=
202401080450 METAR EGKK 080450Z 02011KT 9999 BKN045 03/M03 Q1031=
202401080520 METAR EGKK 080520Z 03010KT 9999 BKN046 03/M03 Q1031=
202401080550 METAR EGKK 080550Z 03013KT 9999 BKN048 03/M04 Q1031=
202401080620 METAR EGKK 080620Z 03012KT 9999 BKN046 03/M04 Q1031=
202401080650 METAR EGKK 080650Z 02011KT 9999 BKN048 03/M04 Q1031=
202401080720 METAR EGKK 080720Z 02011KT 9999 BKN049 03/M03 Q1031=
202401080750 METAR EGKK 080750Z 03011KT 9999 BKN041 03/M03 Q1031=
202401080820 METAR EGKK 080820Z 02013KT 9999 BKN045 03/M03 Q1031=
202401080850 METAR EGKK 080850Z 03013KT 9999 BKN048 03/M03 Q1031=
202401080920 METAR EGKK 080920Z 03013KT 9999 BKN045 03/M03 Q1031=
202401080950 METAR EGKK 080950Z 03013KT 9999 BKN043 03/M03 Q1031=
202401081020 METAR EGKK 081020Z 03013KT 9999 FEW036 BKN048 03/M03 Q1031=
202401081050 METAR EGKK 081050Z 05016KT 9999 3000E VCSH BKN023 03/M02 Q1031=
202401081120 METAR EGKK 081120Z 04010KT 9000 -SHSN SCT012 BKN016 01/00 Q1031 RESHSN=
202401081150 METAR EGKK 081150Z 05013KT 9999 FEW009 SCT045 02/M00 Q1031=
202401081220 METAR EGKK 081220Z 05013KT 010V090 9999 FEW012 02/M01 Q1031=
202401081250 METAR EGKK 081250Z 05012KT 9999 FEW020 02/M02 Q1030=
202401081320 METAR EGKK 081320Z 05013KT 020V100 9999 SCT025 02/M02 Q1030=
202401081350 METAR EGKK 081350Z 07008KT 9000 -SHSN FEW015 BKN020 01/M01 Q1030=
202401081420 METAR EGKK 081420Z 04008KT 3000 -SHSN SCT005 BKN008 01/M00 Q1030 RESHSN=
202401081450 METAR EGKK 081450Z 05010KT 9999 FEW012 BKN020 01/M01 Q1030=
202401081520 METAR EGKK 081520Z 05008KT 8000 -SHSN SCT018 SCT022 01/M01 Q1030=
202401081550 METAR EGKK 081550Z 05012KT 0750 SN SCT006 BKN014 00/M01 Q1030 RESHSN=
202401081620 METAR EGKK 081620Z 04008KT 9999 -SN FEW006 SCT027 00/M01 Q1030 RESN=
202401081650 METAR EGKK 081650Z 05009KT 6000 -SN SCT018 BKN025 00/M01 Q1030=
202401081720 METAR EGKK 081720Z 06010KT 8000 -SHSN FEW020 BKN038 00/M01 Q1030=
202401081750 METAR EGKK 081750Z 04009KT 9999 BKN038 00/M01 Q1030=
202401081820 METAR EGKK 081820Z 06008KT 9999 FEW034 BKN042 00/M02 Q1030=
202401081850 METAR EGKK 081850Z 05007KT 9999 BKN030 01/M02 Q1030=
202401081920 METAR EGKK 081920Z 03005KT 9999 BKN045 01/M02 Q1030=
202401081950 METAR EGKK 081950Z 03005KT 9999 BKN040 01/M02 Q1030=
202401082020 METAR EGKK 082020Z 04006KT 9999 BKN036 01/M02 Q1030=
202401082050 METAR EGKK 082050Z 05005KT 9999 BKN035 01/M03 Q1030=
202401082120 METAR EGKK 082120Z 05005KT 9999 BKN036 01/M03 Q1030=
202401082150 METAR EGKK 082150Z 07008KT 9999 BKN028 01/M02 Q1030=
202401082220 METAR EGKK 082220Z 07008KT 9999 BKN029 01/M03 Q1030=
202401082250 METAR EGKK 082250Z 07010KT 9999 BKN028 01/M03 Q1030=
202401082320 METAR EGKK 082320Z 07008KT 9999 BKN030 01/M03 Q1030=
202401082350 METAR EGKK 082350Z 06008KT 9999 BKN028 00/M03 Q1030=
202401090020 METAR EGKK 090020Z 07009KT 9999 BKN027 00/M03 Q1030=
202401090050 METAR EGKK 090050Z 08008KT 9999 BKN027 00/M03 Q1030=
202401090120 METAR EGKK 090120Z 06007KT 9999 BKN027 00/M03 Q1030=
202401090150 METAR EGKK 090150Z 06009KT 9999 BKN026 00/M03 Q1030=
202401090220 METAR EGKK 090220Z 06009KT 9999 BKN028 00/M03 Q1030=
202401090250 METAR EGKK 090250Z 06009KT 9999 BKN029 00/M03 Q1030=
202401090320 METAR EGKK 090320Z 06009KT 9999 SCT027 M00/M03 Q1029=
202401090350 METAR EGKK 090350Z 05010KT 9999 SCT027 M00/M03 Q1029=
202401090420 METAR EGKK 090420Z 06009KT 9999 BKN023 00/M03 Q1029=
202401090450 METAR EGKK 090450Z 06009KT 9999 BKN022 01/M03 Q1029=
202401090520 METAR EGKK 090520Z 06010KT 9999 BKN023 01/M02 Q1029=
202401090550 METAR EGKK 090550Z 06010KT 9999 BKN022 01/M02 Q1029=
202401090620 METAR EGKK 090620Z 07012KT 9999 BKN021 01/M02 Q1029=
202401090650 METAR EGKK 090650Z 06017KT 9999 BKN021 01/M03 Q1029=
202401090720 METAR EGKK 090720Z 06011KT 9999 SCT020 00/M03 Q1029=
202401090750 METAR EGKK 090750Z 07010KT 9999 FEW022 00/M02 Q1030=
202401090820 METAR EGKK 090820Z 06008KT 9999 FEW022 00/M03 Q1030=
202401090850 METAR EGKK 090850Z 06008KT 9999 FEW022 01/M03 Q1030=
202401090920 METAR EGKK 090920Z 06011KT 9999 FEW022 01/M02 Q1030=
202401090950 METAR EGKK 090950Z 06013KT 9999 FEW025 01/M02 Q1030=
202401091020 METAR EGKK 091020Z 06011KT 9999 FEW021 02/M02 Q1030=
202401091050 METAR EGKK 091050Z 06015KT 9999 FEW020 02/M02 Q1030=
202401091120 METAR EGKK 091120Z 06016KT 9999 FEW013 03/M02 Q1030=
202401091150 METAR EGKK 091150Z 06016KT 9999 FEW015 03/M02 Q1030=
202401091220 METAR EGKK 091220Z 06015KT 9999 FEW024 03/M02 Q1029=
202401091250 METAR EGKK 091250Z 06016KT 9999 FEW026 04/M02 Q1029=
202401091320 METAR EGKK 091320Z 06017KT 9999 FEW025 03/M02 Q1029=
202401091350 METAR EGKK 091350Z 05019KT 9999 FEW025 03/M02 Q1029=
202401091420 METAR EGKK 091420Z 05018KT 9999 FEW025 03/M02 Q1029=
202401091450 METAR EGKK 091450Z 04014G24KT 9999 FEW025 03/M02 Q1029=
202401091520 METAR EGKK 091520Z 05017KT CAVOK 03/M02 Q1028=
202401091550 METAR EGKK 091550Z 05016KT CAVOK 03/M02 Q1028=
202401091620 METAR EGKK 091620Z 04016KT CAVOK 02/M02 Q1028=
202401091650 METAR EGKK 091650Z 05016KT CAVOK 02/M02 Q1028=
202401091720 METAR EGKK 091720Z 05016KT CAVOK 02/M03 Q1028=
202401091750 METAR EGKK 091750Z 06015KT CAVOK 02/M03 Q1028=
202401091820 METAR EGKK 091820Z 05015KT CAVOK 02/M03 Q1028=
202401091850 METAR EGKK 091850Z 05011KT CAVOK 02/M03 Q1029=
202401091920 METAR EGKK 091920Z 05009KT CAVOK 02/M02 Q1029=
202401091950 METAR EGKK 091950Z 05009KT 9999 FEW029 02/M02 Q1029=
202401092020 METAR EGKK 092020Z 06012KT 9999 FEW028 02/M02 Q1028=
202401092050 METAR EGKK 092050Z 07011KT 9999 FEW028 02/M02 Q1028=
202401092120 METAR EGKK 092120Z 08010KT CAVOK 02/M02 Q1029=
202401092150 METAR EGKK 092150Z 07008KT 9999 FEW029 01/M03 Q1029=
202401092220 METAR EGKK 092220Z 07008KT 9999 FEW028 00/M03 Q1029=
202401092250 METAR EGKK 092250Z 07007KT 9999 FEW028 M00/M04 Q1029=
202401092320 METAR EGKK 092320Z 06007KT CAVOK M01/M04 Q1029=
202401092350 METAR EGKK 092350Z 06006KT CAVOK M01/M04 Q1029=
202401100020 METAR EGKK 100020Z 06005KT CAVOK M01/M05 Q1029=
202401100050 METAR EGKK 100050Z 05004KT CAVOK M02/M05 Q1029=
202401100120 METAR EGKK 100120Z 03004KT CAVOK M02/M05 Q1028=
202401100150 METAR EGKK 100150Z 02005KT CAVOK M02/M05 Q1028=
202401100220 METAR EGKK 100220Z 03005KT CAVOK M02/M05 Q1028=
202401100250 METAR EGKK 100250Z 03005KT CAVOK M02/M05 Q1028=
202401100320 METAR EGKK 100320Z 01004KT CAVOK M02/M05 Q1028=
202401100350 METAR EGKK 100350Z 02006KT CAVOK M03/M05 Q1028=
202401100420 METAR EGKK 100420Z 01006KT CAVOK M02/M05 Q1028=
202401100450 METAR EGKK 100450Z 01004KT CAVOK M03/M05 Q1028=
202401100520 METAR EGKK 100520Z 01005KT CAVOK M03/M05 Q1028=
202401100550 METAR EGKK 100550Z 02005KT CAVOK M03/M04 Q1028=
202401100620 METAR EGKK 100620Z 03005KT CAVOK M02/M04 Q1028=
202401100650 METAR EGKK 100650Z 01004KT CAVOK M03/M04 Q1028=
202401100720 METAR EGKK 100720Z 01005KT 9999 FEW024 M02/M04 Q1028=
202401100750 METAR EGKK 100750Z 01005KT 9999 SCT023 M01/M03 Q1028=
202401100820 METAR EGKK 100820Z 02005KT 9999 FEW021 M02/M04 Q1028=
202401100850 METAR EGKK 100850Z 01007KT CAVOK M01/M03 Q1028=
202401100920 METAR EGKK 100920Z 01006KT CAVOK M00/M03 Q1028=
202401100950 METAR EGKK 100950Z 03006KT CAVOK 01/M02 Q1028=
202401101020 METAR EGKK 101020Z 05008KT CAVOK 02/M02 Q1028=
202401101050 METAR EGKK 101050Z 04009KT CAVOK 03/M02 Q1028=
202401101120 METAR EGKK 101120Z 03011KT CAVOK 03/M02 Q1028=
202401101150 METAR EGKK 101150Z 03011KT CAVOK 04/M01 Q1028=
202401101220 METAR EGKK 101220Z 04011KT 010V080 CAVOK 05/M01 Q1027=
202401101250 METAR EGKK 101250Z 04013KT 010V070 CAVOK 05/M01 Q1027=
202401101320 METAR EGKK 101320Z 05014KT 010V080 CAVOK 05/M02 Q1027=
202401101350 METAR EGKK 101350Z 05015KT 9999 FEW032 05/M03 Q1027=
202401101420 METAR EGKK 101420Z 04014KT CAVOK 05/M03 Q1027=
202401101450 METAR EGKK 101450Z 04016KT CAVOK 05/M03 Q1027=
202401101520 METAR EGKK 101520Z 04015KT CAVOK 04/M03 Q1027=
202401101550 METAR EGKK 101550Z 04013KT 360V060 CAVOK 04/M04 Q1027=
202401101620 METAR EGKK 101620Z 04011KT CAVOK 04/M04 Q1027=
202401101650 METAR EGKK 101650Z 03011KT CAVOK 03/M04 Q1027=
202401101720 METAR EGKK 101720Z 03011KT CAVOK 03/M04 Q1027=
202401101750 METAR EGKK 101750Z 03010KT CAVOK 03/M04 Q1028=
202401101820 METAR EGKK 101820Z 03009KT 9999 SCT035 03/M04 Q1028=
202401101850 METAR EGKK 101850Z 03010KT 9999 SCT026 03/M04 Q1028=
202401101920 METAR EGKK 101920Z 04011KT 9999 FEW025 SCT032 03/M03 Q1028=
202401101950 METAR EGKK 101950Z 04009KT 9999 BKN034 02/M03 Q1029=
202401102020 METAR EGKK 102020Z 04008KT 9999 BKN032 02/M03 Q1029=
202401102050 METAR EGKK 102050Z 05007KT 020V110 9999 SCT031 01/M03 Q1029=
202401102120 METAR EGKK 102120Z 08004KT 9999 SCT030 01/M03 Q1030=
202401102150 METAR EGKK 102150Z 06007KT 9999 FEW030 00/M03 Q1030=
202401102220 METAR EGKK 102220Z 06006KT 010V100 CAVOK M00/M03 Q1030=
202401102250 METAR EGKK 102250Z 06005KT CAVOK M01/M04 Q1031=
202401102320 METAR EGKK 102320Z 04005KT 9999 FEW025 M00/M03 Q1031=
202401102350 METAR EGKK 102350Z 04006KT 9999 FEW025 M00/M03 Q1031=
202401110020 METAR EGKK 110020Z 03006KT 9999 SCT025 M01/M04 Q1031=
202401110050 METAR EGKK 110050Z 02005KT 9999 BKN025 M01/M04 Q1031=
202401110120 METAR EGKK 110120Z 03005KT 9999 BKN024 M01/M03 Q1032=
202401110150 METAR EGKK 110150Z 02003KT 9999 BKN023 M01/M04 Q1032=
202401110220 METAR EGKK 110220Z 04002KT 9999 BKN023 M01/M04 Q1032=
202401110250 METAR EGKK 110250Z 01003KT 9999 BKN024 M01/M03 Q1032=
202401110320 METAR EGKK 110320Z 35004KT 9999 BKN022 M01/M03 Q1033=
202401110350 METAR EGKK 110350Z 01004KT 9999 BKN022 M01/M03 Q1033=
202401110420 METAR EGKK 110420Z 01004KT 9999 BKN022 M01/M03 Q1033=
202401110450 METAR EGKK 110450Z 33003KT 9999 SCT022 M02/M04 Q1033=
202401110520 METAR EGKK 110520Z 34004KT CAVOK M02/M03 Q1033=
202401110550 METAR EGKK 110550Z 01005KT 9999 FEW021 M02/M03 Q1034=
202401110620 METAR EGKK 110620Z 02007KT 9999 FEW020 M01/M03 Q1034=
202401110650 METAR EGKK 110650Z 01005KT CAVOK M01/M03 Q1034=
202401110720 METAR EGKK 110720Z 01005KT CAVOK M01/M03 Q1034=
202401110750 METAR EGKK 110750Z 01005KT CAVOK M01/M03 Q1035=
202401110820 METAR EGKK 110820Z 01005KT 330V030 9999 FEW019 M01/M02 Q1035=
202401110850 METAR EGKK 110850Z 01005KT 9999 FEW020 M01/M02 Q1035=
202401110920 METAR EGKK 110920Z 01007KT CAVOK 00/M01 Q1036=
202401110950 METAR EGKK 110950Z 01007G18KT 340V060 9999 FEW018 01/M01 Q1036=
202401111020 METAR EGKK 111020Z VRB07KT CAVOK 02/M01 Q1036=
202401111050 METAR EGKK 111050Z 01007KT 330V040 CAVOK 03/M01 Q1036=
202401111120 METAR EGKK 111120Z 02009KT CAVOK 04/M00 Q1037=
202401111150 METAR EGKK 111150Z 03011KT 9999 FEW016 04/01 Q1037=
202401111220 METAR EGKK 111220Z 02012KT 9999 FEW016 04/01 Q1036=
202401111250 METAR EGKK 111250Z 02012KT 9999 SCT018 04/01 Q1036=
202401111320 METAR EGKK 111320Z 02012KT 9999 BKN017 04/01 Q1036=
202401111350 METAR EGKK 111350Z 02013KT 9999 BKN017 04/00 Q1036=
202401111420 METAR EGKK 111420Z 02013KT 9999 BKN018 03/M00 Q1037=
202401111450 METAR EGKK 111450Z 02011KT 9999 BKN016 03/M00 Q1037=
202401111520 METAR EGKK 111520Z 04012KT 9999 BKN017 03/M00 Q1037=
202401111550 METAR EGKK 111550Z 04007KT 9999 BKN018 03/00 Q1037=
202401111620 METAR EGKK 111620Z 03007KT 9999 BKN017 04/00 Q1037=
202401111650 METAR EGKK 111650Z 36007KT 9999 BKN015 04/01 Q1037=
202401111720 METAR EGKK 111720Z 36008KT 9999 BKN013 04/01 Q1037=
202401111750 METAR EGKK 111750Z 02008KT 9999 BKN011 04/02 Q1037=
202401111820 METAR EGKK 111820Z 02008KT 9999 BKN010 04/03 Q1037=
202401111850 METAR EGKK 111850Z 02008KT 9999 BKN009 04/03 Q1037=
202401111920 METAR EGKK 111920Z 03008KT 9999 BKN013 05/03 Q1037=
202401111950 METAR EGKK 111950Z 03010KT 9999 BKN014 05/03 Q1037=
202401112020 METAR EGKK 112020Z 02008KT 9999 BKN013 05/03 Q1037=
202401112050 METAR EGKK 112050Z 02010KT 350V080 9999 BKN014 05/03 Q1037=
202401112120 METAR EGKK 112120Z 02008KT 9999 BKN016 05/03 Q1037=
202401112150 METAR EGKK 112150Z 03008KT 9999 BKN013 05/03 Q1038=
202401112220 METAR EGKK 112220Z 02007KT 9999 BKN013 04/03 Q1037=
202401112250 METAR EGKK 112250Z 02008KT 9999 SCT014 BKN021 04/03 Q1037=
202401112320 METAR EGKK 112320Z 02007KT 9999 BKN017 05/03 Q1037=
202401112350 METAR EGKK 112350Z 01007KT 9999 -RA BKN013 04/03 Q1037=
202401120020 METAR EGKK 120020Z 03008KT 010V070 9999 SCT013 BKN017 05/03 Q1037=
202401120050 METAR EGKK 120050Z 01008KT 9999 BKN010 05/03 Q1037=
202401120120 METAR EGKK 120120Z 03009KT 9999 BKN016 05/03 Q1037=
202401120150 METAR EGKK 120150Z 03011KT 9999 BKN015 05/02 Q1037=
202401120220 METAR EGKK 120220Z 02009KT 9999 BKN017 05/03 Q1037=
202401120250 METAR EGKK 120250Z 04011KT 9999 BKN014 05/02 Q1037=
202401120320 METAR EGKK 120320Z NIL=
202401120350 METAR EGKK 120350Z 03012KT 9999 BKN015 05/02 Q1037=
202401120420 METAR EGKK 120420Z 03010KT 9999 BKN016 05/02 Q1036=
202401120450 METAR EGKK 120450Z 04012KT 9999 BKN016 05/02 Q1036=
202401120520 METAR EGKK 120520Z 03009KT 9999 BKN017 05/01 Q1036=
202401120550 METAR EGKK 120550Z 03008KT 9999 BKN019 05/02 Q1036=
202401120620 METAR EGKK 120620Z 03007KT 9999 BKN017 05/02 Q1036=
202401120650 METAR EGKK 120650Z 03011KT 360V060 9999 BKN018 05/01 Q1036=
202401120720 METAR EGKK 120720Z 04010KT 9999 BKN018 05/01 Q1036=
202401120750 METAR EGKK 120750Z 03008KT 9999 BKN017 05/01 Q1036=
202401120820 METAR EGKK 120820Z 03008KT 9999 BKN017 05/02 Q1036=
202401120850 METAR EGKK 120850Z 03010KT 9999 BKN017 05/02 Q1036=
202401120920 METAR EGKK 120920Z 04011KT 9999 BKN018 05/02 Q1036=
202401120950 METAR EGKK 120950Z 03010KT 9999 BKN017 05/02 Q1036=
202401121020 METAR EGKK 121020Z 04010KT 9999 BKN016 05/02 Q1036=
202401121050 METAR EGKK 121050Z 05009KT 9999 BKN015 05/02 Q1036=
202401121120 METAR EGKK 121120Z 04009KT 360V060 9999 BKN016 05/02 Q1036=
202401121150 METAR EGKK 121150Z 05008KT 020V100 9999 BKN016 05/02 Q1036=
202401121220 METAR EGKK 121220Z 05008KT 010V090 9999 BKN016 05/02 Q1036=
202401121250 METAR EGKK 121250Z 05008KT 030V090 9999 BKN016 05/02 Q1035=
202401121320 METAR EGKK 121320Z 04009KT 350V070 9999 BKN016 05/02 Q1035=
202401121350 METAR EGKK 121350Z 02010KT 9999 BKN016 05/02 Q1034=
202401121420 METAR EGKK 121420Z 06008G18KT 030V120 9999 BKN017 05/02 Q1034=
202401121450 METAR EGKK 121450Z 04006KT 360V090 9999 BKN016 05/02 Q1034=
202401121520 METAR EGKK 121520Z 02007KT 9999 BKN016 05/02 Q1034=
202401121550 METAR EGKK 121550Z 05006KT 9999 BKN015 05/02 Q1034=
202401121620 METAR EGKK 121620Z 04006KT 9999 BKN015 05/02 Q1034=
202401121650 METAR EGKK 121650Z 05006KT 9999 BKN015 05/02 Q1034=
202401121720 METAR EGKK 121720Z 05005KT 9999 BKN014 05/02 Q1034=
202401121750 METAR EGKK 121750Z 03006KT 360V090 9999 BKN014 04/02 Q1034=
202401121820 METAR EGKK 121820Z 04005KT 9999 BKN014 04/02 Q1033=
202401121850 METAR EGKK 121850Z 03006KT 9999 BKN014 04/01 Q1033=
202401121920 METAR EGKK 121920Z 05005KT 9999 BKN014 04/01 Q1033=
202401121950 METAR EGKK 121950Z 03006KT 350V080 9999 BKN014 04/01 Q1033=
202401122020 METAR EGKK 122020Z 02004KT 290V080 9999 BKN014 04/01 Q1033=
202401122050 METAR EGKK 122050Z 06005KT 020V080 9999 BKN014 04/01 Q1033=
202401122120 METAR EGKK 122120Z VRB02KT 9999 BKN014 04/01 Q1032=
202401122150 METAR EGKK 122150Z VRB02KT 9999 BKN014 04/01 Q1032=
202401122220 METAR EGKK 122220Z 08004KT 9999 BKN014 04/01 Q1032=
202401122250 METAR EGKK 122250Z 00000KT 9999 BKN014 04/01 Q1032=
202401122320 METAR EGKK 122320Z VRB01KT 9999 BKN013 04/01 Q1032=
202401122350 METAR EGKK 122350Z VRB01KT 9999 BKN015 03/01 Q1031=
202401130020 METAR EGKK 130020Z VRB01KT 9999 BKN015 03/00 Q1031=
202401130050 METAR EGKK 130050Z 23003KT 190V270 9999 BKN014 03/01 Q1031=
202401130120 METAR EGKK 130120Z 22003KT 9999 BKN013 03/01 Q1031=
202401130150 METAR EGKK 130150Z 24004KT 210V270 9999 BKN012 03/01 Q1030=
202401130220 METAR EGKK 130220Z 25006KT 9999 BKN012 03/00 Q1030=
202401130250 METAR EGKK 130250Z 26005KT 230V300 9999 BKN011 03/00 Q1029=
202401130320 METAR EGKK 130320Z 27005KT 9999 BKN011 03/00 Q1029=
202401130350 METAR EGKK 130350Z 28005KT 250V310 9999 BKN011 02/00 Q1029=
202401130420 METAR EGKK 130420Z 26007KT 230V290 9999 OVC011 02/M00 Q1028=
202401130450 METAR EGKK 130450Z 26006KT 9999 OVC011 02/00 Q1028=
202401130520 METAR EGKK 130520Z 26006KT 9999 OVC010 02/00 Q1028=
202401130550 METAR EGKK 130550Z 31007KT 9999 OVC010 02/M00 Q1028=
202401130620 METAR EGKK 130620Z 31007KT 260V340 9999 BKN010 02/M00 Q1028=
202401130650 METAR EGKK 130650Z 30006KT 9999 BKN009 02/M00 Q1027=
202401130720 METAR EGKK 130720Z 30006KT 9999 BKN009 02/M00 Q1027=
202401130750 METAR EGKK 130750Z 31006KT 9999 BKN009 02/M00 Q1027=
202401130820 METAR EGKK 130820Z 33006KT 280V350 9999 BKN009 01/M01 Q1027=
202401130850 METAR EGKK 130850Z 29006KT 9999 BKN009 01/M01 Q1027=
202401130920 METAR EGKK 130920Z 29007KT 260V330 9999 BKN008 01/M01 Q1027=
202401130950 METAR EGKK 130950Z 30006KT 9999 BKN008 01/M01 Q1026=
202401131020 METAR EGKK 131020Z 29006KT 260V330 9999 BKN009 01/M01 Q1026=
202401131050 METAR EGKK 131050Z 29005KT 9999 BKN009 01/M01 Q1026=
202401131120 METAR EGKK 131120Z 33005KT 290V360 9999 BKN009 01/M01 Q1026=
202401131150 METAR EGKK 131150Z 33006KT 290V360 9999 BKN009 01/M01 Q1025=
202401131220 METAR EGKK 131220Z 31004KT 9999 BKN009 01/M01 Q1025=
202401131250 METAR EGKK 131250Z 30004KT 250V330 9999 BKN009 02/M01 Q1024=
202401131320 METAR EGKK 131320Z 29005KT 260V330 9999 BKN009 02/M00 Q1024=
202401131350 METAR EGKK 131350Z 29005KT 9999 BKN010 02/M00 Q1024=
202401131420 METAR EGKK 131420Z 28007KT 9999 BKN010 02/M00 Q1023=
202401131450 METAR EGKK 131450Z 29005KT 230V330 9999 BKN010 02/M00 Q1023=
202401131520 METAR EGKK 131520Z 27005KT 230V300 9999 BKN011 02/M00 Q1023=
202401131550 METAR EGKK 131550Z 27005KT 220V360 9999 BKN010 02/M00 Q1023=
202401131620 METAR EGKK 131620Z 24003KT 200V270 9999 BKN010 02/M00 Q1023=
202401131650 METAR EGKK 131650Z 24003KT 210V310 9999 BKN010 02/M00 Q1022=
202401131720 METAR EGKK 131720Z 26003KT 220V310 9999 BKN010 02/M00 Q1022=
202401131750 METAR EGKK 131750Z 26004KT 220V280 9999 BKN010 02/M00 Q1022=
202401131820 METAR EGKK 131820Z 27003KT 230V300 9999 BKN010 02/00 Q1022=
202401131850 METAR EGKK 131850Z 30003KT 270V330 9999 BKN010 02/00 Q1022=
202401131920 METAR EGKK 131920Z 01003KT 320V040 9999 BKN009 02/00 Q1022=
202401131950 METAR EGKK 131950Z VRB02KT 9999 BKN009 02/00 Q1021=
202401132020 METAR EGKK 132020Z 15003KT 9999 BKN010 02/00 Q1021=
202401132050 METAR EGKK 132050Z 17002KT 9999 BKN010 02/00 Q1021=
202401132120 METAR EGKK 132120Z 18002KT 9999 BKN009 02/01 Q1020=
202401132150 METAR EGKK 132150Z 19004KT 9999 BKN015 02/01 Q1020=
202401132220 METAR EGKK 132220Z 23003KT 190V250 9999 BKN010 02/01 Q1020=
202401132250 METAR EGKK 132250Z 23003KT 9999 FEW010 BKN017 02/01 Q1019=
202401132320 METAR EGKK 132320Z 22004KT 9999 SCT007 BKN020 02/01 Q1019=
202401132350 METAR EGKK 132350Z 22006KT 190V260 9999 BKN007 02/01 Q1019=
202401140020 METAR EGKK 140020Z 22007KT 8000 BKN005 02/01 Q1019=
202401140050 METAR EGKK 140050Z 23006KT 7000 BKN004 01/01 Q1018=
202401140120 METAR EGKK 140120Z 24005KT 7000 BKN004 01/01 Q1018=
202401140150 METAR EGKK 140150Z 23005KT 190V280 7000 BKN005 02/01 Q1017=
202401140220 METAR EGKK 140220Z 24004KT 8000 BKN006 02/01 Q1017=
202401140250 METAR EGKK 140250Z 24004KT 9000 BKN006 02/00 Q1017=
202401140320 METAR EGKK 140320Z 23003KT 8000 BKN006 02/00 Q1017=
202401140350 METAR EGKK 140350Z 22004KT 8000 BKN006 01/00 Q1016=
202401140420 METAR EGKK 140420Z 25003KT 6000 BKN005 01/01 Q1016=
202401140450 METAR EGKK 140450Z 22002KT 5000 BR BKN005 02/01 Q1016=
202401140520 METAR EGKK 140520Z 22003KT 5000 BR BKN006 02/01 Q1015=
202401140550 METAR EGKK 140550Z 22004KT 6000 BKN006 02/01 Q1015=
202401140620 METAR EGKK 140620Z 23005KT 6000 BKN005 02/01 Q1015=
202401140650 METAR EGKK 140650Z 25006KT 6000 BKN004 02/01 Q1015=
202401140720 METAR EGKK 140720Z 24003KT 6000 BKN004 BKN037 02/01 Q1015=
202401140750 METAR EGKK 140750Z 25004KT 7000 SCT004 BKN029 02/01 Q1015=
202401140820 METAR EGKK 140820Z 24003KT 200V260 7000 SCT004 BKN035 02/01 Q1015=
202401140850 METAR EGKK 140850Z 22003KT 9000 BKN032 02/02 Q1015=
202401140920 METAR EGKK 140920Z VRB02KT 9000 BKN032 02/02 Q1014=
202401140950 METAR EGKK 140950Z 25004KT 9999 BKN033 03/02 Q1014=
202401141020 METAR EGKK 141020Z 26005KT 230V290 9999 BKN034 04/02 Q1014=
202401141050 METAR EGKK 141050Z 28004KT 9999 BKN033 04/02 Q1014=
202401141120 METAR EGKK 141120Z 29004KT 270V340 9999 BKN035 05/01 Q1013=
202401141150 METAR EGKK 141150Z 26004KT 230V290 9999 BKN036 05/01 Q1013=
202401141220 METAR EGKK 141220Z 28006KT 240V310 9999 BKN026 05/01 Q1012=
202401141250 METAR EGKK 141250Z 29008KT 9999 SCT033 05/01 Q1012=
202401141320 METAR EGKK 141320Z 28006KT 250V320 9999 SCT024 BKN040 06/01 Q1011=
202401141350 METAR EGKK 141350Z 30010KT 9999 SCT024 BKN030 06/01 Q1011=
202401141420 METAR EGKK 141420Z 29011KT 9999 FEW024 SCT038 06/00 Q1011=
202401141450 METAR EGKK 141450Z 29008KT 9999 FEW028 06/01 Q1011=
202401141520 METAR EGKK 141520Z 28008KT 9999 FEW029 SCT044 06/01 Q1010=
202401141550 METAR EGKK 141550Z 29006KT 9999 FEW020 06/01 Q1010=
202401141620 METAR EGKK 141620Z 28005KT 9999 FEW027 SCT030 06/01 Q1010=
202401141650 METAR EGKK 141650Z 27006KT 9999 SCT026 SCT033 05/01 Q1010=
202401141720 METAR EGKK 141720Z 27008KT 9999 -RA FEW027 SCT032 05/01 Q1010=
202401141750 METAR EGKK 141750Z 31004KT 9999 SCT024 SCT028 05/02 Q1010=
202401141820 METAR EGKK 141820Z 25006KT 9999 -SHRA FEW009 SCT016 BKN021 05/02 Q1010=
202401141850 METAR EGKK 141850Z 28006KT 9999 SCT018 BKN026 04/02 Q1010=
202401141920 METAR EGKK 141920Z 28008KT 9999 FEW017 SCT034 04/03 Q1010=
202401141950 METAR EGKK 141950Z 27006KT 9999 FEW019 SCT032 04/02 Q1010=
202401142020 METAR EGKK 142020Z 29007KT 9999 FEW021 04/02 Q1010=
202401142050 METAR EGKK 142050Z 30009KT 9999 FEW021 SCT024 04/01 Q1010=
202401142120 METAR EGKK 142120Z 30009KT 9999 SCT023 04/01 Q1010=
202401142150 METAR EGKK 142150Z 30009KT 9999 SCT021 BKN027 04/00 Q1010=
202401142220 METAR EGKK 142220Z 32010KT 270V330 9999 SCT020 04/01 Q1010=
202401142250 METAR EGKK 142250Z 32010KT 9999 BKN047 04/M00 Q1010=
202401142320 METAR EGKK 142320Z 32010KT CAVOK 03/M01 Q1010=
202401142350 METAR EGKK 142350Z 32008KT CAVOK 02/M01 Q1010=
202401150020 METAR EGKK 150020Z 31007KT 9999 FEW047 02/M02 Q1010=
202401150050 METAR EGKK 150050Z 30006KT CAVOK 01/M02 Q1010=
202401150120 METAR EGKK 150120Z 29006KT CAVOK 01/M02 Q1009=
202401150150 METAR EGKK 150150Z 25005KT CAVOK M00/M03 Q1009=
202401150220 METAR EGKK 150220Z 24003KT CAVOK M01/M03 Q1009=
202401150250 METAR EGKK 150250Z 26004KT CAVOK M01/M04 Q1009=
202401150320 METAR EGKK 150320Z 28005KT CAVOK M02/M04 Q1009=
202401150350 METAR EGKK 150350Z 29005KT CAVOK M01/M03 Q1009=
202401150420 METAR EGKK 150420Z 26005KT CAVOK M01/M04 Q1009=
202401150450 METAR EGKK 150450Z 27006KT CAVOK M02/M04 Q1009=
202401150520 METAR EGKK 150520Z 28006KT CAVOK M02/M04 Q1009=
202401150550 METAR EGKK 150550Z 29005KT CAVOK M01/M03 Q1009=
202401150620 METAR EGKK 150620Z 29005KT CAVOK M00/M03 Q1009=
202401150650 METAR EGKK 150650Z 30009KT CAVOK 00/M03 Q1009=
202401150720 METAR EGKK 150720Z 32011KT CAVOK 00/M03 Q1009=
202401150750 METAR EGKK 150750Z 32009KT CAVOK M00/M03 Q1009=
202401150820 METAR EGKK 150820Z 31008KT CAVOK M00/M03 Q1010=
202401150850 METAR EGKK 150850Z 30008KT CAVOK M00/M03 Q1010=
202401150920 METAR EGKK 150920Z 29009KT CAVOK 01/M04 Q1010=
202401150950 METAR EGKK 150950Z 31010KT CAVOK 01/M04 Q1010=
202401151020 METAR EGKK 151020Z 31012KT CAVOK 02/M03 Q1011=
202401151050 METAR EGKK 151050Z 31012KT CAVOK 02/M03 Q1011=
202401151120 METAR EGKK 151120Z 31011KT CAVOK 02/M04 Q1011=
202401151150 METAR EGKK 151150Z 32009KT 290V360 CAVOK 03/M04 Q1011=
202401151220 METAR EGKK 151220Z 32010KT 290V350 9999 FEW033 03/M05 Q1011=
202401151250 METAR EGKK 151250Z 34011KT CAVOK 03/M06 Q1011=
202401151320 METAR EGKK 151320Z 32009KT CAVOK 03/M05 Q1011=
202401151350 METAR EGKK 151350Z 32010KT CAVOK 03/M06 Q1011=
202401151420 METAR EGKK 151420Z 31011KT 280V350 CAVOK 03/M06 Q1011=
202401151450 METAR EGKK 151450Z 31009KT CAVOK 02/M07 Q1011=
202401151520 METAR EGKK 151520Z 31007KT CAVOK 02/M07 Q1011=
202401151550 METAR EGKK 151550Z 30009KT CAVOK 02/M07 Q1012=
202401151620 METAR EGKK 151620Z 28005KT 260V320 CAVOK 01/M07 Q1012=
202401151650 METAR EGKK 151650Z 28006KT CAVOK 00/M07 Q1012=
202401151720 METAR EGKK 151720Z 28006KT CAVOK M01/M07 Q1012=
202401151750 METAR EGKK 151750Z 26004KT CAVOK M01/M08 Q1013=
202401151820 METAR EGKK 151820Z 27004KT CAVOK M02/M08 Q1013=
202401151850 METAR EGKK 151850Z 31004KT 270V340 CAVOK M01/M08 Q1013=
202401151920 METAR EGKK 151920Z 28004KT CAVOK M02/M08 Q1013=
202401151950 METAR EGKK 151950Z VRB01KT CAVOK M03/M07 Q1013=
202401152020 METAR EGKK 152020Z 15001KT CAVOK M04/M07 Q1013=
202401152050 METAR EGKK 152050Z 18002KT CAVOK M04/M07 Q1013=
202401152120 METAR EGKK 152120Z 23003KT CAVOK M04/M07 Q1013=
202401152150 METAR EGKK 152150Z VRB02KT CAVOK M04/M07 Q1013=
202401152220 METAR EGKK 152220Z VRB01KT CAVOK M04/M07 Q1013=
202401152250 METAR EGKK 152250Z VRB01KT CAVOK M04/M07 Q1013=
202401152320 METAR EGKK 152320Z 19003KT 160V240 CAVOK M04/M07 Q1013=
202401152350 METAR EGKK 152350Z 19003KT CAVOK M04/M07 Q1013=
202401160020 METAR EGKK 160020Z 16001KT CAVOK M04/M07 Q1013=
202401160050 METAR EGKK 160050Z VRB01KT CAVOK M05/M07 Q1013=
202401160120 METAR EGKK 160120Z 20002KT CAVOK M05/M07 Q1013=
202401160150 METAR EGKK 160150Z 02001KT CAVOK M05/M07 Q1012=
202401160220 METAR EGKK 160220Z VRB01KT CAVOK M05/M07 Q1012=
202401160250 METAR EGKK 160250Z 25001KT CAVOK M05/M08 Q1012=
202401160320 METAR EGKK 160320Z 19002KT CAVOK M05/M07 Q1012=
202401160350 METAR EGKK 160350Z VRB01KT CAVOK M05/M07 Q1012=
202401160420 METAR EGKK 160420Z 18001KT CAVOK M05/M07 Q1012=
202401160450 METAR EGKK 160450Z VRB01KT CAVOK M05/M07 Q1011=
202401160520 METAR EGKK 160520Z VRB01KT CAVOK M05/M07 Q1011=
202401160550 METAR EGKK 160550Z 22001KT CAVOK M06/M08 Q1011=
202401160620 METAR EGKK 160620Z 18001KT CAVOK M06/M07 Q1011=
202401160650 METAR EGKK 160650Z 00000KT CAVOK M06/M08 Q1011=
202401160720 METAR EGKK 160720Z VRB01KT CAVOK M06/M07 Q1011=
202401160750 METAR EGKK 160750Z 17001KT CAVOK M06/M07 Q1011=
202401160820 METAR EGKK 160820Z VRB01KT CAVOK M06/M07 Q1010=
202401160850 METAR EGKK 160850Z 11001KT CAVOK M05/M06 Q1010=
202401160920 METAR EGKK 160920Z 22001KT CAVOK M03/M05 Q1010=
202401160950 METAR EGKK 160950Z VRB01KT CAVOK M02/M05 Q1010=
202401161020 METAR EGKK 161020Z VRB02KT CAVOK M01/M04 Q1010=
202401161050 METAR EGKK 161050Z 22004KT CAVOK 01/M04 Q1009=
202401161120 METAR EGKK 161120Z 23005KT CAVOK 02/M04 Q1009=
202401161150 METAR EGKK 161150Z 22007KT CAVOK 03/M05 Q1009=
202401161220 METAR EGKK 161220Z 23006KT CAVOK 03/M06 Q1008=
202401161250 METAR EGKK 161250Z 24006KT CAVOK 04/M06 Q1008=
202401161320 METAR EGKK 161320Z 24006KT 200V270 CAVOK 04/M06 Q1007=
202401161350 METAR EGKK 161350Z 22005KT CAVOK 04/M06 Q1007=
202401161420 METAR EGKK 161420Z 22006KT CAVOK 04/M05 Q1006=
202401161450 METAR EGKK 161450Z 22006KT CAVOK 04/M06 Q1006=
202401161520 METAR EGKK 161520Z 22005KT CAVOK 04/M06 Q1006=
202401161550 METAR EGKK 161550Z 20004KT CAVOK 03/M07 Q1006=
202401161620 METAR EGKK 161620Z 20003KT CAVOK 02/M06 Q1005=
202401161650 METAR EGKK 161650Z 17002KT CAVOK 01/M06 Q1005=
202401161720 METAR EGKK 161720Z 18002KT CAVOK 00/M06 Q1005=
202401161750 METAR EGKK 161750Z 15002KT CAVOK 00/M06 Q1004=
202401161820 METAR EGKK 161820Z 17002KT CAVOK M01/M05 Q1004=
202401161850 METAR EGKK 161850Z 18003KT CAVOK M02/M05 Q1004=
202401161920 METAR EGKK 161920Z VRB01KT CAVOK M02/M06 Q1003=
202401161950 METAR EGKK 161950Z 00000KT CAVOK M02/M06 Q1003=
202401162020 METAR EGKK 162020Z 00000KT CAVOK M03/M06 Q1003=
202401162050 METAR EGKK 162050Z 18001KT CAVOK M03/M06 Q1002=
202401162120 METAR EGKK 162120Z 14001KT 9999 BKN036 M03/M06 Q1002=
202401162150 METAR EGKK 162150Z VRB02KT 9999 BKN035 M02/M05 Q1001=
202401162220 METAR EGKK 162220Z VRB02KT 9999 BKN033 M02/M05 Q1001=
202401162250 METAR EGKK 162250Z 10001KT 9999 BKN033 M01/M04 Q1000=
202401162320 METAR EGKK 162320Z 17001KT 9999 BKN028 M01/M04 Q1000=
202401162350 METAR EGKK 162350Z VRB01KT 9999 BKN029 M01/M04 Q0999=
202401170020 METAR EGKK 170020Z VRB02KT 9999 BKN030 M01/M04 Q0999=
202401170050 METAR EGKK 170050Z VRB02KT 9999 BKN031 M01/M04 Q0999=
202401170120 METAR EGKK 170120Z 07003KT 9999 FEW025 BKN031 M01/M04 Q0998=
202401170150 METAR EGKK 170150Z VRB01KT 9999 FEW025 BKN031 M01/M04 Q0997=
202401170220 METAR EGKK 170220Z VRB01KT 9999 FEW025 BKN030 M01/M03 Q0997=
202401170250 METAR EGKK 170250Z 06002KT 9999 SCT025 BKN030 M01/M03 Q0996=
202401170320 METAR EGKK 170320Z 06003KT 9999 BKN029 M01/M03 Q0995=
202401170350 METAR EGKK 170350Z 08002KT 9999 BKN028 M01/M03 Q0995=
202401170420 METAR EGKK 170420Z 09002KT 9999 FEW028 M01/M03 Q0994=
202401170450 METAR EGKK 170450Z 07001KT CAVOK M01/M03 Q0994=
202401170520 METAR EGKK 170520Z 08003KT CAVOK M01/M03 Q0993=
202401170550 METAR EGKK 170550Z 07003KT CAVOK M01/M03 Q0993=
202401170620 METAR EGKK 170620Z 08004KT CAVOK M01/M03 Q0992=
202401170650 METAR EGKK 170650Z 08003KT CAVOK M01/M03 Q0992=
202401170720 METAR EGKK 170720Z 07004KT CAVOK M01/M03 Q0992=
202401170750 METAR EGKK 170750Z 09002KT CAVOK M01/M03 Q0991=
202401170820 METAR EGKK 170820Z 09003KT CAVOK M01/M03 Q0991=
202401170850 METAR EGKK 170850Z 06004KT CAVOK M00/M02 Q0991=
202401170920 METAR EGKK 170920Z 05004KT 010V080 CAVOK 00/M02 Q0990=
202401170950 METAR EGKK 170950Z 06003KT 030V090 CAVOK 01/M02 Q0990=
202401171020 METAR EGKK 171020Z 07003KT 030V100 CAVOK 02/M02 Q0990=
202401171050 METAR EGKK 171050Z 04006KT 020V100 CAVOK 02/M02 Q0990=
202401171120 METAR EGKK 171120Z 05007KT 010V110 9999 FEW029 03/M02 Q0990=
202401171150 METAR EGKK 171150Z 05007KT 360V100 9999 SCT029 03/M02 Q0989=
202401171220 METAR EGKK 171220Z 04009KT 9999 SCT030 03/M02 Q0989=
202401171250 METAR EGKK 171250Z 03010KT 9999 SCT031 03/M03 Q0989=
202401171320 METAR EGKK 171320Z 03008KT 360V120 9999 SCT032 03/M02 Q0989=
202401171350 METAR EGKK 171350Z 02009KT 9999 BKN032 03/M02 Q0989=
202401171420 METAR EGKK 171420Z 03008KT 350V120 9999 BKN030 03/M02 Q0989=
202401171450 METAR EGKK 171450Z 01010KT 9999 BKN028 03/M01 Q0989=
202401171520 METAR EGKK 171520Z 01008KT 9999 BKN029 02/M01 Q0989=
202401171550 METAR EGKK 171550Z 02010KT 9999 FEW017 BKN028 02/M01 Q0990=
202401171620 METAR EGKK 171620Z 01007KT 9999 BKN016 02/M01 Q0990=
202401171650 METAR EGKK 171650Z 02008KT 9999 BKN015 02/M01 Q0991=
202401171720 METAR EGKK 171720Z 01009KT 9999 SCT017 BKN025 02/M01 Q0991=
202401171750 METAR EGKK 171750Z 01009KT 9999 FEW020 BKN031 02/M01 Q0992=
202401171820 METAR EGKK 171820Z 01009KT 9999 BKN030 02/M01 Q0992=
202401171850 METAR EGKK 171850Z 01009KT 9999 BKN033 02/M01 Q0992=
202401171920 METAR EGKK 171920Z 01010KT 9999 BKN036 02/M02 Q0992=
202401171950 METAR EGKK 171950Z 03008KT 9999 BKN038 02/M03 Q0993=
202401172020 METAR COR EGKK 172020Z 02007KT 9999 BKN036 02/M03 Q0993=
202401172050 METAR EGKK 172050Z 03007KT 350V090 9999 SCT039 01/M03 Q0993=
202401172120 METAR EGKK 172120Z 01007KT 340V050 CAVOK 01/M03 Q0994=
202401172150 METAR EGKK 172150Z 01009KT CAVOK 01/M04 Q0994=
202401172220 METAR EGKK 172220Z VRB02KT CAVOK 00/M04 Q0995=
202401172250 METAR EGKK 172250Z 01008KT CAVOK M00/M04 Q0995=
202401172320 METAR EGKK 172320Z 01009KT CAVOK M01/M04 Q0995=
202401172350 METAR EGKK 172350Z 01010KT CAVOK M00/M04 Q0996=
202401180020 METAR EGKK 180020Z 36011KT CAVOK M01/M05 Q0996=
202401180050 METAR EGKK 180050Z 02007KT CAVOK M01/M06 Q0996=
202401180120 METAR EGKK 180120Z 01006KT CAVOK M02/M07 Q0997=
202401180150 METAR EGKK 180150Z 36008KT CAVOK M02/M07 Q0997=
202401180220 METAR EGKK 180220Z 01006KT CAVOK M02/M08 Q0998=
202401180250 METAR EGKK 180250Z 34005KT CAVOK M02/M09 Q0998=
202401180320 METAR EGKK 180320Z 35007KT CAVOK M02/M09 Q0998=
202401180350 METAR EGKK 180350Z 32004KT CAVOK M04/M09 Q0999=
202401180420 METAR EGKK 180420Z 32006KT CAVOK M04/M08 Q0999=
202401180450 METAR EGKK 180450Z 32005KT CAVOK M04/M09 Q1000=
202401180520 METAR EGKK 180520Z 31006KT CAVOK M04/M08 Q1000=
202401180550 METAR EGKK 180550Z 33004KT CAVOK M04/M09 Q1001=
202401180620 METAR EGKK 180620Z 31005KT 270V340 CAVOK M04/M09 Q1001=
202401180650 METAR EGKK 180650Z 30004KT 270V340 CAVOK M04/M09 Q1002=
202401180720 METAR EGKK 180720Z VRB02KT CAVOK M05/M09 Q1002=
202401180750 METAR EGKK 180750Z 27004KT CAVOK M06/M09 Q1003=
202401180820 METAR EGKK 180820Z 29003KT CAVOK M05/M09 Q1003=
202401180850 METAR EGKK 180850Z 30003KT 280V340 CAVOK M04/M09 Q1004=
202401180920 METAR EGKK 180920Z 31005KT CAVOK M03/M08 Q1004=
202401180950 METAR EGKK 180950Z 31006KT CAVOK M02/M08 Q1005=
202401181020 METAR EGKK 181020Z 31007KT CAVOK M01/M08 Q1006=
202401181050 METAR EGKK 181050Z 32007KT 300V360 CAVOK M01/M07 Q1006=
202401181120 METAR EGKK 181120Z 31006KT 280V350 CAVOK 00/M07 Q1007=
202401181150 METAR EGKK 181150Z 32006KT 270V350 CAVOK 01/M06 Q1007=
202401181220 METAR EGKK 181220Z 31007KT CAVOK 01/M06 Q1007=
202401181250 METAR EGKK 181250Z 31009KT CAVOK 02/M05 Q1008=
202401181320 METAR EGKK 181320Z 33008KT 290V360 CAVOK 02/M05 Q1008=
202401181350 METAR EGKK 181350Z 33011KT 290V010 CAVOK 02/M04 Q1008=
202401181420 METAR EGKK 181420Z 31009KT 280V340 CAVOK 03/M04 Q1009=
202401181450 METAR EGKK 181450Z 32007KT 290V350 CAVOK 03/M04 Q1009=
202401181520 METAR EGKK 181520Z 31007KT CAVOK 02/M04 Q1010=
202401181550 METAR EGKK 181550Z 31005KT CAVOK 02/M04 Q1011=
202401181620 METAR EGKK 181620Z 30006KT CAVOK 02/M04 Q1011=
202401181650 METAR EGKK 181650Z 30005KT CAVOK 01/M04 Q1012=
202401181720 METAR EGKK 181720Z 27004KT CAVOK 00/M04 Q1012=
202401181750 METAR EGKK 181750Z 24003KT CAVOK M00/M04 Q1013=
202401181820 METAR EGKK 181820Z 27003KT 230V310 CAVOK M01/M04 Q1013=
202401181850 METAR EGKK 181850Z 20002KT CAVOK M02/M05 Q1014=
202401181920 METAR EGKK 181920Z 26003KT CAVOK M02/M05 Q1014=
202401181950 METAR EGKK 181950Z 24003KT 190V270 CAVOK M02/M05 Q1015=
202401182020 METAR EGKK 182020Z 18003KT CAVOK M03/M05 Q1015=
202401182050 METAR EGKK 182050Z 23003KT CAVOK M03/M06 Q1016=
202401182120 METAR EGKK 182120Z 22003KT CAVOK M04/M06 Q1016=
202401182150 METAR EGKK 182150Z 21002KT CAVOK M04/M06 Q1017=
202401182220 METAR EGKK 182220Z VRB01KT CAVOK M04/M06 Q1017=
202401182250 METAR EGKK 182250Z 22003KT 200V300 CAVOK M04/M06 Q1017=
202401182320 METAR EGKK 182320Z 21003KT CAVOK M04/M06 Q1017=
202401182350 METAR EGKK 182350Z 21002KT CAVOK M05/M07 Q1017=
202401190020 METAR EGKK 190020Z 20004KT CAVOK M04/M06 Q1017=
202401190050 METAR EGKK 190050Z 21004KT CAVOK M04/M06 Q1018=
202401190120 METAR EGKK 190120Z 21004KT CAVOK M03/M06 Q1018=
202401190150 METAR EGKK 190150Z 19003KT CAVOK M04/M06 Q1018=
202401190220 METAR EGKK 190220Z AUTO 21003KT 9999 NCD M03/M06 Q1018=
202401190250 METAR EGKK 190250Z AUTO 21002KT 9999 NCD M04/M06 Q1019=
202401190320 METAR EGKK 190320Z AUTO 18002KT 9999 NCD M05/M07 Q1019=
202401190350 METAR EGKK 190350Z AUTO 18003KT 9999 NCD M05/M06 Q1019=
202401190420 METAR EGKK 190420Z 19003KT CAVOK M04/M06 Q1019=
202401190450 METAR EGKK 190450Z 21002KT CAVOK M05/M07 Q1020=
202401190520 METAR EGKK 190520Z 19001KT CAVOK M06/M07 Q1020=
202401190550 METAR EGKK 190550Z 28001KT CAVOK M07/M08 Q1020=
202401190620 METAR EGKK 190620Z 11002KT CAVOK M06/M07 Q1020=
202401190650 METAR EGKK 190650Z 15001KT CAVOK M05/M07 Q1021=
202401190720 METAR EGKK 190720Z 19001KT CAVOK M05/M07 Q1021=
202401190750 METAR EGKK 190750Z 15001KT CAVOK M06/M07 Q1021=
202401190820 METAR EGKK 190820Z 18002KT CAVOK M05/M06 Q1022=
202401190850 METAR EGKK 190850Z VRB01KT CAVOK M05/M06 Q1022=
202401190920 METAR EGKK 190920Z 20003KT CAVOK M02/M04 Q1022=
202401190950 METAR EGKK 190950Z 22004KT CAVOK M00/M03 Q1022=
202401191020 METAR EGKK 191020Z 22004KT CAVOK 01/M03 Q1023=
202401191050 METAR EGKK 191050Z 21003KT CAVOK 02/M02 Q1023=
202401191120 METAR EGKK 191120Z 22004KT 180V240 CAVOK 03/M02 Q1023=
202401191150 METAR EGKK 191150Z 24005KT CAVOK 04/M02 Q1023=
202401191220 METAR EGKK 191220Z 24006KT CAVOK 05/M02 Q1022=
202401191250 METAR EGKK 191250Z 24007KT 220V280 CAVOK 05/M02 Q1022=
202401191320 METAR EGKK 191320Z 26009KT CAVOK 05/M02 Q1022=
202401191350 METAR EGKK 191350Z 24006KT CAVOK 05/M02 Q1022=
202401191420 METAR EGKK 191420Z 25006KT 9999 FEW035 06/M02 Q1022=
202401191450 METAR EGKK 191450Z 26008KT CAVOK 06/M03 Q1022=
202401191520 METAR EGKK 191520Z 25009KT CAVOK 05/M03 Q1023=
202401191550 METAR EGKK 191550Z 25006KT CAVOK 04/M03 Q1023=
202401191620 METAR EGKK 191620Z 25006KT CAVOK 03/M04 Q1023=
202401191650 METAR EGKK 191650Z 23004KT CAVOK 03/M04 Q1023=
202401191720 METAR EGKK 191720Z 21004KT CAVOK 02/M04 Q1024=
202401191750 METAR EGKK 191750Z 21003KT CAVOK 02/M04 Q1024=
202401191820 METAR EGKK 191820Z 18002KT CAVOK M00/M04 Q1024=
202401191850 METAR EGKK 191850Z 18003KT CAVOK M01/M04 Q1024=
202401191920 METAR EGKK 191920Z 20004KT CAVOK 00/M03 Q1025=
202401191950 METAR EGKK 191950Z 19002KT CAVOK 01/M03 Q1025=
202401192020 METAR EGKK 192020Z 17002KT CAVOK M01/M03 Q1025=
202401192050 METAR EGKK 192050Z 18002KT CAVOK M02/M04 Q1025=
202401192120 METAR EGKK 192120Z 18002KT CAVOK M01/M03 Q1025=
202401192150 METAR EGKK 192150Z VRB02KT CAVOK M02/M04 Q1025=
202401192220 METAR EGKK 192220Z 26001KT CAVOK M02/M04 Q1025=
202401192250 METAR EGKK 192250Z 22001KT CAVOK M02/M04 Q1025=
202401192320 METAR EGKK 192320Z 26005KT CAVOK M03/M05 Q1025=
202401192350 METAR EGKK 192350Z 25002KT CAVOK M04/M05 Q1025=
202401200020 METAR EGKK 200020Z VRB02KT 9999 FEW030 M03/M04 Q1025=
202401200050 METAR EGKK 200050Z VRB02KT 9999 FEW027 M04/M06 Q1025=
202401200120 METAR EGKK 200120Z 22003KT 9999 FEW031 M02/M03 Q1025=
202401200150 METAR EGKK 200150Z 22003KT 180V260 CAVOK 01/M01 Q1025=
202401200220 METAR EGKK 200220Z AUTO 22004KT 9999 NCD 02/M00 Q1025=
202401200250 METAR EGKK 200250Z AUTO 22006KT 9999 NCD 02/M00 Q1025=
202401200320 METAR EGKK 200320Z AUTO 22007KT 9999 NCD 02/M01 Q1025=
202401200350 METAR EGKK 200350Z 22006KT CAVOK 02/M02 Q1026=
202401200420 METAR EGKK 200420Z 20006KT 9999 SCT026 02/M01 Q1026=
202401200450 METAR EGKK 200450Z 20007KT 9999 FEW029 02/M01 Q1025=
202401200520 METAR EGKK 200520Z 21008KT 9999 FEW030 03/M01 Q1025=
202401200550 METAR EGKK 200550Z 20006KT CAVOK 02/M01 Q1025=
202401200620 METAR EGKK 200620Z 20006KT 9999 FEW026 02/M01 Q1026=
202401200650 METAR EGKK 200650Z 19006KT 150V220 9999 FEW024 03/M01 Q1026=
202401200720 METAR EGKK 200720Z 20006KT CAVOK 03/M01 Q1026=
202401200750 METAR EGKK 200750Z 20007KT CAVOK 03/M00 Q1026=
202401200820 METAR EGKK 200820Z 19007KT 9999 FEW025 03/00 Q1026=
202401200850 METAR EGKK 200850Z 19006KT 160V220 9999 FEW018 03/00 Q1026=
202401200920 METAR EGKK 200920Z 20009KT 170V230 CAVOK 04/01 Q1025=
202401200950 METAR EGKK 200950Z 21008KT 170V240 CAVOK 04/01 Q1025=
202401201020 METAR EGKK 201020Z 21010KT 9999 FEW020 05/01 Q1025=
202401201050 METAR EGKK 201050Z 21010KT 9999 FEW021 05/M00 Q1025=
202401201120 METAR EGKK 201120Z 19009KT 150V220 9999 FEW022 05/M00 Q1025=
202401201150 METAR EGKK 201150Z 21009KT 170V240 9999 FEW022 05/M00 Q1025=
202401201220 METAR EGKK 201220Z 20013G24KT 170V230 9999 FEW022 05/M02 Q1024=
202401201250 METAR EGKK 201250Z 20014KT 170V230 CAVOK 06/M02 Q1024=
202401201320 METAR EGKK 201320Z 20010KT 180V240 CAVOK 06/M02 Q1024=
202401201350 METAR EGKK 201350Z 21011KT 160V240 CAVOK 06/M02 Q1023=
202401201420 METAR EGKK 201420Z 21012KT CAVOK 06/M02 Q1023=
202401201450 METAR EGKK 201450Z 21007KT 170V240 CAVOK 06/M02 Q1023=
202401201520 METAR EGKK 201520Z 21008KT 170V230 CAVOK 05/M03 Q1023=
202401201550 METAR EGKK 201550Z 20009KT CAVOK 05/M03 Q1023=
202401201620 METAR EGKK 201620Z 20010KT CAVOK 05/M03 Q1023=
202401201650 METAR EGKK 201650Z 20011KT CAVOK 05/M04 Q1022=
202401201720 METAR EGKK 201720Z 19008KT 160V230 CAVOK 05/M04 Q1022=
202401201750 METAR EGKK 201750Z 20009KT 170V230 CAVOK 05/M04 Q1022=
202401201820 METAR EGKK 201820Z 18009KT 150V210 CAVOK 04/M02 Q1021=
202401201850 METAR EGKK 201850Z 18009KT CAVOK 04/M01 Q1021=
202401201920 METAR EGKK 201920Z 18009KT 150V220 CAVOK 04/M01 Q1021=
202401201950 METAR EGKK 201950Z 18009KT CAVOK 04/M02 Q1020=
202401202020 METAR EGKK 202020Z 18010KT 140V200 CAVOK 05/M02 Q1019=
202401202050 METAR EGKK 202050Z 17007KT CAVOK 05/M02 Q1019=
202401202120 METAR EGKK 202120Z 18008KT CAVOK 05/M03 Q1018=
202401202150 METAR EGKK 202150Z 19009KT 140V220 CAVOK 05/M03 Q1018=
202401202220 METAR EGKK 202220Z 19009KT CAVOK 05/M03 Q1018=
202401202250 METAR EGKK 202250Z 18009KT CAVOK 05/M03 Q1017=
202401202320 METAR EGKK 202320Z 19011KT CAVOK 05/M03 Q1017=
202401202350 METAR EGKK 202350Z 19010KT 160V220 CAVOK 05/M03 Q1016=
202401210020 METAR EGKK 210020Z 19010KT 160V230 CAVOK 05/M02 Q1016=
202401210050 METAR EGKK 210050Z 19010G21KT 170V230 CAVOK 05/M02 Q1015=
202401210120 METAR EGKK 210120Z 20010KT 9999 FEW032 05/M02 Q1015=
202401210150 METAR EGKK 210150Z 20011KT 160V230 9999 FEW024 05/M01 Q1015=
202401210220 METAR EGKK 210220Z 21009KT 160V240 9999 SCT038 05/M00 Q1014=
202401210250 METAR EGKK 210250Z 19012KT 9999 -RA SCT014 04/02 Q1014=
202401210320 METAR EGKK 210320Z 20012KT 6000 -RA SCT009 BKN037 04/03 Q1014=
202401210350 METAR EGKK 210350Z 20012KT 5000 -RA BKN006 05/04 Q1013=
202401210420 METAR EGKK 210420Z NIL=
202401210450 METAR EGKK 210450Z 20011KT 7000 -RADZ BKN007 06/05 Q1013=
202401210520 METAR EGKK 210520Z 21011KT 6000 -RADZ BKN008 06/05 Q1013=
202401210550 METAR EGKK 210550Z 21013KT 170V230 6000 -RADZ BKN007 07/06 Q1012=
202401210620 METAR EGKK 210620Z 21015G27KT 9999 -RA BKN008 08/06 Q1013=
202401210650 METAR EGKK 210650Z 21015G27KT 4000 -RADZ BKN006 08/07 Q1013=
202401210720 METAR EGKK 210720Z 21014KT 3000 -DZRA BKN006 08/07 Q1014=
202401210750 METAR EGKK 210750Z 21012KT 9000 -RADZ BKN006 08/08 Q1014=
202401210820 METAR EGKK 210820Z 21012KT 9000 -RA BKN008 09/08 Q1014=
202401210850 METAR EGKK 210850Z 21012KT 9000 BKN007 09/08 Q1014=
202401210920 METAR EGKK 210920Z 21012KT 9999 -DZRA SCT007 BKN017 09/08 Q1014=
202401210950 METAR EGKK 210950Z 21015G26KT 9999 -DZ BKN008 BKN016 10/09 Q1013=
202401211020 METAR EGKK 211020Z 22014G25KT 9999 -DZ BKN007 BKN015 10/09 Q1014=
202401211050 METAR EGKK 211050Z 22012KT 9999 -DZ FEW007 BKN011 BKN017 10/09 Q1015=
202401211120 METAR EGKK 211120Z 23016KT 9999 -DZ BKN009 BKN016 10/09 Q1015=
202401211150 METAR EGKK 211150Z 22016KT 9999 -DZ BKN011 BKN020 11/09 Q1014=
202401211220 METAR EGKK 211220Z 21016KT 9999 -DZ BKN011 BKN020 11/09 Q1014=
202401211250 METAR EGKK 211250Z 22018G28KT 9999 -DZ BKN011 BKN020 11/09 Q1014=
202401211320 METAR EGKK 211320Z 22016G27KT 9999 BKN011 BKN018 11/09 Q1013=
202401211350 METAR EGKK 211350Z 21018G32KT 9999 BKN012 11/09 Q1013=
202401211420 METAR EGKK 211420Z 21017G31KT 9999 BKN010 11/09 Q1012=
202401211450 METAR EGKK 211450Z 22017G29KT 9999 BKN012 11/08 Q1012=
202401211520 METAR EGKK 211520Z 21018G32KT 9999 BKN013 11/08 Q1012=
202401211550 METAR EGKK 211550Z 20016KT 170V230 9999 BKN013 11/08 Q1011=
202401211620 METAR EGKK 211620Z 21015G29KT 180V240 9999 BKN015 11/08 Q1011=
202401211650 METAR EGKK 211650Z 21017G28KT 9999 BKN017 11/08 Q1010=
202401211720 METAR COR EGKK 211720Z 21018G36KT 9999 SCT017 BKN024 11/08 Q1010=
202401211750 METAR EGKK 211750Z 21019G30KT 9999 -RA BKN017 11/08 Q1009=
202401211820 METAR EGKK 211820Z 20020G30KT 9999 BKN017 11/08 Q1008=
202401211850 METAR EGKK 211850Z 20018G34KT 9999 -RA BKN018 11/08 Q1007=
202401211920 METAR EGKK 211920Z 20021G33KT 9999 BKN016 11/09 Q1006=
202401211950 METAR EGKK 211950Z 20022G36KT 170V230 9999 -RA SCT019 12/08 Q1006=
202401212020 METAR EGKK 212020Z 20022G38KT 9999 -RA SCT022 12/08 Q1006=
202401212050 METAR EGKK 212050Z 20018G30KT 170V240 9999 -RA BKN018 11/09 Q1005=
202401212120 METAR EGKK 212120Z 21023G37KT 9999 -RA BKN015 12/09 Q1004=
202401212150 METAR EGKK 212150Z 21025G38KT 9999 -RA BKN016 12/09 Q1003=
202401212220 METAR EGKK 212220Z 21020G39KT 180V240 9999 RA BKN014 12/10 Q1003=
202401212250 METAR EGKK 212250Z 21022G37KT 170V240 6000 -RA BKN014 12/10 Q1002 RERA=
202401212320 METAR EGKK 212320Z 21021G34KT 5000 RA BKN014 12/10 Q1002=
202401212350 METAR EGKK 212350Z 21024G36KT 5000 RA BKN013 12/10 Q1001=
202401220020 METAR EGKK 220020Z 21024G40KT 4000 -RA BKN010 12/10 Q1000 RERA=
202401220050 METAR EGKK 220050Z 21022G38KT 190V260 3300 RA BKN009 12/11 Q1000=
202401220120 METAR EGKK 220120Z 22022G33KT 4400 -RA BKN009 12/11 Q1000 RERA=
202401220150 METAR EGKK 220150Z 22023G37KT 170V240 9999 -RA BKN012 12/11 Q0999=
202401220220 METAR EGKK 220220Z 22021G33KT 9999 BKN014 12/11 Q1000=
202401220250 METAR EGKK 220250Z 24020G33KT 9999 BKN018 13/10 Q1000=
202401220320 METAR EGKK 220320Z 23019G34KT 9999 BKN018 12/09 Q1000=
202401220350 METAR EGKK 220350Z NIL=
202401220420 METAR EGKK 220420Z 23019G33KT 9999 BKN018 12/09 Q1001=
202401220450 METAR EGKK 220450Z 24017KT 9999 BKN020 12/09 Q1001=
202401220520 METAR EGKK 220520Z 24018G29KT 6000 RA BKN017 12/09 Q1002=
202401220550 METAR EGKK 220550Z 25013KT 9999 FEW014 10/07 Q1003 RERA=
202401220620 METAR EGKK 220620Z 24010KT 9999 FEW024 10/07 Q1004=
202401220650 METAR EGKK 220650Z 24012KT 9999 FEW026 10/06 Q1004=
202401220720 METAR EGKK 220720Z 25013KT 9999 FEW029 SCT034 09/06 Q1005=
202401220750 METAR EGKK 220750Z 25014KT 9999 SCT027 09/05 Q1006=
202401220820 METAR EGKK 220820Z 25015KT 9999 SCT028 09/05 Q1007=
202401220850 METAR EGKK 220850Z 24013KT 9999 FEW031 09/05 Q1007=
202401220920 METAR EGKK 220920Z 24013KT 9999 FEW027 09/05 Q1008=
202401220950 METAR EGKK 220950Z 23012KT 9999 FEW027 09/05 Q1008=
202401221020 METAR EGKK 221020Z 24014KT 9999 SCT026 10/05 Q1009=
202401221050 METAR EGKK 221050Z 25015G25KT 9999 SCT028 10/05 Q1009=
202401221120 METAR EGKK 221120Z 24014KT 9999 SCT028 10/04 Q1010=
202401221150 METAR EGKK 221150Z 24013G23KT 9999 SCT030 10/04 Q1010=
202401221220 METAR EGKK 221220Z 24018G28KT 9999 SCT032 10/04 Q1010=
202401221250 METAR EGKK 221250Z 25016G27KT 9999 SCT031 11/04 Q1010=
202401221320 METAR EGKK 221320Z 25019KT 9999 FEW031 10/04 Q1010=
202401221350 METAR EGKK 221350Z 25017KT 9999 FEW032 10/04 Q1010=
202401221420 METAR EGKK 221420Z 25016KT 9999 SCT033 10/04 Q1010=
202401221450 METAR EGKK 221450Z 25017G27KT 9999 SCT035 10/03 Q1011=
202401221520 METAR EGKK 221520Z 26017KT 9999 SCT042 10/03 Q1012=
202401221550 METAR EGKK 221550Z 25015KT 9999 SCT038 10/03 Q1012=
202401221620 METAR EGKK 221620Z 24015KT 9999 SCT033 10/03 Q1013=
202401221650 METAR EGKK 221650Z 24013KT 9999 FEW033 09/04 Q1013=
202401221720 METAR EGKK 221720Z 24013G24KT 9999 FEW036 09/03 Q1014=
202401221750 METAR EGKK 221750Z 25015KT 9999 FEW037 09/03 Q1014=
202401221820 METAR EGKK 221820Z 25015G25KT 9999 FEW034 09/03 Q1015=
202401221850 METAR EGKK 221850Z 25012KT 9999 FEW032 08/03 Q1016=
202401221920 METAR EGKK 221920Z 25012KT 9999 FEW033 08/03 Q1017=
202401221950 METAR EGKK 221950Z 24010KT 9999 SCT032 08/03 Q1018=
202401222020 METAR EGKK 222020Z 24010KT 9999 SCT027 08/03 Q1018=
202401222050 METAR EGKK 222050Z 23011KT 9999 FEW028 BKN039 08/03 Q1018=
202401222120 METAR EGKK 222120Z NIL=
202401222150 METAR EGKK 222150Z 24012KT CAVOK 07/03 Q1019=
202401222220 METAR EGKK 222220Z 25012KT CAVOK 07/03 Q1019=
202401222250 METAR EGKK 222250Z 24010KT 9999 FEW035 07/03 Q1020=
202401222320 METAR EGKK 222320Z 23008KT 9999 FEW026 07/03 Q1021=
202401222350 METAR EGKK 222350Z 24011KT CAVOK 07/03 Q1021=
202401230020 METAR EGKK 230020Z 24009KT CAVOK 07/03 Q1022=
202401230050 METAR EGKK 230050Z 24009KT CAVOK 07/03 Q1022=
202401230120 METAR EGKK 230120Z 24007KT CAVOK 06/03 Q1023=
202401230150 METAR EGKK 230150Z 24008KT CAVOK 06/03 Q1023=
202401230220 METAR EGKK 230220Z 24005KT CAVOK 06/02 Q1023=
202401230250 METAR EGKK 230250Z 26007KT CAVOK 04/02 Q1023=
202401230320 METAR EGKK 230320Z 22006KT CAVOK 05/02 Q1024=
202401230350 METAR EGKK 230350Z 22005KT CAVOK 05/03 Q1024=
202401230420 METAR EGKK 230420Z 22006KT CAVOK 05/03 Q1024=
202401230450 METAR EGKK 230450Z 20003KT CAVOK 05/03 Q1025=
202401230520 METAR EGKK 230520Z 19003KT CAVOK 04/02 Q1025=
202401230550 METAR EGKK 230550Z 18002KT CAVOK 05/03 Q1025=
202401230620 METAR EGKK 230620Z 22004KT CAVOK 06/04 Q1025=
202401230650 METAR EGKK 230650Z 20004KT CAVOK 06/04 Q1024=
202401230720 METAR EGKK 230720Z 22007KT CAVOK 07/05 Q1024=
202401230750 METAR EGKK 230750Z 22007KT 9999 -RA NSC 07/05 Q1024=
202401230820 METAR EGKK 230820Z 21007KT 9999 -RA FEW016 BKN043 08/07 Q1024=
202401230850 METAR EGKK 230850Z 19007KT 9999 -RA FEW007 SCT028 08/08 Q1023=
202401230920 METAR EGKK 230920Z 19007KT 150V230 6000 -RA SCT008 SCT023 09/08 Q1023=
202401230950 METAR EGKK 230950Z 20010KT 160V230 9999 FEW008 SCT012 09/08 Q1022=
202401231020 METAR EGKK 231020Z 21011G21KT 9999 -RA FEW010 BKN012 BKN030 09/08 Q1022=
202401231050 METAR EGKK 231050Z 20013KT 160V220 9999 -RA SCT011 BKN019 BKN032 09/08 Q1022=
202401231120 METAR EGKK 231120Z 20011KT 9999 FEW013 SCT038 10/08 Q1021=
202401231150 METAR EGKK 231150Z 20012KT 6000 -RADZ SCT010 BKN040 09/08 Q1020=
202401231220 METAR EGKK 231220Z 21014G25KT 3800 DZ BKN007 BKN015 09/09 Q1019=
202401231250 METAR EGKK 231250Z 21015KT 3700 DZ BKN006 10/09 Q1018=
202401231320 METAR EGKK 231320Z 21015KT 3500 -RADZ BKN006 10/09 Q1018 REDZ=
202401231350 METAR EGKK 231350Z 21014KT 3900 -RADZ BKN006 10/10 Q1017=
202401231420 METAR EGKK 231420Z 22017G30KT 3500 -RADZ BKN006 11/10 Q1017=
202401231450 METAR EGKK 231450Z 22015KT 3200 -RADZ BKN006 11/10 Q1017=
202401231520 METAR EGKK 231520Z 22015KT 2500 -DZRA BKN005 11/10 Q1016=
202401231550 METAR EGKK 231550Z 22014KT 3500 -RADZ BKN005 11/11 Q1016=
202401231620 METAR EGKK 231620Z 22016G28KT 4500 -RADZ BKN006 11/11 Q1016=
202401231650 METAR EGKK 231650Z 22013G23KT 4000 -RADZ BKN006 12/11 Q1016=
202401231720 METAR EGKK 231720Z 22013KT 5000 -DZRA BKN006 12/11 Q1016=
202401231750 METAR EGKK 231750Z 22013KT 5000 -RADZ BKN006 12/11 Q1016=
202401231820 METAR EGKK 231820Z 22016KT 9999 -RA SCT008 BKN010 12/11 Q1015=
202401231850 METAR EGKK 231850Z 23017G29KT 7000 -RA BKN009 12/11 Q1015=
202401231920 METAR EGKK 231920Z 22018KT 6000 -RA BKN007 12/11 Q1015=
202401231950 METAR EGKK 231950Z 22018KT 6000 -RA BKN007 12/11 Q1015=
202401232020 METAR EGKK 232020Z 22017G28KT 3700 -RADZ BKN007 12/11 Q1015=
202401232050 METAR EGKK 232050Z 22018G29KT 6000 -RA BKN008 12/11 Q1014=
202401232120 METAR EGKK 232120Z 22018KT 3600 -RADZ BKN006 12/11 Q1014=
202401232150 METAR EGKK 232150Z 22016G26KT 4500 -RADZ BKN007 12/11 Q1014=
202401232220 METAR EGKK 232220Z 22014KT 5000 -RADZ BKN007 12/11 Q1014=
202401232250 METAR EGKK 232250Z 23018KT 6000 -RA BKN007 12/12 Q1014=
202401232320 METAR EGKK 232320Z 23019KT 8000 -RA BKN008 12/12 Q1014=
202401232350 METAR EGKK 232350Z 24018KT 210V280 4100 -RA BKN007 12/12 Q1014=
202401240020 METAR EGKK 240020Z 24017KT 200V270 9999 SCT008 BKN017 13/11 Q1015=
202401240050 METAR EGKK 240050Z 24013KT 9999 FEW016 BKN020 13/10 Q1015=
202401240120 METAR EGKK 240120Z 24017G32KT 9999 FEW024 BKN031 12/09 Q1015=
202401240150 METAR EGKK 240150Z 25016KT 9999 BKN028 12/08 Q1016=
202401240220 METAR EGKK 240220Z 24019G32KT 9999 BKN036 12/07 Q1016=
202401240250 METAR EGKK 240250Z 24017G27KT 210V270 9999 SCT034 12/07 Q1017=
202401240320 METAR EGKK 240320Z 25016KT 9999 BKN035 12/06 Q1017=
202401240350 METAR EGKK 240350Z 26022KT 9999 BKN036 11/05 Q1018=
202401240420 METAR EGKK 240420Z 26018KT 9999 BKN038 11/05 Q1018=
202401240450 METAR EGKK 240450Z 26018KT 9999 BKN036 11/05 Q1019=
202401240520 METAR EGKK 240520Z 26016KT 9999 BKN038 10/05 Q1020=
202401240550 METAR EGKK 240550Z 26019KT 9999 BKN034 11/05 Q1020=
202401240620 METAR EGKK 240620Z 27022KT 9999 BKN036 11/05 Q1021=
202401240650 METAR EGKK 240650Z 26019KT 9999 BKN035 10/04 Q1021=
202401240720 METAR EGKK 240720Z 26016KT 9999 BKN033 10/04 Q1022=
202401240750 METAR EGKK 240750Z 26013KT 9999 SCT031 10/05 Q1023=
202401240820 METAR EGKK 240820Z 26012KT 9999 SCT029 09/05 Q1023=
202401240850 METAR EGKK 240850Z 26015KT 9999 SCT028 BKN034 10/05 Q1024=
202401240920 METAR EGKK 240920Z 26015KT 9999 FEW027 10/05 Q1024=
202401240950 METAR EGKK 240950Z 26017KT 9999 FEW027 10/05 Q1025=
202401241020 METAR EGKK 241020Z 26014KT 9999 FEW026 11/05 Q1025=
202401241050 METAR EGKK 241050Z 26016KT 9999 SCT026 11/05 Q1025=
202401241120 METAR EGKK 241120Z 25014KT 9999 FEW028 11/05 Q1026=
202401241150 METAR EGKK 241150Z 26016KT 9999 FEW029 11/05 Q1026=
202401241220 METAR EGKK 241220Z 26020KT 9999 FEW024 11/05 Q1026=
202401241250 METAR EGKK 241250Z 26018KT 9999 FEW032 12/05 Q1026=
202401241320 METAR EGKK 241320Z 26016KT 9999 SCT031 12/05 Q1026=
202401241350 METAR EGKK 241350Z 26015KT 9999 SCT033 12/05 Q1027=
202401241420 METAR EGKK 241420Z 27016KT 9999 FEW033 12/05 Q1026=
202401241450 METAR EGKK 241450Z 25011KT 9999 FEW035 11/05 Q1027=
202401241520 METAR EGKK 241520Z 26009KT 9999 SCT035 11/05 Q1027=
202401241550 METAR EGKK 241550Z 26010KT 9999 BKN034 11/05 Q1027=
202401241620 METAR EGKK 241620Z 25009KT 9999 FEW034 11/05 Q1027=
202401241650 METAR EGKK 241650Z 25010KT 9999 FEW034 11/06 Q1027=
202401241720 METAR EGKK 241720Z 26009KT CAVOK 10/06 Q1028=
202401241750 METAR EGKK 241750Z 26012KT CAVOK 10/06 Q1028=
202401241820 METAR EGKK 241820Z 26009KT CAVOK 09/06 Q1028=
202401241850 METAR EGKK 241850Z 26008KT CAVOK 08/05 Q1028=
202401241920 METAR EGKK 241920Z 26006KT CAVOK 09/05 Q1029=
202401241950 METAR EGKK 241950Z 21004KT CAVOK 09/05 Q1029=
202401242020 METAR EGKK 242020Z 24001KT CAVOK 08/06 Q1029=
202401242050 METAR EGKK 242050Z VRB02KT CAVOK 07/05 Q1030=
202401242120 METAR EGKK 242120Z 19002KT CAVOK 07/05 Q1030=
202401242150 METAR EGKK 242150Z VRB01KT CAVOK 06/05 Q1030=
202401242220 METAR EGKK 242220Z 21002KT CAVOK 05/04 Q1030=
202401242250 METAR EGKK 242250Z 19004KT CAVOK 06/05 Q1030=
202401242320 METAR EGKK 242320Z 21003KT 9000 NSC 04/03 Q1030=
202401242350 METAR EGKK 242350Z VRB01KT CAVOK 04/04 Q1030=
202401250020 METAR EGKK 250020Z VRB01KT 9000 NSC 04/04 Q1030=
202401250050 METAR EGKK 250050Z VRB02KT 9000 NSC 03/02 Q1030=
202401250120 METAR EGKK 250120Z VRB01KT 9000 NSC 03/03 Q1029=
202401250150 METAR EGKK 250150Z VRB01KT 9000 NSC 02/02 Q1029=
202401250220 METAR EGKK 250220Z VRB01KT 8000 FEW014 02/02 Q1029=
202401250250 METAR EGKK 250250Z 10001KT 8000 NSC 03/02 Q1029=
202401250320 METAR EGKK 250320Z 08003KT 8000 FEW049 03/02 Q1028=
202401250350 METAR EGKK 250350Z 27001KT 9000 BKN043 03/03 Q1028=
202401250420 METAR EGKK 250420Z 28001KT 9000 BKN036 03/03 Q1028=
202401250450 METAR EGKK 250450Z 06001KT 8000 SCT006 BKN031 04/04 Q1028=
202401250520 METAR EGKK 250520Z VRB01KT 8000 BKN003 05/05 Q1027=
202401250550 METAR EGKK 250550Z VRB02KT 3200 BR BKN002 07/07 Q1027=
202401250620 METAR EGKK 250620Z 17003KT 140V200 6000 BKN003 08/08 Q1027=
202401250650 METAR EGKK 250650Z 17005KT 140V210 5000 BR BKN003 09/08 Q1027=
202401250720 METAR EGKK 250720Z 15005KT 130V210 4000 BR OVC003 09/08 Q1027=
202401250750 METAR EGKK 250750Z 18006KT 140V210 2000 -DZ BR OVC003 09/09 Q1027=
202401250820 METAR EGKK 250820Z 20006KT 5000 BR BKN003 09/09 Q1027=
202401250850 METAR EGKK 250850Z 20005KT 9999 SCT005 10/09 Q1026=
202401250920 METAR EGKK 250920Z 22007KT 180V240 9999 SCT004 10/10 Q1026=
202401250950 METAR EGKK 250950Z 22006KT 9000 -RA SCT004 BKN009 10/10 Q1026=
202401251020 METAR EGKK 251020Z 21006KT 9999 FEW005 BKN036 11/10 Q1026=
202401251050 METAR EGKK 251050Z 21007KT 180V240 9999 SCT006 11/10 Q1026=
202401251120 METAR EGKK 251120Z 21006KT 6000 -RADZ SCT005 BKN009 11/10 Q1026=
202401251150 METAR EGKK 251150Z 21008KT 9999 -RA SCT006 SCT009 BKN015 11/11 Q1026=
202401251220 METAR EGKK 251220Z 21008KT 9999 SCT007 SCT032 11/11 Q1025=
202401251250 METAR EGKK 251250Z 22009KT 9999 SCT007 SCT029 12/10 Q1025=
202401251320 METAR EGKK 251320Z 23008KT 9999 SCT007 BKN020 11/10 Q1025=
202401251350 METAR EGKK 251350Z 22008KT 9999 SCT006 BKN022 11/10 Q1024=
202401251420 METAR EGKK 251420Z 22007KT 9999 BKN010 BKN043 11/10 Q1024=
202401251450 METAR EGKK 251450Z 21008KT 9999 SCT009 BKN019 11/10 Q1024=
202401251520 METAR EGKK 251520Z 20008KT 9999 SCT007 BKN011 11/10 Q1024=
202401251550 METAR EGKK 251550Z 20007KT 9999 BKN008 11/10 Q1023=
202401251620 METAR EGKK 251620Z 21008KT 170V240 9999 BKN007 OVC017 11/10 Q1023=
202401251650 METAR EGKK 251650Z 21008KT 9999 BKN007 BKN018 11/10 Q1023=
202401251720 METAR EGKK 251720Z 21007KT 9999 BKN008 11/10 Q1023=
202401251750 METAR EGKK 251750Z 20005KT 9999 BKN008 11/10 Q1023=
202401251820 METAR EGKK 251820Z 21009KT 9999 BKN007 11/10 Q1023=
202401251850 METAR EGKK 251850Z 21011KT 8000 BKN006 11/10 Q1023=
202401251920 METAR EGKK 251920Z 21010KT 8000 BKN004 11/10 Q1023=
202401251950 METAR EGKK 251950Z 21010KT 4500 -DZ OVC004 11/10 Q1023=
202401252020 METAR EGKK 252020Z 20009KT 7000 BKN004 11/10 Q1022=
202401252050 METAR EGKK 252050Z 21010KT 160V230 7000 BKN003 11/11 Q1022=
202401252120 METAR EGKK 252120Z 20009KT 4500 -DZ OVC003 11/11 Q1021=
202401252150 METAR EGKK 252150Z 21011KT 3500 -DZ OVC003 11/11 Q1021=
202401252220 METAR EGKK 252220Z 21009KT 170V240 3700 -DZ BR BKN003 11/11 Q1021=
202401252250 METAR EGKK 252250Z 22011KT 190V250 5000 -DZ BR BKN003 11/11 Q1021=
202401252320 METAR EGKK 252320Z 22012KT 6000 BKN003 11/11 Q1020=
202401252350 METAR EGKK 252350Z 21012KT 3700 -DZ BR BKN003 11/11 Q1020=
202401260020 METAR EGKK 260020Z 21014KT 4500 -DZ BKN004 12/11 Q1019=
202401260050 METAR EGKK 260050Z 20014KT 3200 -RADZ BKN004 12/11 Q1019=
202401260120 METAR EGKK 260120Z 21014KT 4500 -RADZ BKN003 11/11 Q1019=
202401260150 METAR EGKK 260150Z 22012KT 5000 -RADZ FEW004 BKN006 BKN012 12/11 Q1018 RERA REDZ=
202401260220 METAR EGKK 260220Z 22015KT 190V260 7000 -RADZ FEW006 BKN009 12/11 Q1018=
202401260250 METAR EGKK 260250Z 22013KT 6000 -RADZ BKN006 12/11 Q1018=
202401260320 METAR EGKK 260320Z 23013KT 7000 -DZRA BKN005 12/11 Q1018=
202401260350 METAR EGKK 260350Z 23013KT 9999 -DZ BKN008 12/11 Q1018=
202401260420 METAR EGKK 260420Z 23013KT 9999 -DZ FEW008 SCT010 BKN013 12/11 Q1018=
202401260450 METAR EGKK 260450Z 23014KT 9999 SCT012 BKN033 12/10 Q1018=
202401260520 METAR EGKK 260520Z 23016KT 5000 -RA BKN011 12/10 Q1019=
202401260550 METAR EGKK 260550Z 27019KT 9999 SCT048 10/06 Q1020=
202401260620 METAR EGKK 260620Z 27017KT 9999 FEW048 10/06 Q1021=
202401260650 METAR EGKK 260650Z 27017G27KT 9999 FEW031 09/05 Q1022=
202401260720 METAR EGKK 260720Z 29016G26KT 9999 FEW031 09/04 Q1023=
202401260750 METAR EGKK 260750Z 28013KT CAVOK 08/02 Q1024=
202401260820 METAR EGKK 260820Z 29014KT CAVOK 07/01 Q1025=
202401260850 METAR EGKK 260850Z 28013KT CAVOK 07/01 Q1026=
202401260920 METAR EGKK 260920Z 27013KT CAVOK 07/02 Q1027=
202401260950 METAR EGKK 260950Z 28014KT CAVOK 08/01 Q1028=
202401261020 METAR EGKK 261020Z 28012G22KT CAVOK 08/01 Q1029=
202401261050 METAR EGKK 261050Z 30012KT CAVOK 08/00 Q1029=
202401261120 METAR EGKK 261120Z 29013KT CAVOK 09/M00 Q1030=
202401261150 METAR EGKK 261150Z 30014G24KT CAVOK 09/M01 Q1030=
202401261220 METAR EGKK 261220Z 29013KT CAVOK 09/M01 Q1030=
202401261250 METAR EGKK 261250Z 28013KT CAVOK 09/M01 Q1031=
202401261320 METAR EGKK 261320Z 29010KT 260V330 CAVOK 10/M01 Q1031=
202401261350 METAR EGKK 261350Z 27010KT CAVOK 10/M01 Q1031=
202401261420 METAR EGKK 261420Z 27009KT 250V310 CAVOK 10/M01 Q1031=
202401261450 METAR EGKK 261450Z 27010KT CAVOK 09/M01 Q1032=
202401261520 METAR EGKK 261520Z 28007KT CAVOK 09/M01 Q1032=
202401261550 METAR EGKK 261550Z 26008KT CAVOK 08/M00 Q1033=
202401261620 METAR EGKK 261620Z 26007KT CAVOK 07/M00 Q1033=
202401261650 METAR EGKK 261650Z 23003KT CAVOK 07/M01 Q1033=
202401261720 METAR EGKK 261720Z 21002KT CAVOK 06/M00 Q1034=
202401261750 METAR EGKK 261750Z 23003KT CAVOK 06/M01 Q1034=
202401261820 METAR EGKK 261820Z 23004KT CAVOK 05/M00 Q1034=
202401261850 METAR EGKK 261850Z 22003KT CAVOK 04/M00 Q1034=
202401261920 METAR EGKK 261920Z 20004KT CAVOK 04/M00 Q1034=
202401261950 METAR EGKK 261950Z 21003KT CAVOK 04/M00 Q1034=
202401262020 METAR EGKK 262020Z 20002KT CAVOK 03/M01 Q1035=
202401262050 METAR EGKK 262050Z VRB01KT CAVOK 03/M01 Q1035=
202401262120 METAR EGKK 262120Z VRB02KT CAVOK 02/M01 Q1035=
202401262150 METAR EGKK 262150Z VRB01KT CAVOK 01/M01 Q1035=
202401262220 METAR EGKK 262220Z 22004KT CAVOK 01/M01 Q1035=
202401262250 METAR EGKK 262250Z 21004KT CAVOK 01/M01 Q1035=
202401262320 METAR EGKK 262320Z 21004KT CAVOK 01/M00 Q1035=
202401262350 METAR EGKK 262350Z 22003KT CAVOK 01/M01 Q1035=
202401270020 METAR EGKK 270020Z VRB02KT CAVOK 00/M02 Q1035=
202401270050 METAR EGKK 270050Z 27002KT CAVOK M00/M02 Q1035=
202401270120 METAR EGKK 270120Z VRB01KT CAVOK M01/M02 Q1035=
202401270150 METAR EGKK 270150Z VRB02KT CAVOK M00/M01 Q1035=
202401270220 METAR EGKK 270220Z VRB01KT CAVOK M01/M02 Q1035=
202401270250 METAR EGKK 270250Z 21002KT CAVOK M01/M02 Q1034=
202401270320 METAR EGKK 270320Z 00000KT CAVOK M02/M03 Q1034=
202401270350 METAR EGKK 270350Z VRB01KT CAVOK M02/M03 Q1034=
202401270420 METAR EGKK 270420Z 12001KT CAVOK M02/M02 Q1034=
202401270450 METAR EGKK 270450Z VRB02KT CAVOK M02/M03 Q1034=
202401270520 METAR EGKK 270520Z 21001KT CAVOK M02/M03 Q1034=
202401270550 METAR EGKK 270550Z 10002KT CAVOK M02/M03 Q1034=
202401270620 METAR EGKK 270620Z 00000KT CAVOK M02/M03 Q1034=
202401270650 METAR EGKK 270650Z 09002KT CAVOK M02/M02 Q1034=
202401270720 METAR EGKK 270720Z 08005KT 9999 FEW028 M03/M03 Q1034=
202401270750 METAR EGKK 270750Z 12001KT 9999 SCT030 M02/M03 Q1034=
202401270820 METAR EGKK 270820Z VRB02KT 9999 FEW029 M02/M02 Q1034=
202401270850 METAR EGKK 270850Z 09002KT 9999 SCT029 M01/M01 Q1034=
202401270920 METAR EGKK 270920Z 08003KT 9999 FEW030 M00/M01 Q1034=
202401270950 METAR EGKK 270950Z VRB01KT 9999 FEW030 01/M00 Q1034=
202401271020 METAR EGKK 271020Z 25001KT CAVOK 01/01 Q1034=
202401271050 METAR EGKK 271050Z 21001KT 9999 FEW018 02/01 Q1034=
202401271120 METAR EGKK 271120Z VRB01KT 9999 FEW020 05/03 Q1034=
202401271150 METAR EGKK 271150Z 20005KT 170V230 9999 FEW015 07/05 Q1034=
202401271220 METAR EGKK 271220Z 20007KT 9999 FEW014 08/05 Q1033=
202401271250 METAR EGKK 271250Z 20006KT 150V240 9999 FEW018 08/04 Q1033=
202401271320 METAR EGKK 271320Z 20008KT 9999 SCT018 08/04 Q1033=
202401271350 METAR EGKK 271350Z 19008KT 9999 FEW020 08/03 Q1033=
202401271420 METAR EGKK 271420Z 20008KT 9999 FEW021 08/03 Q1032=
202401271450 METAR EGKK 271450Z 18008KT 9999 FEW019 08/04 Q1032=
202401271520 METAR EGKK 271520Z 18007KT 150V210 9999 FEW020 08/03 Q1032=
202401271550 METAR EGKK 271550Z 18005KT 150V220 CAVOK 07/03 Q1031=
202401271620 METAR EGKK 271620Z 18005KT CAVOK 07/02 Q1031=
202401271650 METAR EGKK 271650Z 15003KT 110V180 CAVOK 06/02 Q1031=
202401271720 METAR EGKK 271720Z 16003KT CAVOK 06/02 Q1031=
202401271750 METAR EGKK 271750Z 15003KT CAVOK 06/02 Q1031=
202401271820 METAR EGKK 271820Z 14004KT 110V180 CAVOK 06/02 Q1031=
202401271850 METAR EGKK 271850Z 14004KT CAVOK 05/03 Q1030=
202401271920 METAR EGKK 271920Z 15004KT 120V190 CAVOK 05/02 Q1031=
202401271950 METAR EGKK 271950Z 15004KT 120V200 CAVOK 05/02 Q1031=
202401272020 METAR EGKK 272020Z 13006KT CAVOK 05/02 Q1030=
202401272050 METAR EGKK 272050Z 13005KT CAVOK 05/02 Q1030=
202401272120 METAR EGKK 272120Z 14005KT CAVOK 05/02 Q1030=
202401272150 METAR EGKK 272150Z 15004KT CAVOK 05/02 Q1030=
202401272220 METAR EGKK 272220Z 15006KT 130V190 CAVOK 05/03 Q1029=
202401272250 METAR EGKK 272250Z 18004KT 140V210 CAVOK 05/02 Q1029=
202401272320 METAR EGKK 272320Z 15005KT CAVOK 05/02 Q1028=
202401272350 METAR EGKK 272350Z 17005KT 140V200 CAVOK 05/02 Q1028=
202401280020 METAR EGKK 280020Z 17004KT CAVOK 05/02 Q1028=
202401280050 METAR EGKK 280050Z 15004KT 120V190 CAVOK 05/02 Q1027=
202401280120 METAR EGKK 280120Z 13003KT CAVOK 04/02 Q1027=
202401280150 METAR EGKK 280150Z 10003KT CAVOK 02/01 Q1026=
202401280220 METAR EGKK 280220Z 12005KT CAVOK 03/02 Q1026=
202401280250 METAR EGKK 280250Z 09004KT CAVOK 03/01 Q1026=
202401280320 METAR EGKK 280320Z 13004KT CAVOK 03/02 Q1025=
202401280350 METAR EGKK 280350Z 13003KT CAVOK 03/02 Q1025=
202401280420 METAR EGKK 280420Z 13003KT 100V160 CAVOK 03/02 Q1025=
202401280450 METAR EGKK 280450Z 12003KT CAVOK 03/01 Q1025=
202401280520 METAR EGKK 280520Z 10003KT CAVOK 01/01 Q1025=
202401280550 METAR EGKK 280550Z 13004KT CAVOK 02/01 Q1024=
202401280620 METAR EGKK 280620Z 13004KT CAVOK 03/02 Q1024=
202401280650 METAR EGKK 280650Z 12004KT CAVOK 03/02 Q1024=
202401280720 METAR EGKK 280720Z 14004KT 120V190 CAVOK 05/03 Q1024=
202401280750 METAR EGKK 280750Z 12004KT CAVOK 05/04 Q1023=
202401280820 METAR EGKK 280820Z VRB02KT CAVOK 05/04 Q1024=
202401280850 METAR EGKK 280850Z 17004KT 140V210 CAVOK 05/04 Q1023=
202401280920 METAR EGKK 280920Z 14004KT 110V190 CAVOK 06/04 Q1023=
202401280950 METAR EGKK 280950Z 15004KT 110V180 CAVOK 07/05 Q1023=
202401281020 METAR EGKK 281020Z 15007KT 120V190 CAVOK 07/05 Q1023=
202401281050 METAR EGKK 281050Z 17007KT 140V200 CAVOK 08/05 Q1023=
202401281120 METAR EGKK 281120Z 17006KT 130V210 CAVOK 08/05 Q1023=
202401281150 METAR EGKK 281150Z 17007KT 140V210 CAVOK 08/05 Q1022=
202401281220 METAR EGKK 281220Z 17005KT 130V210 CAVOK 09/06 Q1022=
202401281250 METAR EGKK 281250Z 15006KT CAVOK 09/06 Q1022=
202401281320 METAR EGKK 281320Z 16004KT 110V210 CAVOK 11/06 Q1021=
202401281350 METAR EGKK 281350Z 14003KT 050V200 CAVOK 10/06 Q1021=
202401281420 METAR EGKK 281420Z 13004KT 090V170 CAVOK 11/06 Q1021=
202401281450 METAR EGKK 281450Z 15005KT 110V190 CAVOK 11/06 Q1020=
202401281520 METAR EGKK 281520Z 16005KT 130V200 CAVOK 10/06 Q1020=
202401281550 METAR EGKK 281550Z 17005KT 140V200 CAVOK 10/06 Q1020=
202401281620 METAR EGKK 281620Z 17003KT 130V230 CAVOK 09/06 Q1020=
202401281650 METAR EGKK 281650Z 16005KT 130V210 CAVOK 08/06 Q1020=
202401281720 METAR EGKK 281720Z 17005KT 140V210 CAVOK 08/06 Q1021=
202401281750 METAR EGKK 281750Z 17003KT CAVOK 07/05 Q1021=
202401281820 METAR EGKK 281820Z 16005KT CAVOK 07/06 Q1020=
202401281850 METAR EGKK 281850Z 17004KT CAVOK 07/05 Q1021=
202401281920 METAR EGKK 281920Z VRB02KT CAVOK 06/05 Q1021=
202401281950 METAR EGKK 281950Z 15003KT 120V220 CAVOK 07/06 Q1021=
202401282020 METAR EGKK 282020Z 17003KT 130V220 CAVOK 07/06 Q1021=
202401282050 METAR EGKK 282050Z VRB02KT CAVOK 08/06 Q1021=
202401282120 METAR EGKK 282120Z VRB01KT CAVOK 07/06 Q1021=
202401282150 METAR EGKK 282150Z 09003KT CAVOK 06/05 Q1021=
202401282220 METAR EGKK 282220Z 09002KT CAVOK 06/05 Q1022=
202401282250 METAR EGKK 282250Z 27001KT 9000 BKN013 06/06 Q1022=
202401282320 METAR EGKK 282320Z 11002KT 9999 BKN011 07/07 Q1022=
202401282350 METAR EGKK 282350Z VRB02KT 9999 BKN013 07/07 Q1022=
202401290020 METAR EGKK 290020Z 16003KT 9999 BKN018 08/08 Q1022=
202401290050 METAR EGKK 290050Z 19003KT 140V230 9999 BKN017 08/08 Q1022=
202401290120 METAR EGKK 290120Z 18004KT 9999 OVC015 09/08 Q1022=
202401290150 METAR EGKK 290150Z VRB02KT 9999 BKN013 08/07 Q1022=
202401290220 METAR EGKK 290220Z 21005KT 9999 BKN007 10/09 Q1022=
202401290250 METAR EGKK 290250Z 20004KT 9999 OVC006 10/09 Q1022=
202401290320 METAR EGKK 290320Z 21003KT 9999 OVC006 10/09 Q1022=
202401290350 METAR EGKK 290350Z 21003KT 9000 -DZ OVC006 10/09 Q1022=
202401290420 METAR EGKK 290420Z 19003KT 8000 OVC006 10/09 Q1022=
202401290450 METAR EGKK 290450Z 21005KT 8000 OVC005 10/09 Q1022=
202401290520 METAR EGKK 290520Z 20004KT 160V220 7000 OVC004 10/09 Q1022=
202401290550 METAR COR EGKK 290550Z 19005KT 4000 BR OVC004 10/09 Q1022=
202401290620 METAR EGKK 290620Z 18005KT 4500 BR OVC003 10/09 Q1023=
202401290650 METAR EGKK 290650Z 18003KT 2500 BR OVC003 10/09 Q1023=
202401290720 METAR EGKK 290720Z 18004KT 140V210 3300 BR OVC002 10/09 Q1023=
202401290750 METAR COR EGKK 290750Z 19003KT 140V220 1500 BR OVC002 10/09 Q1023=
202401290820 METAR EGKK 290820Z 20005KT 150V220 0900 R26L/P1500N FG OVC002 09/09 Q1023=
202401290850 METAR EGKK 290850Z 19006KT 1100 R26L/P1500N BR OVC002 09/09 Q1023=
202401290920 METAR EGKK 290920Z 18006KT 140V210 0900 R26L/P1500D FG OVC002 09/09 Q1023=
202401290950 METAR EGKK 290950Z 18004KT 150V220 1700 BR OVC002 09/09 Q1023=
202401291020 METAR EGKK 291020Z 18005KT 150V220 2000 BR OVC002 09/09 Q1023=
202401291050 METAR EGKK 291050Z 17005KT 130V200 2200 BR OVC002 09/09 Q1024=
202401291120 METAR EGKK 291120Z 18006KT 3000 BR OVC003 10/09 Q1024=
202401291150 METAR EGKK 291150Z 18006KT 1600 BR OVC002 09/09 Q1024=
202401291220 METAR EGKK 291220Z 18006KT 150V210 1500 BR OVC002 10/09 Q1023=
202401291250 METAR EGKK 291250Z 16005KT 120V210 2500 BR OVC002 10/09 Q1023=
202401291320 METAR EGKK 291320Z 17006KT 140V200 6000 BKN004 10/10 Q1023=
202401291350 METAR EGKK 291350Z 18006KT 140V210 8000 BKN004 10/10 Q1023=
202401291420 METAR EGKK 291420Z 18004KT 150V220 9999 SCT005 BKN009 11/10 Q1022=
202401291450 METAR EGKK 291450Z 15006KT 120V190 9999 FEW008 11/09 Q1022=
202401291520 METAR EGKK 291520Z 16006KT 9999 FEW008 11/09 Q1022=
202401291550 METAR EGKK 291550Z 16006KT 9999 FEW010 10/09 Q1022=
202401291620 METAR EGKK 291620Z 15006KT 120V180 9999 FEW010 10/09 Q1022=
202401291650 METAR EGKK 291650Z 16006KT 120V200 9999 FEW010 BKN049 10/09 Q1022=
202401291720 METAR EGKK 291720Z 16006KT 9999 FEW035 10/09 Q1022=
202401291750 METAR EGKK 291750Z 15003KT 090V210 9999 SCT038 10/09 Q1022=
202401291820 METAR EGKK 291820Z 15003KT 120V190 CAVOK 10/09 Q1022=
202401291850 METAR EGKK 291850Z 14004KT 100V190 9999 BKN030 10/09 Q1022=
202401291920 METAR EGKK 291920Z 16005KT 130V190 9999 SCT028 10/09 Q1022=
202401291950 METAR EGKK 291950Z 17004KT 140V210 9999 BKN020 10/09 Q1022=
202401292020 METAR EGKK 292020Z 17006KT 130V220 9999 BKN020 11/09 Q1022=
202401292050 METAR EGKK 292050Z 18007KT 9999 BKN021 11/09 Q1022=
202401292120 METAR EGKK 292120Z 18008KT 140V210 9999 BKN027 11/09 Q1022=
202401292150 METAR EGKK 292150Z 18007KT 9999 BKN017 11/09 Q1022=
202401292220 METAR EGKK 292220Z 19009KT 9999 BKN021 11/09 Q1022=
202401292250 METAR EGKK 292250Z 19009KT 9999 BKN016 11/09 Q1022=
202401292320 METAR EGKK 292320Z 19008KT 9999 BKN014 11/09 Q1022=
202401292350 METAR EGKK 292350Z 20011KT 170V230 9999 BKN013 12/10 Q1022=
202401300020 METAR EGKK 300020Z 21013G25KT 9999 BKN011 12/10 Q1022=
202401300050 METAR EGKK 300050Z 21014KT 9999 BKN011 11/10 Q1022=
202401300120 METAR EGKK 300120Z 21014G24KT 9999 BKN011 11/09 Q1021=
202401300150 METAR EGKK 300150Z 21015G26KT 9999 BKN012 10/08 Q1021=
202401300220 METAR EGKK 300220Z 21012KT 180V250 9999 BKN010 10/08 Q1022=
202401300250 METAR EGKK 300250Z 21013KT 9999 OVC013 10/08 Q1022=
202401300320 METAR EGKK 300320Z 21012KT 8000 BKN007 09/08 Q1022=
202401300350 METAR EGKK 300350Z 22009KT 8000 BKN008 09/08 Q1022=
202401300420 METAR EGKK 300420Z 22009KT 180V240 9999 BKN009 09/08 Q1022=
202401300450 METAR EGKK 300450Z 20008KT 170V240 9999 BKN008 09/08 Q1022=
202401300520 METAR EGKK 300520Z 22010KT 9999 BKN008 09/08 Q1022=
202401300550 METAR EGKK 300550Z 24010KT 9999 BKN013 09/07 Q1023=
202401300620 METAR EGKK 300620Z 26017KT 9999 BKN019 08/06 Q1023=
202401300650 METAR EGKK 300650Z 25014KT 9999 BKN014 08/05 Q1024=
202401300720 METAR EGKK 300720Z 25009KT 9999 BKN013 08/05 Q1024=
202401300750 METAR EGKK 300750Z 26011KT 9999 BKN013 07/05 Q1025=
202401300820 METAR EGKK 300820Z 26011KT 9999 BKN016 07/05 Q1026=
202401300850 METAR EGKK 300850Z 26012KT 9999 BKN017 08/05 Q1026=
202401300920 METAR EGKK 300920Z 26011KT 9999 BKN018 08/04 Q1026=
202401300950 METAR EGKK 300950Z 27009KT 9999 BKN020 08/04 Q1027=
202401301020 METAR EGKK 301020Z 27010KT 9999 BKN019 08/04 Q1027=
202401301050 METAR EGKK 301050Z 26009KT 9999 BKN021 08/05 Q1028=
202401301120 METAR EGKK 301120Z 27012KT 9999 BKN020 08/04 Q1028=
202401301150 METAR EGKK 301150Z 28010KT 9999 BKN021 08/04 Q1029=
202401301220 METAR EGKK 301220Z 29008KT 9999 BKN022 08/04 Q1029=
202401301250 METAR EGKK 301250Z 30009KT 9999 BKN021 08/04 Q1029=
202401301320 METAR EGKK 301320Z 29010KT 9999 BKN021 08/04 Q1029=
202401301350 METAR EGKK 301350Z 29008KT 9999 BKN022 08/04 Q1030=
202401301420 METAR EGKK 301420Z 30009KT 9999 BKN024 08/03 Q1030=
202401301450 METAR EGKK 301450Z 31009KT 9999 BKN023 08/03 Q1030=
202401301520 METAR EGKK 301520Z 29008KT 9999 BKN030 08/03 Q1030=
202401301550 METAR EGKK 301550Z 28008KT 9999 BKN030 08/03 Q1031=
202401301620 METAR EGKK 301620Z 26005KT 9999 BKN028 07/03 Q1031=
202401301650 METAR EGKK 301650Z 26006KT 9999 BKN030 07/03 Q1031=
202401301720 METAR EGKK 301720Z 27005KT 9999 BKN029 07/03 Q1031=
202401301750 METAR EGKK 301750Z 26004KT 9999 BKN028 07/03 Q1032=
202401301820 METAR EGKK 301820Z VRB01KT 9999 BKN028 07/03 Q1032=
202401301850 METAR EGKK 301850Z 22002KT 9999 BKN027 07/03 Q1033=
202401301920 METAR EGKK 301920Z VRB01KT 9999 BKN027 07/03 Q1033=
202401301950 METAR EGKK 301950Z 21002KT 9999 BKN028 07/03 Q1033=
202401302020 METAR EGKK 302020Z 24003KT 9999 BKN028 07/03 Q1034=
202401302050 METAR EGKK 302050Z VRB02KT 9999 BKN028 07/03 Q1034=
202401302120 METAR EGKK 302120Z 30003KT 9999 BKN029 07/03 Q1034=
202401302150 METAR EGKK 302150Z VRB01KT 9999 BKN030 07/03 Q1034=
202401302220 METAR EGKK 302220Z 25004KT 9999 BKN028 06/03 Q1034=
202401302250 METAR EGKK 302250Z 23003KT 100V260 9999 BKN027 07/03 Q1034=
202401302320 METAR EGKK 302320Z VRB02KT 9999 BKN031 07/03 Q1034=
202401302350 METAR EGKK 302350Z 00000KT 9999 BKN031 07/03 Q1034=
202401310020 METAR EGKK 310020Z 13001KT 9999 BKN030 06/03 Q1034=
202401310050 METAR EGKK 310050Z 26003KT 9999 BKN029 06/03 Q1035=
202401310120 METAR EGKK 310120Z 22004KT 160V270 9999 BKN028 07/02 Q1034=
202401310150 METAR EGKK 310150Z 18003KT 9999 BKN028 07/02 Q1033=
202401310220 METAR EGKK 310220Z VRB02KT 9999 BKN029 07/02 Q1033=
202401310250 METAR EGKK 310250Z 20004KT 9999 BKN028 07/02 Q1034=
202401310320 METAR EGKK 310320Z 21003KT 180V250 9999 BKN028 07/02 Q1034=
202401310350 METAR EGKK 310350Z 21004KT 180V250 9999 BKN027 07/02 Q1033=
202401310420 METAR EGKK 310420Z 20004KT 9999 BKN028 07/01 Q1033=
202401310450 METAR EGKK 310450Z 22004KT 9999 BKN028 07/01 Q1033=
202401310520 METAR EGKK 310520Z 22004KT 9999 BKN027 07/01 Q1033=
202401310550 METAR EGKK 310550Z 23004KT 9999 BKN027 07/01 Q1033=
202401310620 METAR EGKK 310620Z 23005KT 9999 BKN028 07/01 Q1033=
202401310650 METAR EGKK 310650Z 21004KT 9999 BKN029 07/01 Q1033=
202401310720 METAR EGKK 310720Z 21004KT 9999 BKN028 07/01 Q1032=
202401310750 METAR EGKK 310750Z 22004KT 9999 BKN027 07/02 Q1032=
202401310820 METAR EGKK 310820Z 22003KT 190V250 9999 BKN027 07/02 Q1032=
202401310850 METAR EGKK 310850Z 22003KT 190V260 9999 BKN025 07/02 Q1032=
202401310920 METAR EGKK 310920Z 23008KT 9999 BKN024 07/03 Q1032=
202401310950 METAR EGKK 310950Z 22009KT 180V270 9999 BKN027 07/02 Q1031=
202401311020 METAR EGKK 311020Z 23010KT 9999 BKN025 08/02 Q1031=
202401311050 METAR EGKK 311050Z 23010KT 9999 BKN025 08/02 Q1031=
202401311120 METAR EGKK 311120Z 24011KT 200V270 9999 BKN026 08/02 Q1032=
202401311150 METAR EGKK 311150Z 24010KT 9999 BKN027 08/02 Q1031=
202401311220 METAR EGKK 311220Z 23009KT 9999 FEW027 BKN030 08/02 Q1031=
202401311250 METAR EGKK 311250Z 23007KT 180V250 9999 BKN029 08/03 Q1030=
202401311320 METAR EGKK 311320Z 21007KT 180V260 9999 FEW030 BKN034 09/03 Q1029=
202401311350 METAR COR EGKK 311350Z 22012KT 9999 FEW025 SCT038 10/04 Q1029=
202401311420 METAR EGKK 311420Z 21011KT 9999 SCT017 SCT021 09/05 Q1028=
202401311450 METAR EGKK 311450Z 21009KT 9999 BKN015 09/05 Q1028=
202401311520 METAR EGKK 311520Z 22010KT 9999 BKN013 09/06 Q1028=
202401311550 METAR EGKK 311550Z 22010KT 9999 BKN011 09/06 Q1028=
202401311620 METAR EGKK 311620Z 21011KT 5000 -DZ BKN008 09/07 Q1027=
202401311650 METAR EGKK 311650Z 21011KT 9000 BKN006 09/08 Q1027=
202401311720 METAR EGKK 311720Z 22011KT 9000 BKN006 09/08 Q1027=
202401311750 METAR EGKK 311750Z 22011KT 7000 BKN005 09/09 Q1026=
202401311820 METAR EGKK 311820Z 22012KT 9999 BKN005 10/09 Q1026=
202401311850 METAR COR EGKK 311850Z 23012KT 9999 FEW007 BKN010 10/09 Q1026=
202401311920 METAR EGKK 311920Z 22011KT 9999 FEW009 BKN014 11/09 Q1026=
202401311950 METAR EGKK 311950Z 24012KT 9999 BKN013 11/09 Q1026=
202401312020 METAR EGKK 312020Z 23014KT 9999 SCT014 BKN028 11/09 Q1026=
202401312050 METAR EGKK 312050Z 24012KT 9999 BKN024 11/09 Q1026=
202401312120 METAR EGKK 312120Z 23012KT 9999 BKN017 11/09 Q1026=
202401312150 METAR EGKK 312150Z 24010KT 9999 BKN015 11/09 Q1026=
202401312220 METAR EGKK 312220Z 24009KT 9999 BKN014 11/09 Q1026=
202401312250 METAR EGKK 312250Z 24008KT 9999 BKN014 11/09 Q1026=
202401312320 METAR EGKK 312320Z 24009KT 9999 BKN014 11/09 Q1027=
202401312350 METAR EGKK 312350Z 25008KT 9999 BKN013 11/09 Q1027=
202402010020 METAR EGKK 010020Z 26009KT 9999 BKN012 11/09 Q1027=
202402010050 METAR EGKK 010050Z 25008KT 9999 -RA BKN012 10/09 Q1027=
202402010120 METAR EGKK 010120Z 26008KT 9999 BKN011 10/09 Q1027=
202402010150 METAR EGKK 010150Z 27009KT 9999 SCT012 BKN016 10/09 Q1027=
202402010220 METAR EGKK 010220Z 26007KT 9999 FEW012 SCT024 10/09 Q1028=
202402010250 METAR EGKK 010250Z 34011KT 9999 -RADZ SCT010 BKN016 10/08 Q1028=
202402010320 METAR EGKK 010320Z NIL=
202402010350 METAR EGKK 010350Z 33009KT 9999 BKN018 09/07 Q1029=
202402010420 METAR EGKK 010420Z 34011KT 9999 BKN014 08/06 Q1029=
202402010450 METAR EGKK 010450Z 36008KT 9999 SCT024 BKN039 08/05 Q1030=
202402010520 METAR EGKK 010520Z 33008KT 9999 BKN031 07/04 Q1031=
202402010550 METAR EGKK 010550Z 33007KT 9999 SCT030 06/03 Q1031=
202402010620 METAR EGKK 010620Z 34005KT CAVOK 06/02 Q1032=
202402010650 METAR EGKK 010650Z 32003KT 280V350 CAVOK 06/01 Q1032=
202402010720 METAR EGKK 010720Z 34005KT 300V010 CAVOK 05/01 Q1032=
202402010750 METAR EGKK 010750Z 34006KT 300V020 CAVOK 05/01 Q1033=
202402010820 METAR EGKK 010820Z 31004KT 280V350 CAVOK 05/01 Q1033=
202402010850 METAR EGKK 010850Z VRB01KT CAVOK 04/01 Q1034=
202402010920 METAR EGKK 010920Z VRB02KT CAVOK 06/01 Q1034=
202402010950 METAR EGKK 010950Z 27004KT 240V310 CAVOK 06/02 Q1034=
202402011020 METAR EGKK 011020Z 28006KT 250V320 CAVOK 07/02 Q1034=
202402011050 METAR EGKK 011050Z 29005KT CAVOK 07/01 Q1035=
202402011120 METAR EGKK 011120Z 31005KT 260V350 CAVOK 08/01 Q1035=
202402011150 METAR EGKK 011150Z 30004KT 260V330 CAVOK 08/01 Q1035=
202402011220 METAR EGKK 011220Z 30006KT 270V340 CAVOK 09/01 Q1035=
202402011250 METAR EGKK 011250Z 30006KT 260V350 CAVOK 09/01 Q1035=
202402011320 METAR EGKK 011320Z 31004KT 270V360 CAVOK 09/01 Q1034=
202402011350 METAR EGKK 011350Z 27006KT 230V310 CAVOK 10/01 Q1034=
202402011420 METAR EGKK 011420Z 26004KT 230V300 CAVOK 10/01 Q1034=
202402011450 METAR EGKK 011450Z 29006KT CAVOK 10/01 Q1034=
202402011520 METAR EGKK 011520Z 23006KT CAVOK 09/01 Q1034=
202402011550 METAR EGKK 011550Z 27007KT CAVOK 08/01 Q1034=
202402011620 METAR EGKK 011620Z 24003KT CAVOK 08/01 Q1034=
202402011650 METAR EGKK 011650Z VRB02KT CAVOK 08/00 Q1033=
202402011720 METAR EGKK 011720Z 26005KT CAVOK 05/M00 Q1034=
202402011750 METAR EGKK 011750Z 23004KT CAVOK 06/00 Q1034=
202402011820 METAR EGKK 011820Z 22003KT CAVOK 06/00 Q1034=
202402011850 METAR EGKK 011850Z 20003KT CAVOK 05/01 Q1034=
202402011920 METAR EGKK 011920Z 21004KT CAVOK 05/01 Q1034=
202402011950 METAR EGKK 011950Z 21005KT CAVOK 05/01 Q1034=
202402012020 METAR EGKK 012020Z 22006KT CAVOK 05/01 Q1034=
202402012050 METAR EGKK 012050Z 22005KT CAVOK 05/02 Q1034=
202402012120 METAR EGKK 012120Z 22003KT CAVOK 04/02 Q1034=
202402012150 METAR EGKK 012150Z 24003KT CAVOK 04/02 Q1034=
202402012220 METAR EGKK 012220Z 22004KT CAVOK 04/02 Q1034=
202402012250 METAR EGKK 012250Z 21006KT CAVOK 05/02 Q1033=
202402012320 METAR EGKK 012320Z 23007KT CAVOK 05/03 Q1033=
202402012350 METAR EGKK 012350Z 22006KT CAVOK 04/03 Q1033=
202402020020 METAR EGKK 020020Z 23006KT CAVOK 04/03 Q1033=
202402020050 METAR EGKK 020050Z 23006KT CAVOK 04/02 Q1032=
202402020120 METAR EGKK 020120Z 23003KT CAVOK 04/02 Q1032=
202402020150 METAR EGKK 020150Z 23005KT CAVOK 04/02 Q1032=
202402020220 METAR EGKK 020220Z 23006KT CAVOK 04/03 Q1032=
202402020250 METAR EGKK 020250Z 24006KT CAVOK 04/03 Q1032=
202402020320 METAR EGKK 020320Z 24004KT CAVOK 04/03 Q1031=
202402020350 METAR EGKK 020350Z 24004KT 210V270 CAVOK 04/03 Q1031=
202402020420 METAR EGKK 020420Z 23004KT 9999 BKN010 04/03 Q1031=
202402020450 METAR EGKK 020450Z 23007KT 9999 BKN009 05/03 Q1031=
202402020520 METAR EGKK 020520Z 23005KT 9999 BKN006 05/04 Q1031=
202402020550 METAR EGKK 020550Z 23006KT 9999 BKN005 06/05 Q1031=
202402020620 METAR EGKK 020620Z 24007KT 9999 BKN004 06/06 Q1031=
202402020650 METAR EGKK 020650Z 24007KT 9999 BKN004 07/06 Q1031=
202402020720 METAR EGKK 020720Z 24007KT 9999 BKN004 07/07 Q1031=
202402020750 METAR EGKK 020750Z 23007KT 9999 BKN004 07/07 Q1031=
202402020820 METAR EGKK 020820Z 23006KT 9999 BKN003 08/07 Q1031=
202402020850 METAR EGKK 020850Z 23009KT 6000 BKN003 08/08 Q1031=
202402020920 METAR EGKK 020920Z 23007KT 9999 BKN004 08/08 Q1031=
202402020950 METAR EGKK 020950Z 23009KT 9999 BKN004 09/08 Q1031=
202402021020 METAR EGKK 021020Z 23008KT 9999 BKN004 09/09 Q1031=
202402021050 METAR EGKK 021050Z 23009KT 9999 BKN005 09/09 Q1031=
202402021120 METAR EGKK 021120Z 23010KT 9999 BKN006 BKN009 10/09 Q1030=
202402021150 METAR EGKK 021150Z 23009KT 9999 BKN007 10/09 Q1030=
202402021220 METAR EGKK 021220Z 23009KT 9999 SCT009 BKN013 11/09 Q1030=
202402021250 METAR EGKK 021250Z 22009KT 9999 SCT010 BKN015 11/09 Q1030=
202402021320 METAR EGKK 021320Z 23009KT 9999 BKN010 BKN014 11/09 Q1030=
202402021350 METAR EGKK 021350Z 23009KT 9999 SCT011 SCT016 12/09 Q1029=
202402021420 METAR EGKK 021420Z 21008KT 9999 SCT013 12/09 Q1029=
202402021450 METAR EGKK 021450Z 24008KT 9999 FEW019 13/10 Q1029=
202402021520 METAR EGKK 021520Z 26010KT 9999 FEW021 13/09 Q1029=
202402021550 METAR EGKK 021550Z 26010KT 9999 FEW023 13/09 Q1028=
202402021620 METAR EGKK 021620Z 26011KT 9999 SCT020 12/08 Q1029=
202402021650 METAR EGKK 021650Z 24006KT 210V280 9999 BKN018 12/08 Q1029=
202402021720 METAR EGKK 021720Z 23007KT 200V270 9999 BKN018 12/08 Q1029=
202402021750 METAR EGKK 021750Z 25011KT 220V280 9999 BKN018 12/08 Q1029=
202402021820 METAR EGKK 021820Z 26014KT 9999 BKN017 12/09 Q1029=
202402021850 METAR EGKK 021850Z 26012KT 9999 BKN017 12/09 Q1029=
202402021920 METAR EGKK 021920Z 27011KT 9999 BKN017 12/09 Q1029=
202402021950 METAR EGKK 021950Z 27009KT 250V320 9999 BKN017 12/09 Q1029=
202402022020 METAR EGKK 022020Z 27010KT 9999 BKN017 12/08 Q1029=
202402022050 METAR EGKK 022050Z 26012KT 9999 BKN018 12/08 Q1029=
202402022120 METAR EGKK 022120Z 26014KT 9999 BKN017 12/08 Q1029=
202402022150 METAR EGKK 022150Z 26010KT 9999 BKN017 12/09 Q1029=
202402022220 METAR EGKK 022220Z 26010KT 9999 BKN018 11/09 Q1029=
202402022250 METAR EGKK 022250Z 26011KT 9999 FEW016 BKN023 11/09 Q1029=
202402022320 METAR EGKK 022320Z 25008KT 9999 SCT015 11/09 Q1029=
202402022350 METAR EGKK 022350Z 25009KT 9999 BKN013 11/09 Q1029=
202402030020 METAR EGKK 030020Z 26008KT 9999 BKN011 11/09 Q1029=
202402030050 METAR EGKK 030050Z 23007KT 9999 BKN008 11/10 Q1029=
202402030120 METAR EGKK 030120Z 24007KT 9999 BKN008 11/10 Q1029=
202402030150 METAR EGKK 030150Z 24005KT 8000 BKN007 11/10 Q1029=
202402030220 METAR EGKK 030220Z 24006KT 9999 BKN008 11/10 Q1028=
202402030250 METAR EGKK 030250Z 24005KT 210V280 9999 FEW008 BKN015 11/10 Q1028=
202402030320 METAR EGKK 030320Z 23007KT 200V270 9999 BKN015 11/09 Q1028=
202402030350 METAR EGKK 030350Z 25009KT 9999 BKN013 11/09 Q1028=
202402030420 METAR EGKK 030420Z 24005KT 190V270 9999 FEW011 BKN015 11/09 Q1028=
202402030450 METAR EGKK 030450Z 25007KT 9999 BKN013 11/09 Q1028=
202402030520 METAR EGKK 030520Z 22004KT 170V250 9999 BKN014 11/09 Q1028=
202402030550 METAR EGKK 030550Z 25007KT 210V270 9999 BKN014 11/09 Q1028=
202402030620 METAR EGKK 030620Z 24007KT 200V290 9999 BKN016 11/09 Q1028=
202402030650 METAR EGKK 030650Z 25006KT 210V280 9999 BKN014 11/09 Q1027=
202402030720 METAR EGKK 030720Z 24007KT 9999 SCT014 11/08 Q1028=
202402030750 METAR EGKK 030750Z 26010KT 210V310 9999 SCT015 11/09 Q1028=
202402030820 METAR EGKK 030820Z 26009KT 9999 BKN015 11/09 Q1028=
202402030850 METAR EGKK 030850Z 25008KT 9999 BKN014 11/09 Q1028=
202402030920 METAR EGKK 030920Z 25008KT 9999 BKN014 11/09 Q1028=
202402030950 METAR EGKK 030950Z 25008KT 9999 BKN014 12/09 Q1028=
202402031020 METAR EGKK 031020Z 25010KT 9999 BKN014 12/09 Q1029=
202402031050 METAR EGKK 031050Z 26011KT 9999 BKN013 12/09 Q1029=
202402031120 METAR EGKK 031120Z 25010KT 210V280 9999 BKN012 12/09 Q1029=
202402031150 METAR EGKK 031150Z 25008KT 9999 BKN013 12/10 Q1029=
202402031220 METAR EGKK 031220Z 24008KT 9999 BKN013 12/09 Q1028=
202402031250 METAR EGKK 031250Z 25010KT 9999 BKN014 12/10 Q1028=
202402031320 METAR EGKK 031320Z 24009KT 9999 BKN014 12/09 Q1028=
202402031350 METAR EGKK 031350Z 24008KT 9999 BKN014 12/10 Q1028=
202402031420 METAR EGKK 031420Z 23008KT 9999 BKN014 12/10 Q1027=
202402031450 METAR EGKK 031450Z 22005KT 9999 BKN014 12/10 Q1027=
202402031520 METAR EGKK 031520Z 22006KT 9999 BKN015 12/10 Q1027=
202402031550 METAR EGKK 031550Z 22005KT 9999 BKN018 12/10 Q1027=
202402031620 METAR EGKK 031620Z 24006KT 9999 BKN018 12/10 Q1027=
202402031650 METAR EGKK 031650Z 22007KT 180V250 9999 SCT015 BKN021 12/10 Q1027=
202402031720 METAR EGKK 031720Z 23007KT 9999 BKN016 12/10 Q1027=
202402031750 METAR EGKK 031750Z 23008KT 9999 BKN014 12/10 Q1027=
202402031820 METAR EGKK 031820Z 23008KT 9999 SCT015 BKN020 12/10 Q1027=
202402031850 METAR EGKK 031850Z 23009KT 9999 BKN011 11/10 Q1027=
202402031920 METAR EGKK 031920Z 23009KT 9000 BKN011 11/10 Q1028=
202402031950 METAR EGKK 031950Z 23008KT 9999 BKN010 11/10 Q1028=
202402032020 METAR EGKK 032020Z 24010KT 9999 SCT009 BKN016 11/10 Q1028=
202402032050 METAR EGKK 032050Z 23009KT 9000 -RA BKN011 11/10 Q1028=
202402032120 METAR EGKK 032120Z 23009KT 7000 BKN011 11/10 Q1027=
202402032150 METAR EGKK 032150Z 24010KT 9999 BKN016 11/10 Q1027=
202402032220 METAR EGKK 032220Z 24012KT 9999 FEW007 BKN013 BKN030 11/10 Q1027=
202402032250 METAR EGKK 032250Z 23010KT 9999 FEW008 BKN012 11/10 Q1027=
202402032320 METAR EGKK 032320Z 24010KT 9999 SCT007 BKN014 11/10 Q1027=
202402032350 METAR EGKK 032350Z 23011KT 9999 FEW007 BKN013 11/10 Q1027=
202402040020 METAR EGKK 040020Z 23010KT 9999 FEW007 BKN012 BKN042 11/10 Q1027=
202402040050 METAR EGKK 040050Z 24010KT 9999 BKN006 BKN013 11/10 Q1027=
202402040120 METAR EGKK 040120Z 23011KT 9999 SCT006 BKN015 11/10 Q1027=
202402040150 METAR EGKK 040150Z 23012KT 9999 SCT006 11/10 Q1027=
202402040220 METAR EGKK 040220Z 24010KT 9999 BKN005 11/10 Q1026=
202402040250 METAR EGKK 040250Z 25012KT 9999 BKN006 10/10 Q1027=
202402040320 METAR EGKK 040320Z 25012KT 9999 SCT006 BKN014 10/10 Q1027=
202402040350 METAR EGKK 040350Z 24012KT 9999 FEW007 BKN018 10/10 Q1026=
202402040420 METAR EGKK 040420Z 24010KT 9999 FEW007 BKN017 10/10 Q1026=
202402040450 METAR EGKK 040450Z 23009KT 9999 FEW008 SCT014 BKN040 11/10 Q1026=
202402040520 METAR EGKK 040520Z 23009KT 9999 FEW007 BKN015 10/10 Q1026=
202402040550 METAR EGKK 040550Z 24011KT 9999 SCT008 BKN014 11/10 Q1026=
202402040620 METAR EGKK 040620Z 24011KT 9999 SCT007 BKN013 10/10 Q1026=
202402040650 METAR EGKK 040650Z 24010KT 9999 BKN007 11/10 Q1026=
202402040720 METAR EGKK 040720Z 23011KT 9999 SCT007 BKN009 11/10 Q1025=
202402040750 METAR EGKK 040750Z 24012KT 9999 BKN007 11/10 Q1025=
202402040820 METAR EGKK 040820Z 24012KT 9999 BKN007 BKN010 11/10 Q1026=
202402040850 METAR EGKK 040850Z 23011KT 9999 BKN007 11/10 Q1026=
202402040920 METAR EGKK 040920Z 23011KT 9999 BKN008 11/10 Q1025=
202402040950 METAR EGKK 040950Z 24011KT 9999 BKN009 11/10 Q1025=
202402041020 METAR EGKK 041020Z 24010KT 9999 BKN010 11/10 Q1026=
202402041050 METAR EGKK 041050Z 24010KT 9999 BKN010 12/10 Q1026=
202402041120 METAR EGKK 041120Z 24011KT 9999 BKN011 12/10 Q1026=
202402041150 METAR EGKK 041150Z 24011KT 9999 BKN011 12/10 Q1026=
202402041220 METAR EGKK 041220Z 24011KT 9999 BKN014 13/10 Q1025=
202402041250 METAR EGKK 041250Z 25012KT 9999 BKN013 13/10 Q1025=
202402041320 METAR EGKK 041320Z 25013KT 9999 BKN014 13/10 Q1025=
202402041350 METAR EGKK 041350Z 25012KT 9999 BKN014 13/10 Q1025=
202402041420 METAR EGKK 041420Z 24012KT 9999 BKN015 12/10 Q1025=
202402041450 METAR EGKK 041450Z 24010KT 9999 BKN015 12/10 Q1024=
202402041520 METAR EGKK 041520Z 24012KT 9999 SCT013 BKN019 12/10 Q1024=
202402041550 METAR EGKK 041550Z 24010KT 9999 -RA SCT012 BKN033 12/10 Q1024=
202402041620 METAR EGKK 041620Z 24011KT 9999 SCT012 SCT022 12/10 Q1024=
202402041650 METAR EGKK 041650Z 24013KT 9999 BKN021 12/10 Q1024=
202402041720 METAR EGKK 041720Z 23010KT 9999 SCT015 SCT023 BKN027 12/09 Q1024=
202402041750 METAR EGKK 041750Z 23010KT 9999 FEW025 BKN031 12/09 Q1025=
202402041820 METAR EGKK 041820Z 23010KT 9999 BKN041 11/09 Q1025=
202402041850 METAR EGKK 041850Z 23011KT 9999 FEW021 BKN030 11/09 Q1025=
202402041920 METAR EGKK 041920Z 24010KT 9999 FEW022 SCT036 11/09 Q1025=
202402041950 METAR EGKK 041950Z 24010KT 9999 FEW024 SCT030 11/09 Q1025=
202402042020 METAR EGKK 042020Z 23008KT 9999 FEW020 SCT028 11/09 Q1025=
202402042050 METAR EGKK 042050Z 23008KT 9999 SCT026 11/09 Q1025=
202402042120 METAR EGKK 042120Z 24009KT 9999 BKN023 11/09 Q1025=
202402042150 METAR EGKK 042150Z 23006KT 190V250 9999 FEW020 BKN022 10/08 Q1025=
202402042220 METAR EGKK 042220Z 23007KT 200V260 9999 FEW018 BKN022 11/08 Q1024=
202402042250 METAR COR EGKK 042250Z 25008KT 9999 FEW017 SCT022 11/08 Q1024=
202402042320 METAR EGKK 042320Z 24008KT 9999 BKN019 11/07 Q1025=
202402042350 METAR EGKK 042350Z 24009KT 9999 BKN018 11/07 Q1025=
202402050020 METAR EGKK 050020Z 25012KT 9999 BKN018 10/07 Q1025=
202402050050 METAR EGKK 050050Z 24008KT 9999 BKN019 10/07 Q1025=
202402050120 METAR EGKK 050120Z 25010KT 9999 BKN019 10/07 Q1025=
202402050150 METAR EGKK 050150Z 25009KT 220V280 9999 BKN018 10/07 Q1024=
202402050220 METAR EGKK 050220Z 24008KT 9999 BKN017 10/07 Q1024=
202402050250 METAR EGKK 050250Z 24006KT 9999 BKN017 09/06 Q1024=
202402050320 METAR EGKK 050320Z 25007KT 9999 BKN017 09/06 Q1024=
202402050350 METAR EGKK 050350Z 24008KT 210V280 9999 BKN017 09/06 Q1024=
202402050420 METAR EGKK 050420Z 25006KT 210V280 9999 BKN017 09/06 Q1023=
202402050450 METAR EGKK 050450Z 24006KT 210V270 9999 BKN017 09/06 Q1023=
202402050520 METAR EGKK 050520Z 24007KT 9999 BKN016 09/06 Q1023=
202402050550 METAR EGKK 050550Z 24007KT 210V290 9999 BKN016 09/06 Q1023=
202402050620 METAR EGKK 050620Z 24010KT 200V260 9999 BKN015 09/06 Q1022=
202402050650 METAR EGKK 050650Z 24013KT 9999 BKN016 09/06 Q1022=
202402050720 METAR EGKK 050720Z 24013G23KT 9999 BKN016 09/06 Q1022=
202402050750 METAR EGKK 050750Z 24011KT 9999 BKN015 09/06 Q1023=
202402050820 METAR EGKK 050820Z 23012KT 9999 BKN015 09/06 Q1023=
202402050850 METAR EGKK 050850Z 24012KT 9999 BKN015 09/06 Q1022=
202402050920 METAR EGKK 050920Z 24011KT 9999 BKN016 09/06 Q1022=
202402050950 METAR EGKK 050950Z 24010KT 9999 BKN014 09/06 Q1022=
202402051020 METAR EGKK 051020Z 24012KT 9999 BKN014 10/06 Q1022=
202402051050 METAR EGKK 051050Z 23012KT 9999 BKN015 10/06 Q1022=
202402051120 METAR EGKK 051120Z 23012KT 9999 BKN014 10/07 Q1022=
202402051150 METAR EGKK 051150Z 23012KT 190V260 9999 BKN013 10/07 Q1021=
202402051220 METAR EGKK 051220Z 24011KT 9999 BKN013 10/07 Q1021=
202402051250 METAR EGKK 051250Z 23012KT 9999 BKN014 11/08 Q1020=
202402051320 METAR EGKK 051320Z 23013G23KT 9999 BKN016 11/07 Q1020=
202402051350 METAR EGKK 051350Z 24014KT 9999 BKN015 10/07 Q1020=
202402051420 METAR EGKK 051420Z 25010KT 210V270 9999 BKN015 10/07 Q1019=
202402051450 METAR EGKK 051450Z 23010KT 9999 FEW017 BKN023 10/07 Q1019=
202402051520 METAR EGKK 051520Z 23010KT 9999 BKN020 10/07 Q1019=
202402051550 METAR EGKK 051550Z 23010KT 190V250 9999 VCSH BKN013 10/08 Q1019=
202402051620 METAR EGKK 051620Z 22008KT 190V260 9999 SCT008 BKN018 10/09 Q1018=
202402051650 METAR EGKK 051650Z 24009KT 9999 SCT013 BKN026 10/08 Q1018=
202402051720 METAR EGKK 051720Z 23008KT 9999 BKN025 10/08 Q1018=
202402051750 METAR EGKK 051750Z 23010KT 9999 BKN025 10/08 Q1018=
202402051820 METAR EGKK 051820Z 23011KT 9999 SCT017 10/08 Q1018=
202402051850 METAR EGKK 051850Z 23009KT 9999 FEW022 SCT031 10/08 Q1018=
202402051920 METAR EGKK 051920Z 22008KT 9999 BKN039 11/08 Q1018=
202402051950 METAR EGKK 051950Z 23009KT 9999 BKN035 11/07 Q1017=
202402052020 METAR EGKK 052020Z 22008KT 9999 BKN041 10/07 Q1017=
202402052050 METAR EGKK 052050Z 22009KT 9999 BKN041 11/07 Q1017=
202402052120 METAR EGKK 052120Z 23010KT 9999 BKN040 11/07 Q1017=
202402052150 METAR EGKK 052150Z 22010KT 190V250 9999 BKN039 11/07 Q1016=
202402052220 METAR EGKK 052220Z 22010KT 9999 FEW017 SCT037 BKN043 11/07 Q1016=
202402052250 METAR EGKK 052250Z 23013G24KT 9999 FEW018 BKN038 11/08 Q1016=
202402052320 METAR EGKK 052320Z 23011KT 190V250 9999 FEW022 BKN038 11/08 Q1016=
202402052350 METAR EGKK 052350Z 23012KT 9999 BKN039 11/08 Q1016=
202402060020 METAR EGKK 060020Z 23012KT 9999 SCT014 BKN036 11/08 Q1016=
202402060050 METAR EGKK 060050Z 23012KT 9999 SCT014 BKN040 11/09 Q1015=
202402060120 METAR EGKK 060120Z 23013KT 9999 SCT016 BKN034 11/08 Q1015=
202402060150 METAR EGKK 060150Z 23014KT 9999 SCT017 BKN034 11/08 Q1015=
202402060220 METAR EGKK 060220Z 23014KT 9999 FEW021 BKN039 11/08 Q1014=
202402060250 METAR EGKK 060250Z 22013KT 9999 FEW018 BKN035 11/08 Q1014=
202402060320 METAR EGKK 060320Z 22011KT 9999 SCT017 OVC040 11/08 Q1013=
202402060350 METAR EGKK 060350Z 23011KT 190V260 9999 SCT016 OVC039 11/09 Q1013=
202402060420 METAR EGKK 060420Z 23012G22KT 9999 SCT018 11/09 Q1013=
202402060450 METAR EGKK 060450Z 23012KT 9999 BKN015 11/09 Q1013=
202402060520 METAR EGKK 060520Z 23015KT 9999 BKN015 12/09 Q1012=
202402060550 METAR EGKK 060550Z 23015KT 9999 -RA BKN015 12/09 Q1012=
202402060620 METAR EGKK 060620Z 23015KT 9999 SCT015 BKN034 12/09 Q1012=
202402060650 METAR EGKK 060650Z 23018G28KT 9999 FEW017 BKN035 12/08 Q1011=
202402060720 METAR EGKK 060720Z 24019KT 9999 SCT019 BKN033 12/08 Q1011=
202402060750 METAR EGKK 060750Z 23015KT 9999 -DZ SCT015 BKN023 BKN043 11/09 Q1011=
202402060820 METAR EGKK 060820Z 23016G26KT 9999 BKN018 12/09 Q1012=
202402060850 METAR EGKK 060850Z 24016KT 9000 -RA SCT016 BKN020 11/09 Q1012=
202402060920 METAR EGKK 060920Z 23011G22KT 9999 SCT015 BKN043 11/09 Q1012=
202402060950 METAR EGKK 060950Z 24014KT 9999 FEW022 BKN045 12/08 Q1011=
202402061020 METAR EGKK 061020Z 23013KT 9999 FEW019 SCT027 12/08 Q1012=
202402061050 METAR EGKK 061050Z 23016KT 9999 FEW020 BKN042 12/08 Q1012=
202402061120 METAR EGKK 061120Z 23014G25KT 9999 FEW029 BKN045 12/08 Q1011=
202402061150 METAR EGKK 061150Z 24016KT 9999 FEW023 SCT046 12/08 Q1011=
202402061220 METAR EGKK 061220Z 23017KT 210V280 9999 SCT021 SCT040 12/08 Q1011=
202402061250 METAR EGKK 061250Z 23018G29KT 9999 SCT020 BKN026 13/08 Q1010=
202402061320 METAR EGKK 061320Z 24017G29KT 9999 SCT020 BKN042 13/09 Q1010=
202402061350 METAR EGKK 061350Z 23016G26KT 9999 SCT018 BKN027 13/09 Q1010=
202402061420 METAR EGKK 061420Z 24016KT 9999 BKN018 13/09 Q1009=
202402061450 METAR EGKK 061450Z 24017G28KT 9999 BKN018 13/09 Q1009=
202402061520 METAR EGKK 061520Z 23017KT 9999 SCT017 13/09 Q1009=
202402061550 METAR EGKK 061550Z 23018G29KT 9999 BKN016 12/09 Q1008=
202402061620 METAR EGKK 061620Z 23019KT 9999 BKN016 12/09 Q1008=
202402061650 METAR EGKK 061650Z 23017G27KT 9999 BKN015 12/09 Q1008=
202402061720 METAR EGKK 061720Z 24018KT 9999 SCT011 12/10 Q1008=
202402061750 METAR EGKK 061750Z 24018KT 9999 BKN014 12/09 Q1008=
202402061820 METAR EGKK 061820Z 24018G29KT 9999 BKN016 12/09 Q1007=
202402061850 METAR EGKK 061850Z 23019G30KT 9999 BKN017 13/09 Q1007=
202402061920 METAR EGKK 061920Z 23016G27KT 9999 BKN015 12/09 Q1007=
202402061950 METAR EGKK 061950Z 24019G29KT 210V270 9999 BKN015 12/09 Q1006=
202402062020 METAR EGKK 062020Z 24022G33KT 9999 BKN014 12/09 Q1006=
202402062050 METAR EGKK 062050Z 24019G29KT 9999 -RA BKN012 12/10 Q1006=
202402062120 METAR EGKK 062120Z 23018KT 9999 -RA BKN012 12/10 Q1006=
202402062150 METAR EGKK 062150Z 23017KT 9999 -RA BKN012 12/10 Q1005=
202402062220 METAR EGKK 062220Z 23016G27KT 9999 -RA BKN011 11/10 Q1005=
202402062250 METAR EGKK 062250Z 23017KT 9000 -RA BKN010 11/10 Q1005=
202402062320 METAR EGKK 062320Z 23017KT 190V250 8000 -RA BKN010 11/10 Q1005=
202402062350 METAR EGKK 062350Z 23016KT 9999 -RA BKN010 11/10 Q1004=
202402070020 METAR EGKK 070020Z 23015G27KT 9999 -RA BKN010 11/10 Q1004=
202402070050 METAR EGKK 070050Z 24015G25KT 9999 -RA BKN010 11/10 Q1004=
202402070120 METAR EGKK 070120Z 36010KT 7000 -RA FEW005 BKN013 07/06 Q1004=
202402070150 METAR EGKK 070150Z 36007KT 7000 -RA SCT006 06/05 Q1005=
202402070220 METAR EGKK 070220Z 01006KT 6000 -RA SCT005 BKN014 06/05 Q1005=
202402070250 METAR EGKK 070250Z 04006KT 5000 -RADZ SCT004 SCT009 BKN013 06/05 Q1005=
202402070320 METAR EGKK 070320Z 05006KT 5000 DZ SCT004 BKN009 06/05 Q1005=
202402070350 METAR EGKK 070350Z 05009KT 5000 -DZ SCT004 BKN009 05/05 Q1005 REDZ=
202402070420 METAR EGKK 070420Z 05009KT 5000 -DZ SCT004 BKN021 05/04 Q1005=
202402070450 METAR EGKK 070450Z 04008KT 5000 -DZ SCT005 BKN021 05/04 Q1005=
202402070520 METAR EGKK 070520Z 04007KT 5000 -DZ SCT004 BKN009 05/04 Q1005=
202402070550 METAR EGKK 070550Z 05007KT 4000 -RADZ SCT004 BKN010 05/04 Q1005=
202402070620 METAR EGKK 070620Z 06007KT 6000 -RADZ BKN005 04/04 Q1005=
202402070650 METAR EGKK 070650Z 05007KT 4800 -RADZ BKN004 04/04 Q1005=
202402070720 METAR EGKK 070720Z 07008KT 4900 -DZ BKN004 04/04 Q1005=
202402070750 METAR EGKK 070750Z 07007KT 6000 -DZ SCT004 BKN006 04/04 Q1006=
202402070820 METAR EGKK 070820Z 08009KT 9999 FEW004 BKN007 04/04 Q1005=
202402070850 METAR EGKK 070850Z 07008KT 9999 BKN006 04/04 Q1005=
202402070920 METAR EGKK 070920Z 08008KT 9999 BKN006 05/04 Q1006=
202402070950 METAR EGKK 070950Z 07007KT 9999 FEW006 BKN008 05/04 Q1006=
202402071020 METAR EGKK 071020Z 06009KT 360V080 9999 BKN008 05/04 Q1006=
202402071050 METAR EGKK 071050Z 07009KT 9999 BKN008 05/04 Q1005=
202402071120 METAR EGKK 071120Z 08007KT 9999 FEW006 BKN007 06/05 Q1005=
202402071150 METAR EGKK 071150Z 08006KT 9999 BKN008 06/05 Q1005=
202402071220 METAR EGKK 071220Z 08006KT 9999 BKN008 06/05 Q1005=
202402071250 METAR EGKK 071250Z 07008KT 9999 BKN007 06/05 Q1004=
202402071320 METAR EGKK 071320Z 05007KT 010V100 9999 BKN008 06/05 Q1005=
202402071350 METAR EGKK 071350Z 06007KT 9999 BKN008 06/05 Q1004=
202402071420 METAR EGKK 071420Z 06005KT 020V100 9999 BKN009 06/05 Q1004=
202402071450 METAR EGKK 071450Z 06007KT 010V110 9999 BKN011 06/05 Q1004=
202402071520 METAR EGKK 071520Z 04006KT 9999 BKN010 06/05 Q1004=
202402071550 METAR EGKK 071550Z 03006KT 310V100 9999 BKN010 06/05 Q1004=
202402071620 METAR EGKK 071620Z 05004KT 9999 BKN009 06/05 Q1004=
202402071650 METAR EGKK 071650Z 05004KT 9999 BKN008 06/05 Q1004=
202402071720 METAR EGKK 071720Z 03004KT 350V080 9999 BKN010 06/04 Q1004=
202402071750 METAR EGKK 071750Z 01006KT 9999 SCT007 BKN010 06/05 Q1004=
202402071820 METAR EGKK 071820Z 03004KT 4500 -DZ BKN004 06/05 Q1004=
202402071850 METAR EGKK 071850Z 04006KT 8000 BKN004 06/05 Q1004=
202402071920 METAR EGKK 071920Z 04005KT 6000 SCT004 BKN018 06/05 Q1004=
202402071950 METAR EGKK 071950Z 07006KT 9999 SCT004 BKN015 05/05 Q1004=
202402072020 METAR EGKK 072020Z 08004KT 9999 SCT004 BKN018 05/05 Q1004=
202402072050 METAR EGKK 072050Z 14002KT 9999 FEW005 BKN021 05/05 Q1004=
202402072120 METAR EGKK 072120Z 09004KT 9999 FEW016 BKN021 05/05 Q1004=
202402072150 METAR EGKK 072150Z 08004KT 9999 FEW007 BKN022 05/05 Q1004=
202402072220 METAR EGKK 072220Z 09003KT 9999 FEW006 BKN024 05/05 Q1004=
202402072250 METAR EGKK 072250Z 06002KT 9999 FEW008 BKN024 05/05 Q1004=
202402072320 METAR EGKK 072320Z 12002KT 9999 BKN025 05/05 Q1003=
202402072350 METAR EGKK 072350Z 12002KT 9999 -RA BKN024 BKN048 05/04 Q1003=
202402080020 METAR EGKK 080020Z 12002KT 9999 BKN022 05/04 Q1003=
202402080050 METAR EGKK 080050Z 10004KT 9999 SCT022 05/04 Q1002=
202402080120 METAR EGKK 080120Z 10003KT 9999 SCT042 05/04 Q1002=
202402080150 METAR EGKK 080150Z 10004KT 9999 BKN040 05/04 Q1002=
202402080220 METAR EGKK 080220Z 08004KT 9999 BKN037 05/04 Q1001=
202402080250 METAR EGKK 080250Z 09005KT 9999 BKN031 05/04 Q1001=
202402080320 METAR EGKK 080320Z 10005KT 9999 FEW015 BKN034 05/04 Q1000=
202402080350 METAR EGKK 080350Z 09007KT 4500 -DZ SCT006 SCT023 BKN032 05/04 Q0999=
202402080420 METAR EGKK 080420Z 09005KT 3000 DZ BKN005 05/04 Q0999=
202402080450 METAR EGKK 080450Z 09005KT 3000 RADZ BKN004 05/04 Q0998=
202402080520 METAR EGKK 080520Z 09008KT 5000 -RA BKN004 05/05 Q0997 RERA REDZ=
202402080550 METAR EGKK 080550Z 10007KT 3500 RA BKN004 05/05 Q0997=
202402080620 METAR EGKK 080620Z 12006KT 4000 -RA BKN006 05/05 Q0997 RERA=
202402080650 METAR EGKK 080650Z 09008KT 8000 -RA BKN006 05/05 Q0996=
202402080720 METAR EGKK 080720Z 09008KT 9000 -RA BKN006 05/05 Q0995=
202402080750 METAR EGKK 080750Z 09007KT 9000 -RA BKN005 05/05 Q0995=
202402080820 METAR EGKK 080820Z 10008KT 8000 -RA BKN005 05/05 Q0994=
202402080850 METAR EGKK 080850Z 11007KT 9000 -RA BKN005 06/05 Q0993=
202402080920 METAR EGKK 080920Z 10007KT 070V130 9000 -RA FEW004 BKN005 06/06 Q0993=
202402080950 METAR EGKK 080950Z 09007KT 3500 -RADZ BKN004 06/06 Q0992=
202402081020 METAR EGKK 081020Z 09006KT 5000 -RA BKN004 06/06 Q0991=
202402081050 METAR EGKK 081050Z 09007KT 6000 -RA BKN004 07/07 Q0990=
202402081120 METAR EGKK 081120Z 09006KT 3000 -RA BR BKN004 08/08 Q0990=
202402081150 METAR EGKK 081150Z 22010KT 6000 -RA BKN006 11/11 Q0989=
202402081220 METAR EGKK 081220Z 22013KT 3500 -RA BKN005 12/11 Q0989=
202402081250 METAR EGKK 081250Z 22013KT 4000 -RADZ BKN006 12/11 Q0989=
202402081320 METAR EGKK 081320Z 22012G23KT 9000 BKN006 12/11 Q0989=
202402081350 METAR EGKK 081350Z 22009KT 3000 -RA BKN005 12/11 Q0988=
202402081420 METAR EGKK 081420Z 21009KT 3500 -RADZ BKN005 12/11 Q0988=
202402081450 METAR EGKK 081450Z 21008KT 9999 VCSH BKN008 12/11 Q0987=
202402081520 METAR EGKK 081520Z 21007KT 3800 RA BKN005 12/11 Q0987=
202402081550 METAR EGKK 081550Z 20009KT 5000 -RA BKN007 12/11 Q0986 RERA=
202402081620 METAR EGKK 081620Z 21012KT 9999 -RA BKN009 11/11 Q0986=
202402081650 METAR EGKK 081650Z 21011KT 9000 -RA BKN007 11/11 Q0986=
202402081720 METAR EGKK 081720Z 20010KT 170V230 6000 -RA BKN008 11/10 Q0985=
202402081750 METAR EGKK 081750Z 20013KT 9000 -RA SCT008 BKN013 11/10 Q0985=
202402081820 METAR EGKK 081820Z 21012KT 160V230 9999 -RA SCT010 BKN025 11/09 Q0985=
202402081850 METAR EGKK 081850Z 20013G23KT 170V230 9999 -RA BKN009 BKN017 10/09 Q0985=
202402081920 METAR EGKK 081920Z 19012KT 130V230 6000 -RA SCT008 BKN011 10/09 Q0984=
202402081950 METAR EGKK 081950Z 18010KT 4600 -RA SCT006 BKN009 10/09 Q0984=
202402082020 METAR EGKK 082020Z 17008KT 130V210 9999 -RA SCT008 BKN018 10/09 Q0983=
202402082050 METAR EGKK 082050Z 16011KT 120V200 9000 RA BKN009 BKN014 10/09 Q0982 RERA=
202402082120 METAR EGKK 082120Z 16011G22KT 130V200 5000 RA SCT009 BKN015 10/10 Q0981 RERA=
202402082150 METAR EGKK 082150Z 17013G23KT 140V220 3500 RA SCT007 BKN010 10/10 Q0981=
202402082220 METAR EGKK 082220Z 18012G22KT 150V220 4500 -RA BKN010 10/09 Q0980 RERA=
202402082250 METAR EGKK 082250Z 19013KT 160V220 8000 -RA BKN012 10/09 Q0980=
202402082320 METAR EGKK 082320Z 19013G27KT 8000 -RA BKN011 11/09 Q0979=
202402082350 METAR EGKK 082350Z 19013KT 160V230 9000 -RA BKN009 11/10 Q0979=
202402090020 METAR EGKK 090020Z 19012KT 150V220 9999 BKN009 11/10 Q0979=
202402090050 METAR EGKK 090050Z 20012KT 160V230 9999 BKN010 11/10 Q0979=
202402090120 METAR EGKK 090120Z 19012KT 9999 -RA BKN009 11/10 Q0978=
202402090150 METAR EGKK 090150Z 20010KT 9999 -RA BKN010 11/10 Q0978=
202402090220 METAR EGKK 090220Z 19011G21KT 9999 -RA BKN008 11/10 Q0977=
202402090250 METAR EGKK 090250Z 19012KT 9999 BKN008 11/10 Q0977=
202402090320 METAR EGKK 090320Z 20011KT 9999 BKN009 11/10 Q0977=
202402090350 METAR EGKK 090350Z 21009KT 9999 BKN010 11/10 Q0977=
202402090420 METAR EGKK 090420Z 21009KT 160V240 9999 -RA BKN010 11/09 Q0977=
202402090450 METAR EGKK 090450Z 21009KT 9999 -RA BKN009 11/10 Q0977=
202402090520 METAR EGKK 090520Z 21012KT 9999 BKN010 11/09 Q0977=
202402090550 METAR EGKK 090550Z 21010KT 9999 -RA BKN011 10/09 Q0977=
202402090620 METAR EGKK 090620Z 20011KT 8000 -RA BKN010 10/09 Q0977=
202402090650 METAR EGKK 090650Z 21012KT 180V240 9999 -RA BKN009 10/09 Q0977=
202402090720 METAR EGKK 090720Z 21014KT 9000 -DZRA BKN007 10/10 Q0977=
202402090750 METAR EGKK 090750Z 21015G25KT 9999 -RADZ BKN007 11/10 Q0978=
202402090820 METAR EGKK 090820Z 22013KT 180V240 9999 -RADZ BKN007 11/10 Q0978=
202402090850 METAR EGKK 090850Z 21015G25KT 180V240 9999 -RADZ FEW008 BKN009 BKN017 11/09 Q0978=
202402090920 METAR EGKK 090920Z 21014KT 9999 BKN012 BKN020 11/09 Q0978=
202402090950 METAR EGKK 090950Z 21014KT 9999 -SHRA FEW009 BKN010 BKN017 11/09 Q0979=
202402091020 METAR EGKK 091020Z 21014G24KT 180V240 9999 -SHRA FEW008 BKN010 11/10 Q0979 RESHRA=
202402091050 METAR EGKK 091050Z 21015KT 9999 VCSH BKN011 11/10 Q0979=
202402091120 METAR EGKK 091120Z 21015KT 9999 VCSH BKN015 11/09 Q0979=
202402091150 METAR EGKK 091150Z 21014G24KT 180V240 9999 BKN015 12/09 Q0979=
202402091220 METAR EGKK 091220Z 21014KT 170V240 9999 BKN015 12/09 Q0979=
202402091250 METAR EGKK 091250Z 21014KT 9999 VCSH BKN015 12/09 Q0979=
202402091320 METAR EGKK 091320Z 21015KT 9999 BKN015 12/09 Q0979=
202402091350 METAR EGKK 091350Z 21014KT 9999 BKN017 12/09 Q0979=
202402091420 METAR EGKK 091420Z 20011KT 170V230 9999 BKN018 12/09 Q0979=
202402091450 METAR EGKK 091450Z 20010KT 160V230 9999 -RA BKN012 12/09 Q0979=
202402091520 METAR EGKK 091520Z 19010KT 160V220 9999 -SHRA BKN013 11/10 Q0979=
202402091550 METAR EGKK 091550Z 19008KT 150V210 9999 -SHRA SCT012 BKN028 11/10 Q0979=
202402091620 METAR EGKK 091620Z 19007KT 150V210 9999 SCT023 BKN029 11/09 Q0978=
202402091650 METAR EGKK 091650Z 18006KT 140V210 9999 SCT015 BKN023 11/09 Q0978=
202402091720 METAR EGKK 091720Z 18008KT 150V220 9999 FEW017 BKN027 11/09 Q0978=
202402091750 METAR EGKK 091750Z 18007KT 140V200 9999 FEW014 BKN029 11/09 Q0978=
202402091820 METAR EGKK 091820Z 18007KT 140V210 9999 -RA FEW013 BKN030 11/09 Q0978=
202402091850 METAR EGKK 091850Z 19006KT 7000 -RA BKN014 10/09 Q0978=
202402091920 METAR EGKK 091920Z 18006KT 9999 -RA SCT013 SCT021 11/09 Q0978=
202402091950 METAR EGKK 091950Z 19008KT 9999 BKN012 11/10 Q0979=
202402092020 METAR EGKK 092020Z 19009KT 9999 BKN009 11/10 Q0979=
202402092050 METAR EGKK 092050Z 18006KT 150V220 9999 FEW008 BKN012 10/09 Q0979=
202402092120 METAR EGKK 092120Z 18006KT 150V210 9999 -RA SCT007 SCT013 10/10 Q0979=
202402092150 METAR EGKK 092150Z 19005KT 8000 -RA SCT007 SCT015 10/10 Q0979=
202402092220 METAR EGKK 092220Z 21004KT 170V250 9999 SCT006 BKN010 10/10 Q0979=
202402092250 METAR EGKK 092250Z 22007KT 180V240 9999 SCT008 BKN011 10/10 Q0979=
202402092320 METAR EGKK 092320Z 23003KT 9999 SCT006 BKN023 10/09 Q0980=
202402092350 METAR EGKK 092350Z 18003KT 140V230 9999 FEW011 SCT020 10/09 Q0980=
202402100020 METAR EGKK 100020Z 18005KT 9999 FEW018 SCT023 10/09 Q0980=
202402100050 METAR EGKK 100050Z 20005KT 9999 FEW012 SCT023 10/09 Q0980=
202402100120 METAR EGKK 100120Z 20005KT 9999 FEW008 SCT015 10/09 Q0981=
202402100150 METAR EGKK 100150Z 21005KT 9999 FEW013 SCT018 10/09 Q0981=
202402100220 METAR EGKK 100220Z 19005KT 9999 BKN020 09/09 Q0981=
202402100250 METAR EGKK 100250Z 18003KT 9999 BKN020 09/08 Q0981=
202402100320 METAR EGKK 100320Z 20003KT 9999 BKN016 09/08 Q0981=
202402100350 METAR EGKK 100350Z 18003KT 150V210 9999 BKN025 09/09 Q0981=
202402100420 METAR EGKK 100420Z 19003KT 9999 SCT005 BKN026 09/08 Q0981=
202402100450 METAR EGKK 100450Z 20004KT 9999 BKN005 09/08 Q0982=
202402100520 METAR EGKK 100520Z 21005KT 9999 BKN004 08/08 Q0982=
202402100550 METAR EGKK 100550Z 19003KT 120V240 9999 BKN004 08/08 Q0982=
202402100620 METAR EGKK 100620Z 20004KT 160V230 9999 BKN005 08/08 Q0982=
202402100650 METAR EGKK 100650Z 17003KT 120V220 9999 BKN006 08/08 Q0982=
202402100720 METAR EGKK 100720Z VRB02KT 9999 BKN006 08/08 Q0983=
202402100750 METAR EGKK 100750Z 08002KT 9999 SCT013 SCT035 08/07 Q0983=
202402100820 METAR COR EGKK 100820Z 08002KT 9999 SCT012 BKN030 08/08 Q0983=
202402100850 METAR EGKK 100850Z 11002KT 9999 BKN030 08/08 Q0983=
202402100920 METAR EGKK 100920Z 11003KT 5000 -RA FEW004 BKN012 09/09 Q0983=
202402100950 METAR EGKK 100950Z 11004KT 9999 VCSH BKN004 09/09 Q0983=
202402101020 METAR EGKK 101020Z 14004KT 9999 BKN005 10/09 Q0983=
202402101050 METAR EGKK 101050Z 17004KT 120V210 9999 BKN005 BKN010 10/09 Q0983=
202402101120 METAR EGKK 101120Z 17005KT 130V200 9999 SCT010 SCT018 11/09 Q0983=
202402101150 METAR EGKK 101150Z 19006KT 160V230 9999 BKN012 11/09 Q0983=
202402101220 METAR EGKK 101220Z 20005KT 150V240 9999 SCT012 BKN038 11/08 Q0983=
202402101250 METAR EGKK 101250Z 24006KT 9999 FEW020 SCT040 11/07 Q0983=
202402101320 METAR COR EGKK 101320Z 25007KT 9999 FEW020 SCT028 11/07 Q0983=
202402101350 METAR EGKK 101350Z 22005KT 9999 FEW025 SCT030 11/07 Q0983=
202402101420 METAR EGKK 101420Z 23004KT 9999 FEW016 SCT021 11/07 Q0983=
202402101450 METAR EGKK 101450Z 21006KT 9999 FEW024 11/06 Q0984=
202402101520 METAR EGKK 101520Z 20005KT 9999 FEW020 11/07 Q0984=
202402101550 METAR EGKK 101550Z 20004KT 9999 FEW020 10/06 Q0984=
202402101620 METAR EGKK 101620Z 18005KT 150V230 9999 FEW018 10/07 Q0984=
202402101650 METAR EGKK 101650Z 16003KT 9999 FEW013 10/08 Q0984=
202402101720 METAR EGKK 101720Z 15003KT 120V190 CAVOK 10/08 Q0984=
202402101750 METAR EGKK 101750Z 16003KT CAVOK 09/08 Q0984=
202402101820 METAR EGKK 101820Z 15003KT CAVOK 09/08 Q0984=
202402101850 METAR EGKK 101850Z 15003KT CAVOK 09/07 Q0985=
202402101920 METAR EGKK 101920Z 15003KT CAVOK 09/08 Q0985=
202402101950 METAR EGKK 101950Z 14003KT 9999 FEW006 09/08 Q0985=
202402102020 METAR EGKK 102020Z 13004KT 9999 FEW007 08/08 Q0985=
202402102050 METAR EGKK 102050Z 14004KT CAVOK 08/07 Q0985=
202402102120 METAR EGKK 102120Z 15006KT 9999 FEW008 08/07 Q0985=
202402102150 METAR EGKK 102150Z 15004KT 9999 FEW008 08/07 Q0985=
202402102220 METAR EGKK 102220Z 15003KT 110V200 9999 FEW039 BKN045 08/07 Q0985=
202402102250 METAR EGKK 102250Z 15003KT 120V190 9999 BKN046 08/07 Q0984=
202402102320 METAR EGKK 102320Z 13004KT 090V180 9999 BKN046 08/06 Q0984=
202402102350 METAR EGKK 102350Z 14004KT 110V180 9999 BKN046 08/06 Q0985=
202402110020 METAR EGKK 110020Z 08004KT 050V120 9999 BKN047 08/06 Q0985=
202402110050 METAR EGKK 110050Z 06004KT 9999 BKN018 07/06 Q0985=
202402110120 METAR EGKK 110120Z 07004KT 9999 SCT017 BKN044 07/06 Q0985=
202402110150 METAR EGKK 110150Z 07004KT 9999 BKN013 07/06 Q0985=
202402110220 METAR EGKK 110220Z 07005KT 9999 BKN013 07/06 Q0985=
202402110250 METAR EGKK 110250Z 07005KT 9999 -RA BKN011 07/07 Q0985=
202402110320 METAR EGKK 110320Z 07004KT 9999 BKN012 07/07 Q0985=
202402110350 METAR EGKK 110350Z 09004KT 8000 -RA SCT009 BKN036 07/07 Q0985=
202402110420 METAR EGKK 110420Z 09004KT 9999 5000E -RA BR FEW027 BKN043 07/07 Q0985=
202402110450 METAR EGKK 110450Z 08005KT 5000 BR FEW005 SCT039 BKN049 07/07 Q0985=
202402110520 METAR EGKK 110520Z 06005KT 5000 BR BKN004 07/06 Q0985=
202402110550 METAR EGKK 110550Z 08003KT 4400 -RADZ BKN003 07/07 Q0985=
202402110620 METAR EGKK 110620Z 08004KT 7000 SCT004 BKN011 07/07 Q0986=
202402110650 METAR EGKK 110650Z 03005KT 010V080 6000 SCT003 BKN010 06/06 Q0986=
202402110720 METAR EGKK 110720Z 06005KT 1100 0700E R08R/P1500N PRFG SCT002 BKN042 07/06 Q0986=
202402110750 METAR EGKK 110750Z VRB02KT 5000 1000S R08R/P1500N BR BKN002 07/07 Q0987=
202402110820 METAR EGKK 110820Z 03004KT 330V060 9999 SCT002 BKN030 07/07 Q0987=
202402110850 METAR EGKK 110850Z VRB04KT 9999 -RA SCT004 SCT007 BKN045 07/07 Q0988=
202402110920 METAR EGKK 110920Z VRB06KT 9999 FEW004 SCT031 08/07 Q0988=
202402110950 METAR EGKK 110950Z 33006KT 300V010 9999 BKN006 08/08 Q0989=
202402111020 METAR EGKK 111020Z 33007KT 300V360 9999 BKN005 08/08 Q0989=
202402111050 METAR EGKK 111050Z VRB06KT 9999 SCT006 09/08 Q0990=
202402111120 METAR EGKK 111120Z 30008KT 9999 SCT043 09/08 Q0990=
202402111150 METAR EGKK 111150Z 31008KT 9999 FEW009 SCT049 09/07 Q0991=
202402111220 METAR EGKK 111220Z 31006KT 270V340 9999 FEW012 10/07 Q0991=
202402111250 METAR EGKK 111250Z 30008KT 9999 FEW017 10/07 Q0991=
202402111320 METAR EGKK 111320Z 29009KT 9999 FEW028 11/06 Q0992=
202402111350 METAR EGKK 111350Z 28008KT 9999 SCT037 10/06 Q0992=
202402111420 METAR EGKK 111420Z 28009KT 9999 FEW022 SCT043 10/06 Q0992=
202402111450 METAR EGKK 111450Z 28009KT 9999 FEW028 11/06 Q0992=
202402111520 METAR EGKK 111520Z 28011KT 9999 FEW025 11/05 Q0993=
202402111550 METAR EGKK 111550Z 27010KT 9999 FEW027 SCT030 11/06 Q0993=
202402111620 METAR EGKK 111620Z 28010KT 9999 VCSH FEW026 SCT030 10/05 Q0994=
202402111650 METAR EGKK 111650Z 27008KT 9999 FEW029 SCT037 10/05 Q0994=
202402111720 METAR EGKK 111720Z 29007KT 9999 SCT024 10/05 Q0995=
202402111750 METAR EGKK 111750Z 26009KT 9999 SCT029 09/05 Q0995=
202402111820 METAR EGKK 111820Z 27009KT 9999 FEW020 SCT029 09/05 Q0996=
202402111850 METAR EGKK 111850Z 27009KT 9999 -SHRA FEW015 SCT027 08/05 Q0996=
202402111920 METAR EGKK 111920Z 24006KT 9999 FEW045 08/05 Q0996=
202402111950 METAR EGKK 111950Z 24006KT CAVOK 08/05 Q0996=
202402112020 METAR EGKK 112020Z 24006KT 9999 FEW048 07/05 Q0997=
202402112050 METAR EGKK 112050Z 23006KT 9999 FEW048 07/04 Q0997=
202402112120 METAR EGKK 112120Z 24006KT CAVOK 06/04 Q0997=
202402112150 METAR EGKK 112150Z 23006KT CAVOK 06/04 Q0998=
202402112220 METAR EGKK 112220Z 23006KT CAVOK 05/04 Q0998=
202402112250 METAR EGKK 112250Z 22005KT CAVOK 05/04 Q0998=
202402112320 METAR EGKK 112320Z 22005KT CAVOK 05/03 Q0998=
202402112350 METAR EGKK 112350Z 25004KT CAVOK 03/02 Q0998=
202402120020 METAR EGKK 120020Z 25004KT CAVOK 03/02 Q0999=
202402120050 METAR EGKK 120050Z VRB02KT CAVOK 04/03 Q0999=
202402120120 METAR EGKK 120120Z VRB01KT CAVOK 04/03 Q0999=
202402120150 METAR EGKK 120150Z VRB02KT CAVOK 04/03 Q0999=
202402120220 METAR EGKK 120220Z 24003KT CAVOK 04/03 Q1000=
202402120250 METAR EGKK 120250Z VRB01KT CAVOK 03/02 Q1000=
202402120320 METAR EGKK 120320Z 21003KT CAVOK 03/02 Q1000=
202402120350 METAR EGKK 120350Z 21004KT CAVOK 03/03 Q1000=
202402120420 METAR EGKK 120420Z 21005KT CAVOK 03/02 Q1000=
202402120450 METAR EGKK 120450Z 24002KT CAVOK 02/01 Q1000=
202402120520 METAR EGKK 120520Z 25002KT CAVOK 01/01 Q1000=
202402120550 METAR EGKK 120550Z VRB02KT CAVOK 01/01 Q1001=
202402120620 METAR EGKK 120620Z 22001KT CAVOK 02/01 Q1001=
202402120650 METAR EGKK 120650Z 21004KT 9999 SCT045 03/02 Q1001=
202402120720 METAR EGKK 120720Z 22003KT 9999 FEW038 BKN045 03/03 Q1002=
202402120750 METAR EGKK 120750Z 22005KT 9999 FEW045 04/03 Q1002=
202402120820 METAR EGKK 120820Z 22005KT CAVOK 04/03 Q1003=
202402120850 METAR EGKK 120850Z 22004KT CAVOK 05/03 Q1003=
202402120920 METAR EGKK 120920Z VRB02KT CAVOK 06/04 Q1004=
202402120950 METAR EGKK 120950Z 24005KT CAVOK 07/03 Q1004=
202402121020 METAR EGKK 121020Z 25008KT CAVOK 07/04 Q1005=
202402121050 METAR EGKK 121050Z 29009KT 260V320 CAVOK 08/03 Q1005=
202402121120 METAR EGKK 121120Z 30009KT 9999 FEW024 08/03 Q1006=
202402121150 METAR EGKK 121150Z 29009KT 9999 FEW029 09/02 Q1006=
202402121220 METAR EGKK 121220Z 30010KT CAVOK 09/01 Q1006=
202402121250 METAR EGKK 121250Z 30009KT 9999 FEW036 09/01 Q1006=
202402121320 METAR EGKK 121320Z 27011KT 9999 FEW040 10/00 Q1007=
202402121350 METAR EGKK 121350Z 29010KT 9999 FEW040 10/M00 Q1007=
202402121420 METAR EGKK 121420Z 28011KT 9999 FEW040 10/M00 Q1008=
202402121450 METAR EGKK 121450Z 27010KT 9999 FEW042 10/00 Q1008=
202402121520 METAR EGKK 121520Z 25010KT 9999 FEW042 09/00 Q1008=
202402121550 METAR EGKK 121550Z 26008KT 9999 FEW042 09/00 Q1009=
202402121620 METAR EGKK 121620Z 27008KT 9999 FEW042 09/M01 Q1009=
202402121650 METAR EGKK 121650Z 25008KT CAVOK 07/M00 Q1010=
202402121720 METAR EGKK 121720Z 25005KT CAVOK 06/M01 Q1010=
202402121750 METAR EGKK 121750Z 23005KT CAVOK 06/M01 Q1011=
202402121820 METAR EGKK 121820Z 22005KT CAVOK 06/M00 Q1011=
202402121850 METAR EGKK 121850Z 21004KT CAVOK 06/M00 Q1011=
202402121920 METAR EGKK 121920Z 20004KT CAVOK 06/M00 Q1011=
202402121950 METAR EGKK 121950Z 19004KT CAVOK 06/00 Q1011=
202402122020 METAR EGKK 122020Z 23003KT 210V270 CAVOK 05/01 Q1012=
202402122050 METAR EGKK 122050Z 22003KT CAVOK 05/02 Q1012=
202402122120 METAR EGKK 122120Z 21003KT CAVOK 05/02 Q1012=
202402122150 METAR EGKK 122150Z 20005KT CAVOK 05/03 Q1013=
202402122220 METAR EGKK 122220Z 21006KT CAVOK 06/03 Q1013=
202402122250 METAR EGKK 122250Z 22005KT CAVOK 05/03 Q1013=
202402122320 METAR EGKK 122320Z 21003KT CAVOK 05/03 Q1013=
202402122350 METAR EGKK 122350Z 20004KT CAVOK 05/03 Q1013=
202402130020 METAR EGKK 130020Z 22004KT CAVOK 05/03 Q1013=
202402130050 METAR EGKK 130050Z 21003KT CAVOK 05/03 Q1013=
202402130120 METAR EGKK 130120Z 21005KT CAVOK 05/03 Q1013=
202402130150 METAR EGKK 130150Z 21004KT CAVOK 05/03 Q1013=
202402130220 METAR EGKK 130220Z 20005KT CAVOK 05/03 Q1013=
202402130250 METAR EGKK 130250Z 23003KT CAVOK 05/03 Q1013=
202402130320 METAR EGKK 130320Z 22004KT CAVOK 05/03 Q1013=
202402130350 METAR EGKK 130350Z VRB02KT 9999 FEW044 03/02 Q1013=
202402130420 METAR EGKK 130420Z 20006KT 9999 BKN041 06/03 Q1013=
202402130450 METAR EGKK 130450Z 21005KT 180V240 9999 -RA FEW025 BKN035 06/03 Q1013=
202402130520 METAR EGKK 130520Z 20004KT 9999 FEW025 BKN040 07/04 Q1013=
202402130550 METAR EGKK 130550Z 20005KT 9999 SCT043 06/04 Q1013=
202402130620 METAR EGKK 130620Z 21004KT 9999 SCT040 07/04 Q1013=
202402130650 METAR EGKK 130650Z 22004KT 9999 -RA FEW018 SCT030 07/05 Q1013=
202402130720 METAR EGKK 130720Z VRB02KT 9999 FEW037 07/05 Q1014=
202402130750 METAR EGKK 130750Z 19004KT 9999 FEW008 07/05 Q1014=
202402130820 METAR EGKK 130820Z 20006KT 9999 FEW033 07/06 Q1014=
202402130850 METAR EGKK 130850Z 19004KT 9999 -RA SCT042 08/06 Q1014=
202402130920 METAR EGKK 130920Z 19003KT 160V230 9999 -RA FEW038 SCT045 08/06 Q1014=
202402130950 METAR EGKK 130950Z 18004KT 140V220 9999 -RA SCT039 08/06 Q1014=
202402131020 METAR EGKK 131020Z 19008KT 9999 -RA BKN048 09/06 Q1014=
202402131050 METAR EGKK 131050Z 19006KT 140V220 9999 -RA BKN035 09/07 Q1013=
202402131120 METAR EGKK 131120Z 19009KT 160V220 9999 -RA SCT013 BKN035 09/07 Q1013=
202402131150 METAR EGKK 131150Z 18009KT 9999 -RA SCT011 BKN031 09/08 Q1013=
202402131220 METAR EGKK 131220Z 18010KT 150V230 5000 -RADZ BKN011 BKN031 09/07 Q1013=
202402131250 METAR EGKK 131250Z 19011KT 160V230 9999 -RA BKN013 09/08 Q1012=
202402131320 METAR EGKK 131320Z 20014KT 9999 -RA BKN011 09/07 Q1012=
202402131350 METAR EGKK 131350Z 19010KT 6000 -RA SCT008 BKN012 09/08 Q1011=
202402131420 METAR EGKK 131420Z 18008KT 140V220 6000 -RADZ BKN006 BKN014 09/08 Q1011=
202402131450 METAR EGKK 131450Z 18009KT 130V210 3800 -RADZ BKN006 09/08 Q1011=
202402131520 METAR EGKK 131520Z 18010KT 140V200 4000 -RADZ BKN006 09/08 Q1010=
202402131550 METAR EGKK 131550Z 18010KT 150V220 4000 -RADZ BKN006 09/08 Q1010=
202402131620 METAR EGKK 131620Z 19012G22KT 3000 -DZRA BKN005 09/09 Q1010=
202402131650 METAR EGKK 131650Z 20009KT 3500 -RADZ FEW004 BKN005 09/09 Q1010=
202402131720 METAR EGKK 131720Z 20009KT 4000 -RADZ BKN006 10/09 Q1009=
202402131750 METAR EGKK 131750Z 20010KT 170V230 4000 -RADZ BKN005 10/10 Q1009=
202402131820 METAR EGKK 131820Z 21009KT 170V230 6000 -RADZ BKN004 11/10 Q1009=
202402131850 METAR EGKK 131850Z 21011KT 7000 -DZRA BKN004 11/11 Q1010=
202402131920 METAR EGKK 131920Z 21009KT 5000 -RA BKN006 11/11 Q1010=
202402131950 METAR EGKK 131950Z 22011KT 9000 BKN006 11/11 Q1010=
202402132020 METAR EGKK 132020Z 22011KT 8000 -RADZ BKN006 11/11 Q1010=
202402132050 METAR EGKK 132050Z 22010KT 7000 -RADZ BKN006 11/11 Q1011=
202402132120 METAR EGKK 132120Z 23011KT 9999 BKN007 11/10 Q1011=
202402132150 METAR EGKK 132150Z 22009KT 9999 BKN010 11/10 Q1011=
202402132220 METAR EGKK 132220Z 22010KT 9999 BKN009 11/10 Q1011=
202402132250 METAR EGKK 132250Z 22011KT 9999 SCT009 BKN012 11/10 Q1011=
202402132320 METAR EGKK 132320Z 22010KT 9999 BKN010 11/10 Q1012=
202402132350 METAR EGKK 132350Z 22008KT 9999 BKN009 11/10 Q1012=
202402140020 METAR EGKK 140020Z 22008KT 5000 -RADZ BKN008 11/11 Q1012=
202402140050 METAR EGKK 140050Z 22009KT 7000 -RADZ BKN006 11/11 Q1012=
202402140120 METAR EGKK 140120Z 22010KT 180V250 9999 BKN006 11/11 Q1012=
202402140150 METAR EGKK 140150Z 22010KT 5000 -RADZ BKN004 11/11 Q1012=
202402140220 METAR EGKK 140220Z 22009KT 4400 -DZRA BKN005 11/11 Q1012=
202402140250 METAR EGKK 140250Z 22010KT 4000 -DZ BKN004 11/11 Q1012=
202402140320 METAR EGKK 140320Z 22009KT 5000 -DZ BKN005 11/11 Q1012=
202402140350 METAR COR EGKK 140350Z 21008KT 180V240 5000 1500N -DZ BKN004 11/11 Q1012=
202402140420 METAR EGKK 140420Z 21010KT 5000 -DZRA BKN005 11/11 Q1012=
202402140450 METAR EGKK 140450Z 21008KT 5000 -DZ BKN004 11/11 Q1012=
202402140520 METAR EGKK 140520Z 21010KT 4000 -RADZ BKN004 11/11 Q1012=
202402140550 METAR EGKK 140550Z 21008KT 4000 -DZRA BKN004 11/11 Q1012=
202402140620 METAR EGKK 140620Z 21009KT 5000 -RADZ BKN004 11/11 Q1012=
202402140650 METAR EGKK 140650Z 22010KT 8000 -RADZ BKN006 11/11 Q1012=
202402140720 METAR EGKK 140720Z 22011KT 4400 BR BKN005 11/11 Q1012=
202402140750 METAR EGKK 140750Z 22010KT 4100 BR BKN004 11/11 Q1012=
202402140820 METAR EGKK 140820Z 21010KT 5000 BR BKN005 11/11 Q1013=
202402140850 METAR EGKK 140850Z 21008KT 170V240 3000 -RADZ SCT005 BKN009 12/11 Q1013=
202402140920 METAR EGKK 140920Z 21009KT 8000 VCSH BKN006 12/11 Q1013=
202402140950 METAR EGKK 140950Z 21010KT 3000 -RADZ BKN005 12/11 Q1013=
202402141020 METAR EGKK 141020Z 22010KT 3000 -RADZ BKN004 12/11 Q1013=
202402141050 METAR EGKK 141050Z 22010KT 9000 -RA BKN005 12/11 Q1013=
202402141120 METAR EGKK 141120Z 22010KT 9999 -RA BKN006 12/12 Q1014=
202402141150 METAR EGKK 141150Z 22010KT 9999 -RA OVC007 12/12 Q1014=
202402141220 METAR EGKK 141220Z 22011KT 9999 BKN006 12/12 Q1014=
202402141250 METAR EGKK 141250Z 22010KT 6000 OVC005 12/12 Q1014=
202402141320 METAR EGKK 141320Z 22009KT 9999 OVC005 12/12 Q1014=
202402141350 METAR EGKK 141350Z 22009KT 190V250 5000 BR OVC005 12/12 Q1014=
202402141420 METAR EGKK 141420Z 22011KT 9000 -RA BKN007 12/12 Q1013=
202402141450 METAR EGKK 141450Z 22011KT 9999 -RA BKN007 12/12 Q1013=
202402141520 METAR EGKK 141520Z 22011KT 9999 BKN006 12/11 Q1014=
202402141550 METAR EGKK 141550Z 22011KT 9000 BKN006 12/11 Q1014=
202402141620 METAR EGKK 141620Z 22012KT 9000 -RA BKN006 12/11 Q1014=
202402141650 METAR EGKK 141650Z 22012KT 9999 BKN006 12/11 Q1014=
202402141720 METAR EGKK 141720Z 22012KT 3900 DZ BKN006 12/11 Q1014 REDZ=
202402141750 METAR EGKK 141750Z 22010KT 9000 BKN006 12/11 Q1014=
202402141820 METAR EGKK 141820Z 22010KT 9000 BKN006 12/11 Q1014=
202402141850 METAR EGKK 141850Z 21009KT 9999 BKN007 12/11 Q1015=
202402141920 METAR EGKK 141920Z 21008KT 9999 SCT007 BKN015 12/11 Q1015=
202402141950 METAR EGKK 141950Z 21006KT 9999 BKN006 SCT018 12/11 Q1014=
202402142020 METAR EGKK 142020Z 19004KT 9999 FEW008 BKN016 12/11 Q1014=
202402142050 METAR EGKK 142050Z 19005KT 9999 BKN012 12/11 Q1014=
202402142120 METAR EGKK 142120Z 18005KT 150V210 6000 -DZ BKN006 12/11 Q1014=
202402142150 METAR EGKK 142150Z 18004KT 150V210 3000 -RADZ BKN004 12/11 Q1014=
202402142220 METAR EGKK 142220Z 19007KT 5000 -RADZ BKN004 12/12 Q1013=
202402142250 METAR EGKK 142250Z 20008KT 9000 -RA BKN004 12/12 Q1013=
202402142320 METAR EGKK 142320Z 20008KT 160V220 9999 4000NE -RA BKN003 12/12 Q1013=
202402142350 METAR EGKK 142350Z 20009KT 9999 -RADZ BKN005 12/12 Q1013=
202402150020 METAR EGKK 150020Z 20008KT 9000 -DZ BKN004 12/12 Q1013=
202402150050 METAR EGKK 150050Z 21009KT 9999 -DZ BKN003 12/12 Q1013=
202402150120 METAR EGKK 150120Z 21007KT 160V240 9000 3000N -DZ BKN003 12/12 Q1013=
202402150150 METAR EGKK 150150Z 21005KT 180V240 8000 2000N -RADZ BKN003 12/12 Q1012=
202402150220 METAR EGKK 150220Z 19004KT 4000 -RADZ SCT004 BKN006 12/12 Q1012 REDZ=
202402150250 METAR EGKK 150250Z 18005KT 5000 -RADZ BKN005 12/12 Q1012=
202402150320 METAR EGKK 150320Z 20006KT 170V240 3900 -DZ BR BKN003 12/12 Q1012=
202402150350 METAR EGKK 150350Z 20006KT 170V230 2700 -DZ BR BKN002 12/12 Q1012=
202402150420 METAR EGKK 150420Z 20007KT 3900 -DZ BR BKN002 12/12 Q1011=
202402150450 METAR EGKK 150450Z 19007KT 160V230 9000 BKN004 12/12 Q1011=
202402150520 METAR EGKK 150520Z 20008KT 9999 SCT005 BKN013 12/12 Q1011=
202402150550 METAR EGKK 150550Z 20006KT 9999 FEW007 BKN015 12/12 Q1011=
202402150620 METAR EGKK 150620Z 17004KT 140V210 9999 BKN016 12/11 Q1011=
202402150650 METAR EGKK 150650Z 18004KT 140V220 9999 SCT017 12/11 Q1011=
202402150720 METAR EGKK 150720Z 19006KT 9999 FEW025 12/10 Q1011=
202402150750 METAR EGKK 150750Z 17004KT 9999 SCT029 12/11 Q1011=
202402150820 METAR EGKK 150820Z 15003KT 120V180 9999 FEW038 12/11 Q1011=
202402150850 METAR EGKK 150850Z 15003KT CAVOK 12/10 Q1011=
202402150920 METAR EGKK 150920Z 16005KT CAVOK 12/10 Q1010=
202402150950 METAR EGKK 150950Z 17004KT 130V200 CAVOK 13/11 Q1010=
202402151020 METAR EGKK 151020Z 17004KT 130V200 CAVOK 13/11 Q1010=
202402151050 METAR EGKK 151050Z 16006KT CAVOK 14/11 Q1009=
202402151120 METAR EGKK 151120Z 15006KT 110V180 CAVOK 14/11 Q1009=
202402151150 METAR EGKK 151150Z 14006KT 110V170 9999 FEW037 15/11 Q1009=
202402151220 METAR EGKK 151220Z 15008KT CAVOK 15/11 Q1008=
202402151250 METAR EGKK 151250Z 18008KT 140V220 CAVOK 16/10 Q1008=
202402151320 METAR EGKK 151320Z 19009KT CAVOK 16/09 Q1007=
202402151350 METAR EGKK 151350Z 19008KT 160V220 CAVOK 16/09 Q1007=
202402151420 METAR EGKK 151420Z 18006KT 150V210 CAVOK 16/09 Q1007=
202402151450 METAR EGKK 151450Z 20012KT CAVOK 15/09 Q1006=
202402151520 METAR EGKK 151520Z 19012KT CAVOK 15/09 Q1006=
202402151550 METAR EGKK 151550Z 21007KT CAVOK 15/09 Q1007=
202402151620 METAR EGKK 151620Z 19008KT CAVOK 14/09 Q1006=
202402151650 METAR EGKK 151650Z 18008KT CAVOK 13/09 Q1006=
202402151720 METAR EGKK 151720Z 20004KT 150V240 CAVOK 13/09 Q1006=
202402151750 METAR EGKK 151750Z 18003KT 140V200 CAVOK 12/09 Q1006=
202402151820 METAR EGKK 151820Z 19004KT CAVOK 12/09 Q1006=
202402151850 METAR EGKK 151850Z 20005KT 9999 FEW024 12/09 Q1006=
202402151920 METAR EGKK 151920Z 21006KT CAVOK 12/09 Q1006=
202402151950 METAR EGKK 151950Z 19003KT CAVOK 12/09 Q1006=
202402152020 METAR EGKK 152020Z 18002KT CAVOK 12/09 Q1006=
202402152050 METAR EGKK 152050Z 14004KT CAVOK 12/10 Q1005=
202402152120 METAR EGKK 152120Z 19004KT 150V220 CAVOK 12/10 Q1006=
202402152150 METAR EGKK 152150Z 19003KT CAVOK 12/10 Q1006=
202402152220 METAR EGKK 152220Z VRB01KT CAVOK 11/09 Q1006=
202402152250 METAR EGKK 152250Z VRB02KT CAVOK 10/09 Q1006=
202402152320 METAR EGKK 152320Z 17002KT CAVOK 11/09 Q1006=
202402152350 METAR EGKK 152350Z 18003KT 9999 SCT024 10/09 Q1006=
202402160020 METAR EGKK 160020Z VRB02KT 9999 SCT022 11/10 Q1006=
202402160050 METAR EGKK 160050Z VRB01KT 9999 BKN022 11/10 Q1006=
202402160120 METAR EGKK 160120Z 33001KT 9999 BKN019 11/10 Q1006=
202402160150 METAR EGKK 160150Z 23002KT 9999 BKN015 11/10 Q1006=
202402160220 METAR EGKK 160220Z 24003KT 9999 BKN012 11/10 Q1007=
202402160250 METAR EGKK 160250Z 24004KT 9999 BKN011 12/10 Q1007=
202402160320 METAR EGKK 160320Z 27005KT 9999 SCT011 BKN022 11/10 Q1007=
202402160350 METAR EGKK 160350Z 29006KT 9999 SCT014 BKN022 12/10 Q1008=
202402160420 METAR EGKK 160420Z 29003KT 9999 -RA FEW025 SCT043 11/11 Q1008=
202402160450 METAR EGKK 160450Z 29006KT 9999 -RA FEW011 SCT016 11/11 Q1008=
202402160520 METAR EGKK 160520Z 29006KT 9999 -RA FEW010 SCT027 11/10 Q1009=
202402160550 METAR EGKK 160550Z 28007KT 9999 -RA FEW015 11/10 Q1010=
202402160620 METAR EGKK 160620Z 27006KT 9999 FEW015 10/09 Q1010=
202402160650 METAR EGKK 160650Z 24003KT 210V270 CAVOK 10/09 Q1011=
202402160720 METAR EGKK 160720Z 25006KT CAVOK 10/09 Q1011=
202402160750 METAR EGKK 160750Z 26012KT CAVOK 10/09 Q1012=
202402160820 METAR EGKK 160820Z 26011KT CAVOK 09/08 Q1013=
202402160850 METAR EGKK 160850Z 27008KT 9999 FEW011 10/08 Q1014=
202402160920 METAR EGKK 160920Z 25007KT 9999 FEW010 10/08 Q1014=
202402160950 METAR EGKK 160950Z 28008KT 9999 FEW013 11/08 Q1015=
202402161020 METAR EGKK 161020Z 28010KT 9999 FEW015 11/08 Q1015=
202402161050 METAR EGKK 161050Z 28011KT 9999 SCT018 11/08 Q1016=
202402161120 METAR EGKK 161120Z 27009KT 9999 SCT017 11/08 Q1016=
202402161150 METAR EGKK 161150Z 27012KT 9999 SCT017 12/08 Q1016=
202402161220 METAR EGKK 161220Z 26011KT 9999 FEW021 13/08 Q1017=
202402161250 METAR EGKK 161250Z 26010KT 9999 SCT025 12/08 Q1017=
202402161320 METAR EGKK 161320Z 25010KT 210V270 9999 SCT024 SCT038 12/08 Q1017=
202402161350 METAR EGKK 161350Z 26011KT 9999 FEW027 BKN033 12/07 Q1017=
202402161420 METAR EGKK 161420Z 26009KT 9999 FEW025 BKN030 12/07 Q1018=
202402161450 METAR EGKK 161450Z 27012KT 9999 FEW027 BKN039 12/06 Q1018=
202402161520 METAR EGKK 161520Z 27011KT 9999 BKN032 12/06 Q1019=
202402161550 METAR EGKK 161550Z 26011KT 9999 FEW015 BKN033 11/06 Q1019=
202402161620 METAR EGKK 161620Z 27011KT 9999 FEW026 BKN031 11/06 Q1020=
202402161650 METAR EGKK 161650Z 25010KT 9999 FEW026 BKN031 11/06 Q1020=
202402161720 METAR EGKK 161720Z 26009KT 9999 BKN029 11/06 Q1021=
202402161750 METAR EGKK 161750Z 26009KT 9999 BKN031 11/06 Q1021=
202402161820 METAR EGKK 161820Z 25007KT 9999 BKN030 11/06 Q1022=
202402161850 METAR EGKK 161850Z 26008KT 9999 BKN037 11/05 Q1022=
202402161920 METAR EGKK 161920Z 25007KT 9999 BKN035 11/05 Q1023=
202402161950 METAR EGKK 161950Z 25007KT 9999 BKN035 10/06 Q1023=
202402162020 METAR EGKK 162020Z 23006KT 9999 BKN036 11/06 Q1023=
202402162050 METAR EGKK 162050Z 24005KT 9999 BKN036 10/06 Q1024=
202402162120 METAR EGKK 162120Z 24007KT 9999 BKN036 11/06 Q1024=
202402162150 METAR EGKK 162150Z 23005KT 9999 BKN036 10/06 Q1024=
202402162220 METAR EGKK 162220Z 23005KT 190V260 9999 BKN036 10/06 Q1025=
202402162250 METAR EGKK 162250Z 22005KT 9999 OVC034 10/07 Q1025=
202402162320 METAR EGKK 162320Z 22005KT 9999 OVC032 10/07 Q1025=
202402162350 METAR EGKK 162350Z 23004KT 9999 OVC030 10/07 Q1026=
202402170020 METAR EGKK 170020Z 23004KT 9999 OVC032 10/06 Q1026=
202402170050 METAR EGKK 170050Z 23005KT 9999 OVC038 10/06 Q1027=
202402170120 METAR EGKK 170120Z 22005KT 9999 OVC039 10/06 Q1027=
202402170150 METAR EGKK 170150Z 23003KT 9999 OVC037 10/06 Q1027=
202402170220 METAR EGKK 170220Z 20003KT 9999 SCT035 09/06 Q1027=
202402170250 METAR EGKK 170250Z 20004KT CAVOK 08/06 Q1027=
202402170320 METAR EGKK 170320Z 18004KT CAVOK 08/05 Q1027=
202402170350 METAR EGKK 170350Z 15001KT CAVOK 07/05 Q1027=
202402170420 METAR EGKK 170420Z VRB01KT 9999 FEW039 06/05 Q1028=
202402170450 METAR EGKK 170450Z 26002KT 9999 SCT038 SCT049 07/06 Q1028=
202402170520 METAR EGKK 170520Z 18003KT 140V210 9999 FEW003 SCT027 07/07 Q1028=
202402170550 METAR EGKK 170550Z VRB02KT 7000 -RA FEW003 SCT006 BKN011 08/07 Q1028=
202402170620 METAR EGKK 170620Z 14003KT 6000 -RA BKN004 08/07 Q1028=
202402170650 METAR EGKK 170650Z 17003KT 9000 SCT004 BKN018 08/08 Q1028=
202402170720 METAR EGKK 170720Z 15004KT 4000 -RA BKN003 09/08 Q1029=
202402170750 METAR EGKK 170750Z VRB02KT 3500 -RADZ BKN003 09/08 Q1029=
202402170820 METAR EGKK 170820Z 17006KT 140V200 3700 -DZRA BKN003 09/09 Q1029=
202402170850 METAR EGKK 170850Z 19004KT 160V220 3000 -DZRA BKN003 09/09 Q1029=
202402170920 METAR EGKK 170920Z 18003KT 130V240 3500 -DZ BKN003 10/10 Q1030=
202402170950 METAR EGKK 170950Z 19004KT 150V220 4000 BR OVC003 11/10 Q1030=
202402171020 METAR EGKK 171020Z 21004KT 9000 OVC003 11/11 Q1030=
202402171050 METAR EGKK 171050Z 21006KT 180V240 9999 BKN004 12/11 Q1030=
202402171120 METAR EGKK 171120Z 22008KT 9999 BKN005 11/11 Q1030=
202402171150 METAR EGKK 171150Z 22010KT 9999 BKN007 12/11 Q1031=
202402171220 METAR EGKK 171220Z 22009KT 9999 BKN009 12/11 Q1030=
202402171250 METAR EGKK 171250Z 22010KT 9999 BKN013 12/10 Q1030=
202402171320 METAR EGKK 171320Z 21010KT 9999 FEW011 BKN017 12/10 Q1030=
202402171350 METAR EGKK 171350Z 21009KT 9999 BKN012 12/10 Q1030=
202402171420 METAR EGKK 171420Z 22009KT 180V250 9999 BKN011 12/10 Q1030=
202402171450 METAR EGKK 171450Z 21012KT 9999 BKN009 11/10 Q1030=
202402171520 METAR EGKK 171520Z 21008KT 9000 BKN008 11/10 Q1030=
202402171550 METAR EGKK 171550Z 21009KT 9999 BKN007 11/10 Q1030=
202402171620 METAR EGKK 171620Z 20008KT 170V230 6000 BKN007 11/10 Q1030=
202402171650 METAR EGKK 171650Z 21008KT 8000 BKN006 10/10 Q1030=
202402171720 METAR EGKK 171720Z 19009KT 9000 BKN007 10/10 Q1030=
202402171750 METAR EGKK 171750Z 19007KT 9999 SCT009 SCT012 10/09 Q1030=
202402171820 METAR EGKK 171820Z 20007KT 160V230 9999 FEW008 BKN011 11/09 Q1030=
202402171850 METAR EGKK 171850Z 20009KT 170V230 9999 BKN011 11/09 Q1030=
202402171920 METAR EGKK 171920Z 19011KT 9999 BKN010 11/09 Q1029=
202402171950 METAR EGKK 171950Z 20009KT 9999 BKN015 11/09 Q1029=
202402172020 METAR EGKK 172020Z 21009KT 9999 -RA BKN015 11/09 Q1029=
202402172050 METAR EGKK 172050Z 20009KT 9999 -RA BKN018 11/09 Q1029=
202402172120 METAR EGKK 172120Z 20009KT 9999 -RA BKN018 11/09 Q1029=
202402172150 METAR EGKK 172150Z 20009KT 9999 -RA BKN015 11/10 Q1029=
202402172220 METAR EGKK 172220Z 20009KT 8000 -RA FEW008 SCT010 BKN014 11/10 Q1029=
202402172250 METAR EGKK 172250Z 20010KT 8000 -RA SCT008 BKN010 11/10 Q1028=
202402172320 METAR EGKK 172320Z 20010KT 8000 -RA SCT007 BKN010 11/10 Q1028=
202402172350 METAR EGKK 172350Z 21010KT 9000 -RA BKN007 11/10 Q1028=
202402180020 METAR EGKK 180020Z 21011KT 8000 -RA BKN007 11/10 Q1027=
202402180050 METAR EGKK 180050Z 21010KT 8000 -RA FEW006 BKN008 11/10 Q1027=
202402180120 METAR EGKK 180120Z 21010KT 190V250 9000 -RA BKN007 11/10 Q1027=
202402180150 METAR EGKK 180150Z 21010KT 9999 -RA BKN007 11/10 Q1026=
202402180220 METAR EGKK 180220Z 21010KT 8000 -RA BKN007 11/10 Q1026=
202402180250 METAR EGKK 180250Z 21010KT 6000 -RA BKN006 10/10 Q1026=
202402180320 METAR EGKK 180320Z 21010KT 9999 -RA BKN006 10/10 Q1025=
202402180350 METAR EGKK 180350Z 21010KT 5000 -RA BKN006 10/10 Q1025=
202402180420 METAR EGKK 180420Z 21010KT 9999 -RA BKN006 10/10 Q1024=
202402180450 METAR EGKK 180450Z 21010KT 9000 -RA BKN006 10/10 Q1024=
202402180520 METAR EGKK 180520Z 21009KT 9999 -RA BKN006 10/10 Q1023=
202402180550 METAR EGKK 180550Z 21010KT 180V240 6000 -RA BKN006 10/10 Q1023=
202402180620 METAR EGKK 180620Z 22010KT 6000 -RA SCT006 BKN011 10/10 Q1022=
202402180650 METAR EGKK 180650Z 22010KT 6000 -RA BKN006 10/10 Q1022=
202402180720 METAR EGKK 180720Z 23008KT 9999 -RA BKN006 10/10 Q1022 RERA=
202402180750 METAR EGKK 180750Z 22007KT 9999 -RA FEW007 11/10 Q1022=
202402180820 METAR EGKK 180820Z 23008KT 9999 -RA FEW013 11/10 Q1022=
202402180850 METAR EGKK 180850Z 25010KT 9999 FEW011 SCT032 11/11 Q1023=
202402180920 METAR EGKK 180920Z 24009KT 9999 FEW007 SCT015 11/11 Q1023=
202402180950 METAR EGKK 180950Z 24009KT 9999 FEW009 BKN012 12/11 Q1023=
202402181020 METAR EGKK 181020Z 24008KT 9999 FEW011 BKN018 12/11 Q1023=
202402181050 METAR EGKK 181050Z 25010KT 9999 FEW012 BKN019 13/12 Q1024=
202402181120 METAR EGKK 181120Z 27010KT 9999 BKN014 13/12 Q1024=
202402181150 METAR EGKK 181150Z 27010KT 9999 BKN016 14/12 Q1024=
202402181220 METAR EGKK 181220Z 29009KT 9999 FEW016 SCT025 14/11 Q1024=
202402181250 METAR EGKK 181250Z 29010KT 9999 FEW018 SCT027 14/11 Q1025=
202402181320 METAR EGKK 181320Z 30009KT 9999 VCSH FEW022 SCT035 15/12 Q1025=
202402181350 METAR EGKK 181350Z 29011KT 9999 FEW010 SCT021 14/10 Q1025=
202402181420 METAR EGKK 181420Z 29013KT 9999 FEW045 15/10 Q1025=
202402181450 METAR EGKK 181450Z 28012KT CAVOK 15/09 Q1025=
202402181520 METAR EGKK 181520Z 30012KT 9999 FEW032 15/09 Q1025=
202402181550 METAR EGKK 181550Z 28011KT 9999 FEW034 14/09 Q1025=
202402181620 METAR EGKK 181620Z 29009KT 9999 FEW036 14/10 Q1026=
202402181650 METAR EGKK 181650Z 30011KT CAVOK 14/09 Q1026=
202402181720 METAR EGKK 181720Z 31008KT 9999 FEW029 13/09 Q1026=
202402181750 METAR EGKK 181750Z 28005KT 9999 FEW033 12/10 Q1027=
202402181820 METAR EGKK 181820Z 27008KT 9999 FEW031 12/10 Q1027=
202402181850 METAR EGKK 181850Z 27008KT 9999 FEW033 12/10 Q1028=
202402181920 METAR EGKK 181920Z 27008KT CAVOK 11/10 Q1028=
202402181950 METAR EGKK 181950Z 28006KT CAVOK 11/10 Q1029=
202402182020 METAR EGKK 182020Z 28004KT 9999 FEW041 11/09 Q1029=
202402182050 METAR EGKK 182050Z 26004KT 9999 SCT041 11/10 Q1029=
202402182120 METAR EGKK 182120Z 26005KT 9999 FEW042 10/09 Q1030=
202402182150 METAR EGKK 182150Z 25003KT 9999 SCT038 10/09 Q1030=
202402182220 METAR EGKK 182220Z 25003KT CAVOK 09/08 Q1030=
202402182250 METAR EGKK 182250Z 26003KT CAVOK 09/08 Q1030=
202402182320 METAR EGKK 182320Z 24004KT 9999 FEW030 09/08 Q1031=
202402182350 METAR EGKK 182350Z 25006KT 9999 FEW029 09/08 Q1031=
202402190020 METAR EGKK 190020Z 25006KT CAVOK 08/07 Q1031=
202402190050 METAR EGKK 190050Z 24003KT 200V270 CAVOK 08/07 Q1031=
202402190120 METAR EGKK 190120Z 21005KT CAVOK 08/07 Q1031=
202402190150 METAR EGKK 190150Z 23005KT CAVOK 08/07 Q1030=
202402190220 METAR EGKK 190220Z 24005KT CAVOK 07/07 Q1030=
202402190250 METAR EGKK 190250Z 23004KT CAVOK 07/07 Q1030=
202402190320 METAR EGKK 190320Z 22003KT 180V250 9999 FEW003 07/07 Q1030=
202402190350 METAR EGKK 190350Z 24008KT 0900 FG BKN001 07/07 Q1030=
202402190420 METAR EGKK 190420Z 24007KT 1500 BCFG BR BKN002 07/07 Q1029=
202402190450 METAR EGKK 190450Z 23008KT 9000 BKN004 08/08 Q1029=
202402190520 METAR EGKK 190520Z 23008KT 9999 BKN005 08/08 Q1029=
202402190550 METAR EGKK 190550Z 22005KT 180V260 9999 SCT004 09/08 Q1029=
202402190620 METAR EGKK 190620Z 22004KT 190V290 9999 SCT015 09/08 Q1029=
202402190650 METAR EGKK 190650Z 25004KT 210V290 9999 FEW011 SCT015 09/08 Q1029=
202402190720 METAR EGKK 190720Z 24006KT 210V270 9999 FEW013 09/08 Q1029=
202402190750 METAR EGKK 190750Z 25007KT 9999 FEW012 09/07 Q1029=
202402190820 METAR EGKK 190820Z 23005KT 180V250 9999 FEW019 09/07 Q1029=
202402190850 METAR EGKK 190850Z 24008KT 9999 SCT017 09/07 Q1030=
202402190920 METAR EGKK 190920Z 23008KT 9999 -SHRA SCT013 SCT028 09/08 Q1029=
202402190950 METAR EGKK 190950Z 24007KT 9999 VCSH BKN016 09/08 Q1029=
202402191020 METAR EGKK 191020Z 24009KT 9999 BKN015 10/08 Q1029=
202402191050 METAR EGKK 191050Z 25011KT 9999 BKN016 11/09 Q1029=
202402191120 METAR EGKK 191120Z 26011KT 9999 FEW014 SCT017 11/09 Q1029=
202402191150 METAR EGKK 191150Z 27013KT 9999 SCT016 12/09 Q1029=
202402191220 METAR EGKK 191220Z 28011KT 9999 SCT019 12/09 Q1029=
202402191250 METAR EGKK 191250Z 28011KT 9999 SCT024 12/08 Q1029=
202402191320 METAR EGKK 191320Z 28011KT 9999 FEW022 13/08 Q1028=
202402191350 METAR EGKK 191350Z 29011KT 9999 FEW024 13/07 Q1028=
202402191420 METAR EGKK 191420Z 28012KT 9999 FEW026 13/07 Q1029=
202402191450 METAR EGKK 191450Z 30011KT 9999 FEW030 13/06 Q1029=
202402191520 METAR EGKK 191520Z 29011KT 9999 SCT032 13/06 Q1029=
202402191550 METAR EGKK 191550Z 30012KT 9999 SCT035 13/05 Q1029=
202402191620 METAR EGKK 191620Z 30012KT 9999 FEW032 12/05 Q1029=
202402191650 METAR EGKK 191650Z 29007KT 9999 FEW040 12/05 Q1029=
202402191720 METAR EGKK 191720Z 29008KT CAVOK 11/04 Q1030=
202402191750 METAR EGKK 191750Z 29006KT CAVOK 11/04 Q1030=
202402191820 METAR EGKK 191820Z 25004KT 230V300 CAVOK 10/04 Q1030=
202402191850 METAR EGKK 191850Z 24003KT CAVOK 09/04 Q1030=
202402191920 METAR EGKK 191920Z 26003KT CAVOK 08/03 Q1031=
202402191950 METAR EGKK 191950Z 23004KT CAVOK 08/04 Q1031=
202402192020 METAR EGKK 192020Z 23004KT CAVOK 08/04 Q1030=
202402192050 METAR EGKK 192050Z VRB02KT CAVOK 08/04 Q1031=
202402192120 METAR EGKK 192120Z VRB02KT CAVOK 08/04 Q1031=
202402192150 METAR EGKK 192150Z 22003KT 180V270 CAVOK 07/04 Q1031=
202402192220 METAR EGKK 192220Z 20003KT CAVOK 07/04 Q1031=
202402192250 METAR EGKK 192250Z VRB01KT CAVOK 07/04 Q1031=
202402192320 METAR EGKK 192320Z 18002KT CAVOK 07/04 Q1031=
202402192350 METAR EGKK 192350Z 20002KT CAVOK 06/04 Q1030=
202402200020 METAR EGKK 200020Z 22003KT CAVOK 06/05 Q1031=
202402200050 METAR EGKK 200050Z 22004KT CAVOK 07/05 Q1031=
202402200120 METAR EGKK 200120Z 19003KT 150V210 CAVOK 06/05 Q1030=
202402200150 METAR EGKK 200150Z 21004KT CAVOK 07/06 Q1030=
202402200220 METAR EGKK 200220Z 25004KT CAVOK 07/06 Q1030=
202402200250 METAR EGKK 200250Z 24004KT CAVOK 06/05 Q1030=
202402200320 METAR EGKK 200320Z VRB01KT CAVOK 06/05 Q1030=
202402200350 METAR EGKK 200350Z 24002KT CAVOK 06/05 Q1030=
202402200420 METAR EGKK 200420Z VRB02KT CAVOK 06/05 Q1029=
202402200450 METAR EGKK 200450Z 00000KT CAVOK 05/05 Q1029=
202402200520 METAR EGKK 200520Z 21003KT CAVOK 05/05 Q1029=
202402200550 METAR EGKK 200550Z 22003KT 160V230 CAVOK 06/05 Q1029=
202402200620 METAR EGKK 200620Z 22004KT CAVOK 06/05 Q1029=
202402200650 METAR EGKK 200650Z 21004KT CAVOK 06/05 Q1029=
202402200720 METAR EGKK 200720Z 21005KT CAVOK 06/05 Q1028=
202402200750 METAR EGKK 200750Z 22003KT 170V250 CAVOK 06/05 Q1028=
202402200820 METAR EGKK 200820Z 24008KT 8000 BKN004 07/06 Q1029=
202402200850 METAR EGKK 200850Z 23006KT 9999 SCT006 BKN015 07/06 Q1029=
202402200920 METAR EGKK 200920Z 21006KT 170V240 9999 SCT007 BKN015 08/07 Q1028=
202402200950 METAR EGKK 200950Z 22007KT 9999 BKN007 08/07 Q1028=
202402201020 METAR EGKK 201020Z 22008KT 9999 BKN006 09/08 Q1028=
202402201050 METAR EGKK 201050Z 22008KT 9999 BKN006 09/08 Q1028=
202402201120 METAR EGKK 201120Z 21008KT 9999 BKN007 09/08 Q1027=
202402201150 METAR EGKK 201150Z 21008KT 5000 HZ BKN005 10/09 Q1027=
202402201220 METAR EGKK 201220Z 21012KT 9999 BKN005 10/09 Q1026=
202402201250 METAR EGKK 201250Z 21012KT 9000 FEW004 BKN005 10/09 Q1026=
202402201320 METAR EGKK 201320Z 22011KT 9999 FEW008 BKN011 11/09 Q1025=
202402201350 METAR EGKK 201350Z 23012KT 9999 FEW010 BKN014 11/09 Q1025=
202402201420 METAR EGKK 201420Z 22010KT 9999 FEW010 BKN014 11/09 Q1025=
202402201450 METAR EGKK 201450Z 23008KT 9999 FEW012 BKN014 11/08 Q1025=
202402201520 METAR EGKK 201520Z 23012KT 190V250 9999 BKN017 11/07 Q1024=
202402201550 METAR EGKK 201550Z 22011KT 9999 BKN018 11/07 Q1024=
202402201620 METAR EGKK 201620Z 22011KT 9999 SCT018 11/07 Q1024=
202402201650 METAR EGKK 201650Z 21009KT 9999 BKN016 10/07 Q1024=
202402201720 METAR EGKK 201720Z 22010KT 9999 SCT014 BKN018 10/07 Q1024=
202402201750 METAR EGKK 201750Z 22007KT 9999 BKN016 10/07 Q1024=
202402201820 METAR EGKK 201820Z 21006KT 170V250 9999 BKN016 10/07 Q1024=
202402201850 METAR EGKK 201850Z 24007KT 200V270 9999 BKN017 10/07 Q1024=
202402201920 METAR EGKK 201920Z 23008KT 190V260 9999 BKN017 10/07 Q1024=
202402201950 METAR EGKK 201950Z 23009KT 9999 SCT018 10/07 Q1023=
202402202020 METAR EGKK 202020Z 23010KT 9999 FEW018 10/07 Q1023=
202402202050 METAR EGKK 202050Z 22010KT 9999 FEW019 10/07 Q1023=
202402202120 METAR EGKK 202120Z 22010KT 9999 FEW015 10/07 Q1023=
202402202150 METAR EGKK 202150Z 22007KT 180V240 9999 FEW013 09/07 Q1023=
202402202220 METAR EGKK 202220Z 21007KT 9999 FEW014 09/07 Q1022=
202402202250 METAR EGKK 202250Z 22008KT 180V240 9999 SCT018 09/07 Q1022=
202402202320 METAR EGKK 202320Z 22009KT 9999 BKN021 09/07 Q1021=
202402202350 METAR EGKK 202350Z 21007KT 9999 SCT013 BKN023 09/08 Q1021=
202402210020 METAR EGKK 210020Z 22009KT 9999 SCT012 BKN020 09/08 Q1021=
202402210050 METAR EGKK 210050Z 22007KT 190V260 9999 SCT013 BKN019 10/08 Q1020=
202402210120 METAR EGKK 210120Z 21009KT 9999 BKN011 10/08 Q1020=
202402210150 METAR EGKK 210150Z 21008KT 160V240 9999 SCT012 BKN024 10/08 Q1019=
202402210220 METAR EGKK 210220Z 21010KT 180V240 9999 SCT013 SCT021 10/07 Q1019=
202402210250 METAR EGKK 210250Z 21010KT 9999 SCT012 SCT020 09/07 Q1018=
202402210320 METAR EGKK 210320Z 21009KT 9999 SCT012 09/07 Q1018=
202402210350 METAR EGKK 210350Z 20008KT 160V240 9999 BKN013 09/07 Q1017=
202402210420 METAR EGKK 210420Z NIL=
202402210450 METAR EGKK 210450Z 21009KT 9999 SCT014 SCT021 09/07 Q1016=
202402210520 METAR EGKK 210520Z 20010KT 150V230 9999 -RA BKN012 BKN024 09/07 Q1015=
202402210550 METAR EGKK 210550Z 20009KT 160V230 9000 -RA BKN009 BKN013 09/08 Q1015=
202402210620 METAR EGKK 210620Z 20010KT 9999 -RA BKN010 09/08 Q1014=
202402210650 METAR EGKK 210650Z 19009KT 9999 -RA BKN007 09/08 Q1013=
202402210720 METAR EGKK 210720Z 19011G22KT 170V230 9999 -RA BKN008 09/08 Q1012=
202402210750 METAR EGKK 210750Z 20013KT 9999 -RA BKN007 09/08 Q1012=
202402210820 METAR EGKK 210820Z 20016KT 160V220 9999 -RA BKN010 09/08 Q1011=
202402210850 METAR EGKK 210850Z 20014KT 9999 -RA SCT009 BKN012 09/08 Q1011=
202402210920 METAR EGKK 210920Z 20014KT 160V230 9999 -RA SCT010 BKN026 09/08 Q1010=
202402210950 METAR EGKK 210950Z 20013G23KT 9999 -RA SCT010 BKN020 10/08 Q1009=
202402211020 METAR EGKK 211020Z 20012G22KT 9999 -RA SCT009 BKN011 09/08 Q1009=
202402211050 METAR EGKK 211050Z 20013KT 160V230 9000 -RA SCT008 BKN011 10/08 Q1008=
202402211120 METAR EGKK 211120Z 21013KT 8000 -RA SCT008 BKN013 10/09 Q1007=
202402211150 METAR EGKK 211150Z 20012KT 8000 -RA SCT008 BKN013 10/09 Q1006=
202402211220 METAR EGKK 211220Z 21013G25KT 170V230 9000 -RA BKN009 10/09 Q1005=
202402211250 METAR EGKK 211250Z 21014G24KT 170V240 5000 -RA BKN008 10/09 Q1004=
202402211320 METAR EGKK 211320Z 21013KT 180V250 5000 -RA SCT007 BKN012 10/09 Q1003=
202402211350 METAR EGKK 211350Z 21016KT 5000 -RA BKN007 10/09 Q1002=
202402211420 METAR EGKK 211420Z 22016KT 6000 -RA BKN007 10/09 Q1001=
202402211450 METAR EGKK 211450Z 21015KT 4500 -RADZ BKN007 10/09 Q1001=
202402211520 METAR EGKK 211520Z 22012G24KT 4500 -RADZ BKN007 10/09 Q1000=
202402211550 METAR EGKK 211550Z 22012KT 3400 -RADZ BKN005 10/10 Q1000=
202402211620 METAR EGKK 211620Z 22013KT 3000 DZ BKN004 11/10 Q1000=
202402211650 METAR EGKK 211650Z 22012KT 4000 -DZ BR BKN004 11/10 Q0999 REDZ=
202402211720 METAR EGKK 211720Z 22008KT 9000 BKN004 11/11 Q0999=
202402211750 METAR EGKK 211750Z 23009KT 200V260 8000 -DZ BKN005 11/11 Q0999=
202402211820 METAR EGKK 211820Z 22010KT 9999 SCT006 BKN014 12/11 Q0999=
202402211850 METAR EGKK 211850Z 23010KT 9999 SCT007 BKN019 12/11 Q1000=
202402211920 METAR EGKK 211920Z 23007KT 9999 FEW009 SCT014 BKN019 12/11 Q1000=
202402211950 METAR EGKK 211950Z 24008KT 9999 SCT011 BKN016 11/10 Q1000=
202402212020 METAR EGKK 212020Z 23007KT 9999 FEW007 SCT010 BKN018 11/10 Q1000=
202402212050 METAR EGKK 212050Z 22008KT 9999 FEW007 SCT015 BKN027 11/10 Q1000=
202402212120 METAR EGKK 212120Z 24007KT 9999 FEW011 SCT024 11/09 Q0999=
202402212150 METAR EGKK 212150Z 22007KT 9999 FEW011 10/09 Q0999=
202402212220 METAR EGKK 212220Z 22007KT 9999 FEW015 10/09 Q0999=
202402212250 METAR EGKK 212250Z 22005KT 9999 FEW016 10/09 Q0999=
202402212320 METAR EGKK 212320Z 21005KT 9999 FEW032 10/08 Q0999=
202402212350 METAR EGKK 212350Z 22009KT 9999 BKN031 10/09 Q0998=
202402220020 METAR EGKK 220020Z 22007KT 9999 BKN010 10/09 Q0998=
202402220050 METAR EGKK 220050Z 22007KT 9999 SCT012 10/09 Q0998=
202402220120 METAR EGKK 220120Z 21006KT 9999 SCT009 09/09 Q0997=
202402220150 METAR EGKK 220150Z 21008KT 9999 FEW011 SCT022 09/09 Q0996=
202402220220 METAR EGKK 220220Z 21007KT 9999 FEW009 SCT017 10/09 Q0996=
202402220250 METAR EGKK 220250Z 21007KT 9999 SCT011 SCT021 09/08 Q0995=
202402220320 METAR EGKK 220320Z 20007KT 9999 BKN009 10/09 Q0994=
202402220350 METAR EGKK 220350Z 20007KT 9999 BKN010 10/08 Q0993=
202402220420 METAR EGKK 220420Z 20006KT 170V240 9999 BKN009 10/08 Q0993=
202402220450 METAR EGKK 220450Z 20010KT 170V230 9999 BKN013 10/08 Q0992=
202402220520 METAR EGKK 220520Z 19009KT 9999 BKN014 10/08 Q0991=
202402220550 METAR EGKK 220550Z 19007KT 140V210 9999 BKN008 10/08 Q0990=
202402220620 METAR EGKK 220620Z 20010KT 150V220 9999 BKN005 10/09 Q0989=
202402220650 METAR EGKK 220650Z 18011KT 150V220 8000 -RA BKN005 10/09 Q0988=
202402220720 METAR EGKK 220720Z 18010KT 2500 -RA BKN004 10/09 Q0987=
202402220750 METAR EGKK 220750Z 18009KT 140V210 3400 -RADZ BKN004 10/10 Q0987=
202402220820 METAR EGKK 220820Z 17009KT 130V200 8000 -RA FEW006 BKN009 10/10 Q0986=
202402220850 METAR EGKK 220850Z 18011KT 2500 -RADZ BKN003 10/10 Q0984=
202402220920 METAR EGKK 220920Z 19010KT 7000 -RA FEW003 BKN007 11/10 Q0983=
202402220950 METAR COR EGKK 220950Z 20011KT 9999 4000W -RA SCT006 BKN011 11/11 Q0982=
202402221020 METAR EGKK 221020Z 20011KT 160V230 7000 -RA BKN006 11/11 Q0981=
202402221050 METAR EGKK 221050Z 21012KT 6000 -RA SCT006 BKN010 11/11 Q0981=
202402221120 METAR EGKK 221120Z 22012KT 9999 4000SE -RA SCT007 BKN010 11/11 Q0980=
202402221150 METAR EGKK 221150Z 21013KT 9999 5000N -RADZ BKN009 11/10 Q0979=
202402221220 METAR EGKK 221220Z 27012KT 7000 -RA FEW010 SCT020 09/08 Q0978=
202402221250 METAR EGKK 221250Z 25006KT 210V290 9999 -RA FEW016 09/07 Q0977=
202402221320 METAR EGKK 221320Z 20005KT 130V230 9999 -RA FEW011 BKN016 09/07 Q0976=
202402221350 METAR EGKK 221350Z 23008KT 9999 -RA FEW015 SCT031 08/07 Q0975=
202402221420 METAR EGKK 221420Z 24008KT 9999 -RA FEW016 BKN020 08/07 Q0975=
202402221450 METAR EGKK 221450Z 28021G31KT 9000 -RA SCT013 BKN018 07/06 Q0976=
202402221520 METAR COR EGKK 221520Z 27014KT 9999 -RA SCT015 BKN017 06/05 Q0978=
202402221550 METAR EGKK 221550Z 27023KT 9999 -RA FEW012 SCT017 BKN031 06/04 Q0978=
202402221620 METAR EGKK 221620Z 27016KT 9999 -RA BKN011 BKN021 06/04 Q0979=
202402221650 METAR EGKK 221650Z 29019G29KT 9999 -RA BKN011 BKN033 05/04 Q0980=
202402221720 METAR EGKK 221720Z 29017KT 9999 -RA BKN013 04/03 Q0982=
202402221750 METAR EGKK 221750Z 27015KT 9999 -RA SCT010 BKN020 04/03 Q0983=
202402221820 METAR EGKK 221820Z 26010KT 9999 FEW014 SCT030 04/03 Q0984=
202402221850 METAR EGKK 221850Z 25012KT 9999 FEW021 05/03 Q0985=
202402221920 METAR EGKK 221920Z 24009KT 9999 FEW021 05/03 Q0985=
202402221950 METAR EGKK 221950Z 23009KT CAVOK 04/02 Q0986=
202402222020 METAR EGKK 222020Z 23008KT CAVOK 04/02 Q0987=
202402222050 METAR EGKK 222050Z 23008KT CAVOK 04/02 Q0987=
202402222120 METAR EGKK 222120Z 23007KT 9999 FEW032 04/02 Q0987=
202402222150 METAR EGKK 222150Z 23008KT CAVOK 04/02 Q0987=
202402222220 METAR EGKK 222220Z 22006KT CAVOK 04/01 Q0987=
202402222250 METAR EGKK 222250Z 22006KT CAVOK 04/01 Q0987=
202402222320 METAR EGKK 222320Z 22007KT CAVOK 04/01 Q0987=
202402222350 METAR EGKK 222350Z 21006KT CAVOK 04/01 Q0987=
202402230020 METAR EGKK 230020Z 19005KT CAVOK 04/02 Q0987=
202402230050 METAR EGKK 230050Z 18005KT CAVOK 04/02 Q0987=
202402230120 METAR EGKK 230120Z 18004KT CAVOK 04/02 Q0986=
202402230150 METAR EGKK 230150Z 19004KT CAVOK 04/02 Q0986=
202402230220 METAR EGKK 230220Z 21006KT 9999 FEW030 05/02 Q0985=
202402230250 METAR EGKK 230250Z 21009G19KT 180V240 9999 -RA FEW033 05/03 Q0985=
202402230320 METAR EGKK 230320Z 21007KT 9999 FEW027 05/03 Q0985=
202402230350 METAR EGKK 230350Z 21007KT 9999 SCT030 05/03 Q0984=
202402230420 METAR EGKK 230420Z 22008KT 9999 BKN027 05/03 Q0984=
202402230450 METAR EGKK 230450Z 23007KT 9999 FEW024 05/03 Q0985=
202402230520 METAR EGKK 230520Z 23008KT 9999 SCT023 05/03 Q0985=
202402230550 METAR EGKK 230550Z 22006KT 190V250 9999 SCT022 05/03 Q0985=
202402230620 METAR EGKK 230620Z 22006KT 9999 FEW021 05/02 Q0985=
202402230650 METAR EGKK 230650Z 22004KT 9999 FEW023 04/02 Q0986=
202402230720 METAR EGKK 230720Z 22005KT 9999 FEW032 04/02 Q0986=
202402230750 METAR EGKK 230750Z 21005KT 9999 FEW031 05/02 Q0986=
202402230820 METAR EGKK 230820Z 23006KT 9999 FEW023 05/03 Q0987=
202402230850 METAR EGKK 230850Z 23008KT CAVOK 06/03 Q0987=
202402230920 METAR EGKK 230920Z 23009KT CAVOK 07/03 Q0987=
202402230950 METAR EGKK 230950Z 24011KT 9999 FEW025 07/03 Q0987=
202402231020 METAR EGKK 231020Z 23008KT 9999 FEW025 07/03 Q0987=
202402231050 METAR EGKK 231050Z 24008KT 9999 FEW024 07/03 Q0987=
202402231120 METAR EGKK 231120Z 23010KT 190V250 9999 FEW023 08/03 Q0987=
202402231150 METAR EGKK 231150Z 24009KT 9999 FEW024 08/03 Q0987=
202402231220 METAR EGKK 231220Z 21007KT 9999 VCSH FEW020 SCT025 08/03 Q0987=
202402231250 METAR EGKK 231250Z 20006KT 160V220 9999 VCSH FEW014 SCT025 08/03 Q0987=
202402231320 METAR EGKK 231320Z 20007KT 9999 FEW015 SCT025TCU 08/04 Q0987=
202402231350 METAR EGKK 231350Z 21009KT 180V250 9999 FEW019 SCT027 09/03 Q0987=
202402231420 METAR EGKK 231420Z 22010KT 170V240 9999 VCSH FEW028 SCT040 08/02 Q0987=
202402231450 METAR EGKK 231450Z 20009KT 9999 SCT026 08/03 Q0986=
202402231520 METAR EGKK 231520Z 20009KT 170V230 9999 SCT024 08/03 Q0986=
202402231550 METAR EGKK 231550Z 22011KT 9999 VCSH FEW030 SCT046 08/03 Q0987=
202402231620 METAR EGKK 231620Z 21009KT 9999 FEW026 SCT034 08/03 Q0987=
202402231650 METAR EGKK 231650Z 21009KT 9999 VCSH FEW022CB SCT031 07/03 Q0987=
202402231720 METAR EGKK 231720Z 22008KT 9999 VCSH SCT027CB 07/02 Q0987=
202402231750 METAR EGKK 231750Z 27007KT 9999 VCSH FEW025 SCT034CB 06/02 Q0988=
202402231820 METAR EGKK 231820Z 24005KT 9999 FEW032 05/01 Q0988=
202402231850 METAR EGKK 231850Z 21003KT 9999 FEW034 05/01 Q0989=
202402231920 METAR EGKK 231920Z 19005KT CAVOK 04/01 Q0989=
202402231950 METAR EGKK 231950Z 21004KT CAVOK 04/01 Q0989=
202402232020 METAR EGKK 232020Z 23004KT CAVOK 04/01 Q0989=
202402232050 METAR EGKK 232050Z NIL=
202402232120 METAR EGKK 232120Z 21003KT CAVOK 03/01 Q0990=
202402232150 METAR EGKK 232150Z 23003KT CAVOK 03/01 Q0990=
202402232220 METAR EGKK 232220Z 21004KT CAVOK 03/01 Q0990=
202402232250 METAR EGKK 232250Z 22005KT CAVOK 03/01 Q0990=
202402232320 METAR EGKK 232320Z 21004KT CAVOK 03/01 Q0991=
202402232350 METAR EGKK 232350Z 20004KT CAVOK 02/01 Q0991=
202402240020 METAR EGKK 240020Z 20003KT CAVOK 02/01 Q0991=
202402240050 METAR EGKK 240050Z VRB02KT CAVOK 02/00 Q0991=
202402240120 METAR EGKK 240120Z 23004KT CAVOK 01/00 Q0991=
202402240150 METAR EGKK 240150Z VRB02KT CAVOK 00/M01 Q0991=
202402240220 METAR EGKK 240220Z 19002KT CAVOK 01/M00 Q0991=
202402240250 METAR EGKK 240250Z VRB01KT CAVOK 00/M00 Q0992=
202402240320 METAR EGKK 240320Z 09003KT CAVOK M01/M02 Q0992=
202402240350 METAR EGKK 240350Z 14001KT CAVOK M00/M01 Q0992=
202402240420 METAR EGKK 240420Z 12001KT CAVOK M00/M01 Q0992=
202402240450 METAR EGKK 240450Z 12001KT CAVOK M01/M01 Q0993=
202402240520 METAR EGKK 240520Z 11003KT CAVOK M02/M02 Q0993=
202402240550 METAR EGKK 240550Z VRB01KT CAVOK M01/M02 Q0993=
202402240620 METAR EGKK 240620Z 27002KT CAVOK M02/M02 Q0993=
202402240650 METAR EGKK 240650Z VRB01KT CAVOK M01/M01 Q0993=
202402240720 METAR EGKK 240720Z VRB01KT CAVOK M01/M02 Q0994=
202402240750 METAR EGKK 240750Z 00000KT 9999 VCFG NSC M00/M01 Q0994=
202402240820 METAR EGKK 240820Z VRB01KT CAVOK 02/01 Q0994=
202402240850 METAR EGKK 240850Z 08002KT CAVOK 03/01 Q0994=
202402240920 METAR EGKK 240920Z 09002KT CAVOK 03/02 Q0994=
202402240950 METAR EGKK 240950Z 08002KT CAVOK 05/03 Q0995=
202402241020 METAR EGKK 241020Z 10004KT 9999 FEW026 05/03 Q0995=
202402241050 METAR EGKK 241050Z 14005KT 090V190 9999 FEW018 BKN036 06/03 Q0995=
202402241120 METAR EGKK 241120Z 17005KT 140V200 9999 SCT022 06/03 Q0995=
202402241150 METAR EGKK 241150Z 15005KT 130V210 9999 FEW016 06/03 Q0995=
202402241220 METAR EGKK 241220Z 17005KT 140V200 9999 -RA FEW020 SCT028 06/04 Q0995=
202402241250 METAR EGKK 241250Z 18004KT 150V210 9999 -RA FEW013 BKN032 06/05 Q0995=
202402241320 METAR EGKK 241320Z 20005KT 140V260 9999 -RA SCT012 07/04 Q0995=
202402241350 METAR EGKK 241350Z 20004KT 150V250 9999 -RA BKN013 07/04 Q0995=
202402241420 METAR EGKK 241420Z 17003KT 130V200 9999 -RA SCT013 BKN021 07/04 Q0995=
202402241450 METAR EGKK 241450Z 17003KT 130V210 9999 -RA FEW013 SCT018 BKN023 07/04 Q0995=
202402241520 METAR EGKK 241520Z VRB02KT 9999 -SHRA FEW011 SCT018 07/05 Q0996=
202402241550 METAR EGKK 241550Z VRB02KT 9999 FEW011 SCT036 07/04 Q0996=
202402241620 METAR EGKK 241620Z 30003KT 250V340 9999 FEW015 SCT027 07/04 Q0996=
202402241650 METAR EGKK 241650Z 31003KT 280V350 9999 FEW012 SCT029 07/04 Q0996=
202402241720 METAR EGKK 241720Z VRB01KT 9999 FEW012 BKN035 07/03 Q0996=
202402241750 METAR EGKK 241750Z 27002KT 9999 FEW012 SCT030 06/04 Q0996=
202402241820 METAR EGKK 241820Z VRB02KT 9999 BKN032 06/03 Q0997=
202402241850 METAR EGKK 241850Z VRB02KT 9999 SCT041 06/04 Q0997=
202402241920 METAR EGKK 241920Z VRB01KT 9999 MIFG FEW042 05/04 Q0997=
202402241950 METAR EGKK 241950Z 18001KT CAVOK 04/03 Q0997=
202402242020 METAR EGKK 242020Z VRB01KT CAVOK 03/02 Q0998=
202402242050 METAR EGKK 242050Z 19002KT CAVOK 03/02 Q0998=
202402242120 METAR EGKK 242120Z 23001KT 9999 MIFG NSC 02/02 Q0998=
202402242150 METAR EGKK 242150Z 19002KT 9000 BCFG NSC 02/01 Q0998=
202402242220 METAR EGKK 242220Z 00000KT 5000 0800SW R26L/P1500N BCFG FEW001 01/01 Q0998=
202402242250 METAR EGKK 242250Z 12001KT 8000 1000W R26L/P1500N BCFG FEW001 01/01 Q0998=
202402242320 METAR EGKK 242320Z 18001KT 5000 0600W R26L/1400D BR BCFG SCT001 01/01 Q0998=
202402242350 METAR EGKK 242350Z VRB01KT 4000 0800W R26L/P1500N BR BCFG SCT001 01/00 Q0998=
202402250020 METAR EGKK 250020Z 11002KT 4000 0800W R26L/P1500N BR BCFG FEW002 M00/M00 Q0998=
202402250050 METAR EGKK 250050Z VRB01KT 4000 1000W R26L/P1500N BR BCFG SCT002 M01/M01 Q0998=
202402250120 METAR EGKK 250120Z 24002KT 3000 0700W R26L/P1500N BR PRFG SCT001 M01/M01 Q0998=
202402250150 METAR EGKK 250150Z 26002KT 0900 R26L/1200D FZFG SCT001 M02/M02 Q0998=
202402250220 METAR EGKK 250220Z 00000KT 1100 R26L/1400N BCFG SCT001 M02/M02 Q0998=
202402250250 METAR EGKK 250250Z 08002KT 1100 R26L/P1500N BCFG SCT001 M02/M02 Q0998=
202402250320 METAR EGKK 250320Z 08003KT 0800 R08R/P1500N FZFG BKN001 M03/M03 Q0998=
202402250350 METAR EGKK 250350Z 07004KT 0800 R08R/0650D FZFG BKN001 M02/M03 Q0998=
202402250420 METAR EGKK 250420Z 06003KT 0700 R08R/P1500N FZFG BKN001 M02/M03 Q0997=
202402250450 METAR EGKK 250450Z 08003KT 0700 R08R/0650D FZFG BKN000 M03/M03 Q0997=
202402250520 METAR EGKK 250520Z 08004KT 0900 R08R/1200U FZFG BKN001 M03/M03 Q0997=
202402250550 METAR EGKK 250550Z 07004KT 0900 R08R/1300U FZFG BKN001 M02/M03 Q0997=
202402250620 METAR EGKK 250620Z 07004KT 1100 R08R/P1500N BCFG BKN001 M02/M03 Q0997=
202402250650 METAR EGKK 250650Z 07004KT 2100 BCFG BKN001 M02/M03 Q0997=
202402250720 METAR EGKK 250720Z 07004KT 0800 R08R/P1500N FZFG BKN002 M02/M02 Q0997=
202402250750 METAR EGKK 250750Z 07005KT 2000 R08R/1100U BCFG BKN002 M01/M02 Q0997=
202402250820 METAR EGKK 250820Z 06004KT 2000 BR BCFG SCT002 SCT021 M01/M01 Q0997=
202402250850 METAR EGKK 250850Z 07005KT 2000 BR VCFG SCT003 SCT019 00/M00 Q0996=
202402250920 METAR EGKK 250920Z 08007KT 0600 R08R/1000N FG BKN002 01/01 Q0996=
202402250950 METAR EGKK 250950Z 07007KT 0900 R08R/0800N FG BKN001 02/02 Q0996=
202402251020 METAR EGKK 251020Z 07008KT 1600 BR BCFG FEW001 BKN002 03/03 Q0996=
202402251050 METAR EGKK 251050Z 07007KT 8000 VCFG SCT013 BKN015 05/05 Q0995=
202402251120 METAR EGKK 251120Z 07009KT 9999 SCT014 SCT025 06/05 Q0995=
202402251150 METAR EGKK 251150Z 12012KT 9999 BKN011 07/06 Q0995=
202402251220 METAR EGKK 251220Z 12011KT 9999 BKN009 07/05 Q0994=
202402251250 METAR EGKK 251250Z 11011KT 9999 BKN009 07/05 Q0994=
202402251320 METAR EGKK 251320Z 10010KT 9999 BKN009 07/05 Q0993=
202402251350 METAR EGKK 251350Z 10009KT 9999 BKN010 07/05 Q0993=
202402251420 METAR COR EGKK 251420Z 09012KT 9999 -RA BKN012 07/05 Q0993=
202402251450 METAR EGKK 251450Z 09012KT 9999 -RA BKN012 06/05 Q0993=
202402251520 METAR EGKK 251520Z 08013KT 9999 -RA BKN012 06/05 Q0992=
202402251550 METAR EGKK 251550Z 08011KT 9999 -RA BKN010 06/05 Q0992=
202402251620 METAR EGKK 251620Z 07013KT 9999 -RA BKN011 06/05 Q0992=
202402251650 METAR EGKK 251650Z 06014KT 9999 -RA SCT010 OVC042 06/05 Q0992=
202402251720 METAR EGKK 251720Z 06012KT 9999 -RA SCT010 BKN026 06/05 Q0991=
202402251750 METAR EGKK 251750Z 07013KT 9999 -RA BKN010 06/05 Q0991=
202402251820 METAR EGKK 251820Z 07014KT 9999 -RA BKN011 06/05 Q0991=
202402251850 METAR EGKK 251850Z 07015KT 9999 -RA BKN011 06/05 Q0991=
202402251920 METAR EGKK 251920Z 08013KT 9999 -RA BKN010 06/05 Q0992=
202402251950 METAR EGKK 251950Z 07015KT 9999 -RA FEW008 SCT012 BKN020 06/05 Q0992=
202402252020 METAR EGKK 252020Z 06014KT 9000 -RA SCT011 BKN016 06/06 Q0992=
202402252050 METAR EGKK 252050Z 06016G28KT 9000 -RA BKN011 06/05 Q0992=
202402252120 METAR EGKK 252120Z 07016KT 9999 -RA BKN010 07/05 Q0992=
202402252150 METAR EGKK 252150Z 06017KT 9999 -RA BKN012 06/05 Q0993=
202402252220 METAR EGKK 252220Z 05017KT 9999 -RA SCT012 BKN024 07/05 Q0993=
202402252250 METAR EGKK 252250Z 05017KT 9999 -RA SCT013 SCT024 BKN030 07/05 Q0993=
202402252320 METAR EGKK 252320Z 05015KT 9999 -RA BKN013 BKN029 07/05 Q0993=
202402252350 METAR EGKK 252350Z 05018KT 9999 -RA BKN015 BKN030 07/05 Q0994=
202402260020 METAR EGKK 260020Z 04019G29KT 9999 -RA FEW010 BKN013 07/05 Q0994 RERA=
202402260050 METAR EGKK 260050Z 04018KT 9999 -RA BKN013 07/05 Q0994=
202402260120 METAR EGKK 260120Z 04019KT 9999 -RA BKN014 BKN023 07/05 Q0995=
202402260150 METAR EGKK 260150Z 04021KT 9999 -RA BKN016 BKN023 07/05 Q0995=
202402260220 METAR EGKK 260220Z 03020KT 9999 SCT016 BKN021 07/04 Q0996=
202402260250 METAR EGKK 260250Z 03019KT 9999 SCT018 BKN048 07/04 Q0997=
202402260320 METAR EGKK 260320Z 03021KT 9999 SCT017 BKN025 07/04 Q0997=
202402260350 METAR EGKK 260350Z 03019G32KT 9999 BKN018 07/04 Q0998=
202402260420 METAR EGKK 260420Z 03020G31KT 9999 -RA BKN018 06/04 Q0998=
202402260450 METAR EGKK 260450Z 03018KT 9999 SCT017 BKN021 06/04 Q0999=
202402260520 METAR EGKK 260520Z 03019KT 9999 SCT017 BKN022 06/03 Q1000=
202402260550 METAR EGKK 260550Z 02018G28KT 9999 BKN017 06/03 Q1001=
202402260620 METAR EGKK 260620Z 02022KT 9999 BKN018 06/03 Q1001=
202402260650 METAR EGKK 260650Z 02019KT 9999 BKN019 06/03 Q1002=
202402260720 METAR EGKK 260720Z 02021G31KT 9999 BKN022 06/02 Q1003=
202402260750 METAR EGKK 260750Z 02020KT 9999 BKN022 06/02 Q1004=
202402260820 METAR EGKK 260820Z 02018G28KT 9999 BKN026 06/02 Q1004=
202402260850 METAR EGKK 260850Z 02018G31KT 9999 BKN024 06/01 Q1005=
202402260920 METAR EGKK 260920Z 03020KT 9999 BKN026 06/01 Q1006=
202402260950 METAR EGKK 260950Z 02019KT 9999 BKN025 06/02 Q1006=
202402261020 METAR EGKK 261020Z 02019G29KT 9999 BKN029 06/01 Q1007=
202402261050 METAR EGKK 261050Z 02019G31KT 9999 BKN027 06/01 Q1008=
202402261120 METAR EGKK 261120Z 03022G33KT 9999 -RA BKN025 06/02 Q1008=
202402261150 METAR EGKK 261150Z 02019KT 9999 BKN029 07/01 Q1009=
202402261220 METAR EGKK 261220Z 02018G29KT 9999 BKN035 07/01 Q1009=
202402261250 METAR EGKK 261250Z 03024KT 350V050 9999 VCSH BKN032 07/01 Q1010=
202402261320 METAR EGKK 261320Z 03021G31KT 9999 BKN031 07/02 Q1010=
202402261350 METAR EGKK 261350Z 02017KT 9999 BKN031 08/01 Q1010=
202402261420 METAR EGKK 261420Z 03017KT 9999 SCT036 08/01 Q1011=
202402261450 METAR EGKK 261450Z 03017G28KT 9999 SCT036 08/01 Q1011=
202402261520 METAR EGKK 261520Z 02020G31KT 9999 SCT035 08/01 Q1012=
202402261550 METAR EGKK 261550Z 03017KT 9999 SCT037 08/00 Q1012=
202402261620 METAR COR EGKK 261620Z 02018KT 9999 SCT036 08/00 Q1013=
202402261650 METAR EGKK 261650Z 03018KT 9999 SCT037 07/M00 Q1013=
202402261720 METAR EGKK 261720Z 02020KT 9999 SCT041 07/M00 Q1014=
202402261750 METAR EGKK 261750Z 02018KT 9999 SCT041 07/M01 Q1014=
202402261820 METAR EGKK 261820Z 02016KT 9999 FEW038 06/M00 Q1015=
202402261850 METAR EGKK 261850Z 03015KT 9999 FEW036 06/M00 Q1016=
202402261920 METAR EGKK 261920Z 02015KT 9999 FEW031 06/00 Q1016=
202402261950 METAR EGKK 261950Z 02012KT 9999 SCT034 06/01 Q1017=
202402262020 METAR EGKK 262020Z 03010KT 9999 SCT027 06/01 Q1018=
202402262050 METAR EGKK 262050Z 03009G19KT 360V090 9999 SCT024 06/01 Q1018=
202402262120 METAR EGKK 262120Z 01008KT 340V040 9999 SCT020 05/01 Q1018=
202402262150 METAR EGKK 262150Z 02008KT 9999 SCT021 05/02 Q1019=
202402262220 METAR EGKK 262220Z 01008KT 9999 SCT018 05/02 Q1019=
202402262250 METAR EGKK 262250Z 01009KT 9999 SCT018 05/02 Q1020=
202402262320 METAR EGKK 262320Z 01010KT 9999 SCT018 05/02 Q1020=
202402262350 METAR EGKK 262350Z NIL=
202402270020 METAR EGKK 270020Z 01010KT 9999 SCT030 04/02 Q1020=
202402270050 METAR EGKK 270050Z 36010KT 9999 SCT025 04/02 Q1020=
202402270120 METAR EGKK 270120Z 36009KT 9999 SCT028 04/02 Q1020=
202402270150 METAR EGKK 270150Z 05004KT 360V100 9999 BKN028 04/02 Q1020=
202402270220 METAR EGKK 270220Z 01004KT 330V040 9999 FEW015 SCT025 04/02 Q1020=
202402270250 METAR EGKK 270250Z 01007KT 9999 FEW019 BKN026 04/02 Q1021=
202402270320 METAR EGKK 270320Z 03004KT 9999 SCT027 04/02 Q1020=
202402270350 METAR EGKK 270350Z 34003KT 280V030 9999 SCT029 03/02 Q1020=
202402270420 METAR EGKK 270420Z 32006KT 9999 SCT028 03/02 Q1020=
202402270450 METAR EGKK 270450Z 34006KT CAVOK 02/01 Q1020=
202402270520 METAR EGKK 270520Z 34007KT CAVOK 02/02 Q1021=
202402270550 METAR EGKK 270550Z 34007KT 9999 FEW007 02/02 Q1021=
202402270620 METAR EGKK 270620Z VRB05KT 9999 FEW008 02/02 Q1021=
202402270650 METAR EGKK 270650Z 36005KT 280V030 9000 FEW010 02/02 Q1021=
202402270720 METAR EGKK 270720Z 34003KT 300V030 9000 FEW003 02/02 Q1021=
202402270750 METAR EGKK 270750Z 32004KT 290V010 9000 NSC 03/02 Q1021=
202402270820 METAR EGKK 270820Z 30003KT 270V340 CAVOK 03/02 Q1021=
202402270850 METAR EGKK 270850Z 30006KT CAVOK 04/02 Q1022=
202402270920 METAR EGKK 270920Z 30006KT CAVOK 04/02 Q1022=
202402270950 METAR EGKK 270950Z 31006KT 270V340 9999 FEW010 05/02 Q1022=
202402271020 METAR EGKK 271020Z VRB02KT 9999 FEW017 06/02 Q1021=
202402271050 METAR EGKK 271050Z VRB02KT 9999 FEW020 06/01 Q1022=
202402271120 METAR EGKK 271120Z 28004KT 230V310 9999 FEW020 06/01 Q1022=
202402271150 METAR EGKK 271150Z 28006KT 240V330 9999 FEW024 07/01 Q1021=
202402271220 METAR EGKK 271220Z 28005KT 250V320 9999 FEW028 07/02 Q1021=
202402271250 METAR EGKK 271250Z 27005KT 240V310 CAVOK 08/02 Q1021=
202402271320 METAR EGKK 271320Z 26006KT 230V300 CAVOK 08/02 Q1020=
202402271350 METAR EGKK 271350Z 25008KT CAVOK 08/02 Q1020=
202402271420 METAR EGKK 271420Z 27006KT 240V310 CAVOK 08/01 Q1020=
202402271450 METAR EGKK 271450Z 25007KT 9999 FEW028 08/02 Q1020=
202402271520 METAR EGKK 271520Z 26005KT CAVOK 08/02 Q1019=
202402271550 METAR EGKK 271550Z 26007KT CAVOK 08/01 Q1019=
202402271620 METAR EGKK 271620Z 25007KT CAVOK 08/01 Q1019=
202402271650 METAR EGKK 271650Z 24006KT CAVOK 08/01 Q1019=
202402271720 METAR EGKK 271720Z 24006KT 9999 FEW046 07/02 Q1019=
202402271750 METAR EGKK 271750Z 23005KT 190V250 9999 FEW042 07/02 Q1019=
202402271820 METAR EGKK 271820Z 21004KT 170V240 9999 SCT033 07/02 Q1020=
202402271850 METAR EGKK 271850Z 20004KT 9999 SCT032 07/02 Q1020=
202402271920 METAR EGKK 271920Z 21004KT 9999 SCT035 07/03 Q1020=
202402271950 METAR EGKK 271950Z 21004KT 170V230 9999 BKN031 07/03 Q1020=
202402272020 METAR EGKK 272020Z 20004KT 140V240 9999 BKN029 07/03 Q1020=
202402272050 METAR EGKK 272050Z 20003KT 170V240 9999 BKN028 07/04 Q1020=
202402272120 METAR EGKK 272120Z 20003KT 170V240 9999 BKN025 07/04 Q1020=
202402272150 METAR EGKK 272150Z 21004KT 180V240 9999 BKN023 07/04 Q1020=
202402272220 METAR EGKK 272220Z 21004KT 9999 SCT016 07/05 Q1020=
202402272250 METAR EGKK 272250Z 21005KT 170V240 9999 BKN014 07/05 Q1020=
202402272320 METAR EGKK 272320Z 22004KT 9999 BKN011 07/06 Q1020=
202402272350 METAR EGKK 272350Z VRB02KT 9999 BKN010 07/06 Q1020=
202402280020 METAR EGKK 280020Z 23002KT 9999 OVC010 07/06 Q1020=
202402280050 METAR EGKK 280050Z VRB02KT 9999 OVC009 07/06 Q1020=
202402280120 METAR EGKK 280120Z 22002KT 9999 BKN009 07/06 Q1020=
202402280150 METAR EGKK 280150Z NIL=
202402280220 METAR EGKK 280220Z 22003KT 9999 BKN018 07/06 Q1020=
202402280250 METAR EGKK 280250Z 21004KT 9999 BKN018 07/06 Q1020=
202402280320 METAR EGKK 280320Z 22003KT 9999 FEW007 BKN020 07/06 Q1020=
202402280350 METAR EGKK 280350Z 23003KT 9999 FEW009 BKN016 07/07 Q1020=
202402280420 METAR EGKK 280420Z 23002KT 9999 BKN018 07/07 Q1020=
202402280450 METAR EGKK 280450Z VRB01KT 9999 FEW007 BKN018 07/06 Q1020=
202402280520 METAR EGKK 280520Z 24002KT 9999 FEW007 BKN018 08/07 Q1019=
202402280550 METAR EGKK 280550Z 34001KT 9999 FEW007 BKN022 07/07 Q1019=
202402280620 METAR EGKK 280620Z 16002KT 9999 FEW005 BKN022 07/06 Q1019=
202402280650 METAR EGKK 280650Z VRB01KT 9999 FEW005 SCT021 07/06 Q1019=
202402280720 METAR EGKK 280720Z 19001KT 9999 FEW005 BKN020 07/07 Q1019=
202402280750 METAR EGKK 280750Z 17002KT 9999 FEW004 BKN020 08/07 Q1019=
202402280820 METAR EGKK 280820Z VRB02KT 9000 SCT003 BKN016 08/08 Q1019=
202402280850 METAR EGKK 280850Z 19003KT 160V230 9000 SCT006 BKN017 09/08 Q1019=
202402280920 METAR EGKK 280920Z 21004KT 170V240 9000 FEW007 BKN014 09/08 Q1020=
202402280950 METAR EGKK 280950Z 21004KT 170V240 9999 FEW007 BKN017 09/08 Q1020=
202402281020 METAR EGKK 281020Z 20005KT 160V230 9999 SCT010 SCT019 10/08 Q1019=
202402281050 METAR EGKK 281050Z 21006KT 170V230 9999 SCT012 10/08 Q1019=
202402281120 METAR EGKK 281120Z 22007KT 180V240 9999 SCT015 10/08 Q1019=
202402281150 METAR EGKK 281150Z 23010KT 9999 SCT018 11/07 Q1019=
202402281220 METAR EGKK 281220Z 23010KT 9999 SCT021 11/07 Q1018=
202402281250 METAR EGKK 281250Z 22009KT 180V250 9999 SCT019 11/07 Q1018=
202402281320 METAR EGKK 281320Z 21010KT 170V240 9999 BKN019 11/06 Q1017=
202402281350 METAR EGKK 281350Z 22009KT 9999 SCT019 11/06 Q1017=
202402281420 METAR EGKK 281420Z 22011KT 9999 SCT019 11/06 Q1017=
202402281450 METAR EGKK 281450Z 21010KT 170V240 9999 BKN016 11/07 Q1017=
202402281520 METAR EGKK 281520Z 21008KT 9999 BKN010 10/08 Q1016=
202402281550 METAR EGKK 281550Z 21009KT 170V230 7000 VCSH BKN007 10/09 Q1016=
202402281620 METAR EGKK 281620Z 21010KT 170V240 5000 -DZ BKN006 10/09 Q1016=
202402281650 METAR EGKK 281650Z 20009KT 170V250 9999 VCSH BKN006 10/09 Q1015=
202402281720 METAR EGKK 281720Z 20009KT 170V240 6000 2000W VCSH BKN005 10/09 Q1015=
202402281750 METAR EGKK 281750Z 20008KT 170V230 5000 BR BKN004 10/10 Q1015=
202402281820 METAR EGKK 281820Z 20009KT 7000 -RA BKN004 10/10 Q1014=
202402281850 METAR EGKK 281850Z 21010KT 170V240 9000 BKN005 10/10 Q1014=
202402281920 METAR EGKK 281920Z 21012KT 9000 -RA BKN004 10/10 Q1014=
202402281950 METAR EGKK 281950Z 21011G21KT 7000 -RA BKN004 10/10 Q1014=
202402282020 METAR EGKK 282020Z 21010KT 9999 BKN004 11/10 Q1013=
202402282050 METAR EGKK 282050Z 21011KT 5000 BR BKN004 11/10 Q1013=
202402282120 METAR EGKK 282120Z 21010KT 3300 -RADZ BKN004 11/10 Q1013=
202402282150 METAR EGKK 282150Z 21010KT 7000 BKN005 11/10 Q1012=
202402282220 METAR EGKK 282220Z 21010KT 170V240 4000 -DZRA BKN004 11/10 Q1012=
202402282250 METAR EGKK 282250Z 21010KT 3500 -DZRA BR BKN004 11/10 Q1011=
202402282320 METAR EGKK 282320Z 21012KT 160V250 4500 BR BKN004 11/10 Q1011=
202402282350 METAR EGKK 282350Z 22009KT 190V250 8000 BKN005 11/10 Q1011=
202402290020 METAR EGKK 290020Z 22011KT 8000 BKN006 11/10 Q1011=
202402290050 METAR EGKK 290050Z 22009KT 5000 -DZ BKN006 11/10 Q1010=
202402290120 METAR EGKK 290120Z 21008KT 180V240 6000 BKN006 10/10 Q1010=
202402290150 METAR EGKK 290150Z 22009KT 180V250 9999 BKN009 10/10 Q1009=
202402290220 METAR EGKK 290220Z 22010KT 9999 BKN008 10/09 Q1009=
202402290250 METAR EGKK 290250Z 22009KT 180V240 9999 BKN008 10/09 Q1009=
202402290320 METAR EGKK 290320Z 21008KT 9999 BKN015 10/09 Q1008=
202402290350 METAR EGKK 290350Z NIL=
202402290420 METAR EGKK 290420Z 22009KT 9999 BKN012 10/09 Q1007=
202402290450 METAR EGKK 290450Z 21010KT 9999 -RA BKN008 10/09 Q1007=
202402290520 METAR EGKK 290520Z 21010KT 9999 BKN009 10/09 Q1007=
202402290550 METAR EGKK 290550Z 21010KT 6000 -DZ BKN009 10/09 Q1007=
202402290620 METAR EGKK 290620Z 21009KT 3500 -RADZ BKN006 10/09 Q1006=
202402290650 METAR EGKK 290650Z 20010KT 6000 -RA BKN007 10/09 Q1006=
202402290720 METAR EGKK 290720Z 20009KT 4000 -RA BKN006 10/09 Q1006=
202402290750 METAR EGKK 290750Z 20008KT 2400 -RADZ BR BKN005 10/09 Q1005=
202402290820 METAR EGKK 290820Z 19009KT 6000 -RADZ BKN005 10/09 Q1005=
202402290850 METAR EGKK 290850Z 20009KT 160V240 9000 -DZRA BKN006 10/09 Q1005=
202402290920 METAR EGKK 290920Z 20009KT 170V230 4000 -RADZ BKN006 10/09 Q1005 REDZ RERA=
202402290950 METAR EGKK 290950Z 20010KT 160V220 2700 -RADZ BKN005 10/09 Q1004=
202402291020 METAR EGKK 291020Z 20009KT 5000 -RADZ FEW005 BKN007 10/09 Q1004=
202402291050 METAR EGKK 291050Z 20009G19KT 3000 -RA FEW005 BKN006 10/10 Q1004=
202402291120 METAR EGKK 291120Z 20008KT 3900 -RADZ BKN006 10/09 Q1003=
202402291150 METAR EGKK 291150Z 21008KT 170V240 9000 -RADZ BKN006 10/10 Q1003=
202402291220 METAR EGKK 291220Z 22006KT 180V290 5000 -RADZ FEW004 BKN005 10/10 Q1003=
202402291250 METAR EGKK 291250Z 29008KT 9999 -RA FEW004 BKN023 09/08 Q1003=
202402291320 METAR EGKK 291320Z 29004KT 250V350 9999 -RA FEW008 BKN034 10/08 Q1002=
202402291350 METAR EGKK 291350Z 27004KT 230V310 9999 FEW028 BKN033 10/08 Q1002=
202402291420 METAR EGKK 291420Z 28004KT 230V320 9999 VCSH FEW015 BKN030 10/07 Q1002=
202402291450 METAR EGKK 291450Z 26007KT 5000 2400W -RADZ BKN011 09/07 Q1001=
202402291520 METAR EGKK 291520Z 29005KT 5000 -RA SCT014 BKN040 08/08 Q1001=
202402291550 METAR EGKK 291550Z 31010KT 7000 -RA FEW014 BKN038 08/07 Q1001=
202402291620 METAR EGKK 291620Z 31008KT 270V330 5000 -RA FEW015 BKN030 08/06 Q1001=
202402291650 METAR EGKK 291650Z 29007KT 9000 -RA FEW016 BKN022 07/06 Q1002=
202402291720 METAR EGKK 291720Z 30007KT 9999 -RA BKN035 07/04 Q1002=
202402291750 METAR EGKK 291750Z 28008KT 9999 -RA FEW025 BKN042 07/04 Q1002=
202402291820 METAR EGKK 291820Z 30011KT 9999 -RA BKN030 06/04 Q1002=
202402291850 METAR EGKK 291850Z 32006KT 9999 -RA BKN026 06/03 Q1002=
202402291920 METAR EGKK 291920Z VRB02KT 9999 FEW035 06/03 Q1002=
202402291950 METAR EGKK 291950Z VRB02KT CAVOK 05/04 Q1002=
202402292020 METAR EGKK 292020Z 21003KT 9999 FEW032 05/04 Q1002=
202402292050 METAR EGKK 292050Z 22003KT 9999 FEW025 05/04 Q1002=
202402292120 METAR EGKK 292120Z 21004KT CAVOK 05/04 Q1002=
202402292150 METAR EGKK 292150Z 21004KT 9999 FEW048 05/03 Q1002=
202402292220 METAR EGKK 292220Z 21006KT 9999 BKN044 05/03 Q1002=
202402292250 METAR EGKK 292250Z 21005KT 9999 BKN041 05/04 Q1002=
202402292320 METAR EGKK 292320Z 20004KT 9999 SCT030 05/04 Q1002=
202402292350 METAR EGKK 292350Z 20005KT CAVOK 05/04 Q1001=
202403010020 METAR EGKK 010020Z 19005KT CAVOK 05/04 Q1001=
202403010050 METAR EGKK 010050Z 20005KT CAVOK 04/03 Q1001=
202403010120 METAR EGKK 010120Z 19004KT CAVOK 04/03 Q1001=
202403010150 METAR EGKK 010150Z 19003KT CAVOK 04/03 Q1001=
202403010220 METAR EGKK 010220Z 17003KT CAVOK 03/03 Q1000=
202403010250 METAR EGKK 010250Z 15003KT 9999 FEW039 03/03 Q0999=
202403010320 METAR EGKK 010320Z 16007KT 120V190 9999 -RA FEW022 SCT030 04/03 Q0998=
202403010350 METAR EGKK 010350Z 16006KT CAVOK 04/03 Q0998=
202403010420 METAR EGKK 010420Z 15005KT 9999 FEW028 SCT039 04/02 Q0997=
202403010450 METAR EGKK 010450Z 14005KT 110V200 9999 SCT028 05/02 Q0996=
202403010520 METAR EGKK 010520Z 16008KT 120V190 CAVOK 05/03 Q0995=
202403010550 METAR EGKK 010550Z 16010KT 130V190 CAVOK 06/03 Q0994=
202403010620 METAR EGKK 010620Z 16013KT CAVOK 06/03 Q0993=
202403010650 METAR EGKK 010650Z 17019G31KT 120V200 3700 RA BKN020 BKN025 06/04 Q0992=
202403010720 METAR EGKK 010720Z 16013G23KT 140V200 6000 -RA FEW010 BKN012 BKN021 05/04 Q0992 RERA=
202403010750 METAR EGKK 010750Z 16015G27KT 130V190 5000 -RA BKN009 05/04 Q0990=
202403010820 METAR EGKK 010820Z 18015G25KT 140V210 9999 -RA FEW010 SCT012 BKN020 06/05 Q0990=
202403010850 METAR EGKK 010850Z 19011G21KT 160V220 9999 VCSH SCT018 BKN030 07/05 Q0990=
202403010920 METAR EGKK 010920Z 21009KT 9999 FEW011 06/04 Q0990 RESHRA=
202403010950 METAR EGKK 010950Z 20008KT 160V220 9999 -SHRA FEW010 BKN016 06/04 Q0990=
202403011020 METAR EGKK 011020Z 22009KT 190V250 9999 -SHRA FEW014 SCT017 06/04 Q0990=
202403011050 METAR EGKK 011050Z 22013G23KT 9999 -SHRA FEW014 SCT017 BKN032 06/03 Q0991=
202403011120 METAR EGKK 011120Z 21012KT 9999 FEW014 SCT017 06/04 Q0991=
202403011150 METAR EGKK 011150Z 23012G22KT 200V270 9999 FEW016 SCT021 06/03 Q0992=
202403011220 METAR EGKK 011220Z 22015KT 9999 VCSH FEW021 SCT030TCU 07/02 Q0992=
202403011250 METAR EGKK 011250Z 22013KT 180V250 9999 VCSH FEW026 SCT029TCU 08/02 Q0992=
202403011320 METAR EGKK 011320Z 20013G23KT 160V230 9999 VCSH SCT036 09/02 Q0992=
202403011350 METAR EGKK 011350Z 21014KT 9999 FEW029 08/02 Q0992=
202403011420 METAR EGKK 011420Z 20012KT 9999 SCT034 08/02 Q0992=
202403011450 METAR EGKK 011450Z 20013KT 170V230 9999 FEW027 FEW045CB 08/02 Q0992=
202403011520 METAR EGKK 011520Z 21010KT 9999 FEW030 FEW047CB 08/01 Q0992=
202403011550 METAR EGKK 011550Z 19009G19KT 150V230 9999 FEW021 SCT037 FEW049CB 06/03 Q0992=
202403011620 METAR EGKK 011620Z 19006KT 9999 -SHRA SCT033 FEW045CB 06/03 Q0992=
202403011650 METAR EGKK 011650Z 17003KT 120V220 9999 BKN028 04/02 Q0992 RESHRA=
202403011720 METAR EGKK 011720Z VRB05G15KT 9999 VCSH FEW021 BKN029 04/03 Q0992=
202403011750 METAR EGKK 011750Z 25004KT 220V280 8000 -RA FEW010 SCT021 BKN032 04/02 Q0992=
202403011820 METAR EGKK 011820Z 12003KT 090V200 9999 -SHRA FEW017 BKN025 04/03 Q0992=
202403011850 METAR EGKK 011850Z 15006KT 120V180 9999 SCT019 04/02 Q0992=
202403011920 METAR EGKK 011920Z 13005KT 9999 SCT030 04/02 Q0992=
202403011950 METAR EGKK 011950Z 12005KT 9999 SCT025 03/02 Q0992=
202403012020 METAR EGKK 012020Z 13005KT 100V160 9999 FEW042 03/02 Q0991=
202403012050 METAR EGKK 012050Z 14003KT 110V240 9999 FEW015 SCT032 03/02 Q0991=
202403012120 METAR EGKK 012120Z 13005KT 9999 FEW018 SCT032 03/02 Q0991=
202403012150 METAR EGKK 012150Z 16005KT 110V200 9999 -RA FEW021 SCT025 04/03 Q0992=
202403012220 METAR EGKK 012220Z 14005KT 9999 -RA SCT031 04/03 Q0992=
202403012250 METAR EGKK 012250Z 14004KT 120V180 9999 BKN028 04/03 Q0991=
202403012320 METAR EGKK 012320Z 13004KT 9999 FEW045 04/03 Q0991=
202403012350 METAR EGKK 012350Z 14005KT 110V180 9999 FEW025 04/03 Q0991=
202403020020 METAR EGKK 020020Z 15005KT 9999 SCT043 04/03 Q0991=
202403020050 METAR EGKK 020050Z 16006KT 130V190 9999 SCT049 05/03 Q0991=
202403020120 METAR EGKK 020120Z 15007KT 9999 BKN021 05/03 Q0991=
202403020150 METAR EGKK 020150Z 16006KT 9999 SCT022 BKN030 06/04 Q0990=
202403020220 METAR EGKK 020220Z 17007KT 130V210 9999 FEW020 SCT032 06/04 Q0990=
202403020250 METAR EGKK 020250Z NIL=
202403020320 METAR EGKK 020320Z 16009KT 120V200 9999 FEW021 SCT027 06/03 Q0990=
202403020350 METAR EGKK 020350Z 16008G19KT 120V210 9999 FEW032 06/03 Q0989=
202403020420 METAR EGKK 020420Z 15009KT 130V190 9999 -RA SCT020 BKN024 06/03 Q0989=
202403020450 METAR EGKK 020450Z 16009KT 9999 -RA BKN020 BKN032 06/03 Q0989=
202403020520 METAR EGKK 020520Z 16009KT 110V200 9999 -RA BKN021 BKN038 06/03 Q0989=
202403020550 METAR EGKK 020550Z 17012G23KT 130V210 9000 -RA SCT016 BKN020 06/04 Q0989 RESHRA=
202403020620 METAR EGKK 020620Z 17012KT 130V200 9999 SCT017 SCT028 06/04 Q0988 RERA=
202403020650 METAR EGKK 020650Z 17012KT 140V200 9999 -RA SCT019 BKN023 06/04 Q0988=
202403020720 METAR EGKK 020720Z 17010G20KT 140V200 9999 -RA SCT015 06/04 Q0989=
202403020750 METAR EGKK 020750Z 17010KT 140V210 9999 -RA FEW012 SCT017 BKN045 06/04 Q0989=
202403020820 METAR EGKK 020820Z 17011KT 140V200 9999 -RA FEW015 SCT020 06/04 Q0989 RESHRA=
202403020850 METAR EGKK 020850Z 17011KT 120V200 9999 -RA FEW014 SCT021 BKN030 07/05 Q0989=
202403020920 METAR EGKK 020920Z 18012KT 140V200 9999 -RA FEW010 SCT014 BKN030 07/05 Q0990 RERA=
202403020950 METAR EGKK 020950Z 21013KT 6000 RA SCT010 BKN024 BKN031 06/04 Q0990=
202403021020 METAR EGKK 021020Z 21010KT 9000 -RA FEW010 SCT014 BKN020 05/04 Q0990 RERA=
202403021050 METAR EGKK 021050Z 20012KT 170V240 7000 -RA FEW010 SCT016 BKN021 05/03 Q0991=
202403021120 METAR EGKK 021120Z 19007KT 150V230 9999 -RA FEW011 SCT022 BKN030 05/04 Q0991=
202403021150 METAR EGKK 021150Z 19008KT 160V220 9999 -SHRA SCT010 SCT030 06/05 Q0991=
202403021220 METAR EGKK 021220Z 19010KT 9999 FEW012 SCT017 07/05 Q0991=
202403021250 METAR EGKK 021250Z 21011KT 9999 FEW015 SCT020 08/04 Q0991=
202403021320 METAR EGKK 021320Z 21011KT 180V240 9999 FEW021 SCT029 08/03 Q0991=
202403021350 METAR EGKK 021350Z 20011KT 170V240 9999 FEW026 08/02 Q0991=
202403021420 METAR EGKK 021420Z 20010KT 160V230 9999 SCT026 08/02 Q0991=
202403021450 METAR EGKK 021450Z 20009KT 160V230 9999 VCSH BKN029 08/02 Q0992=
202403021520 METAR COR EGKK 021520Z 19008KT 160V230 9999 -SHRA FEW025 SCT032 08/03 Q0992=
202403021550 METAR EGKK 021550Z 20010KT 9999 VCSH SCT035 08/02 Q0992=
202403021620 METAR COR EGKK 021620Z 21011KT 170V240 9999 FEW023 SCT025 08/02 Q0992=
202403021650 METAR EGKK 021650Z 21007KT 170V240 9999 FEW025 07/01 Q0993=
202403021720 METAR EGKK 021720Z 21005KT 170V230 9999 FEW031 06/01 Q0993=
202403021750 METAR EGKK 021750Z 20005KT 9999 FEW030 06/01 Q0993=
202403021820 METAR EGKK 021820Z 18003KT CAVOK 05/02 Q0994=
202403021850 METAR EGKK 021850Z 16003KT CAVOK 05/02 Q0994=
202403021920 METAR EGKK 021920Z 18003KT CAVOK 04/01 Q0995=
202403021950 METAR EGKK 021950Z 20003KT CAVOK 04/01 Q0995=
202403022020 METAR EGKK 022020Z 16003KT CAVOK 04/01 Q0995=
202403022050 METAR EGKK 022050Z VRB02KT CAVOK 03/01 Q0995=
202403022120 METAR EGKK 022120Z 22004KT CAVOK 03/01 Q0995=
202403022150 METAR EGKK 022150Z 22004KT CAVOK 03/01 Q0995=
202403022220 METAR EGKK 022220Z VRB01KT CAVOK 02/01 Q0996=
202403022250 METAR EGKK 022250Z VRB02KT CAVOK 02/01 Q0996=
202403022320 METAR EGKK 022320Z 25002KT CAVOK 02/01 Q0996=
202403022350 METAR EGKK 022350Z 10002KT CAVOK 02/01 Q0996=
202403030020 METAR EGKK 030020Z 10003KT CAVOK 01/01 Q0996=
202403030050 METAR EGKK 030050Z 21001KT CAVOK 01/01 Q0997=
202403030120 METAR EGKK 030120Z VRB02KT CAVOK 00/M00 Q0997=
202403030150 METAR EGKK 030150Z VRB01KT CAVOK 00/M00 Q0997=
202403030220 METAR EGKK 030220Z 10001KT CAVOK 01/00 Q0997=
202403030250 METAR EGKK 030250Z 00000KT CAVOK 00/M00 Q0998=
202403030320 METAR EGKK 030320Z VRB01KT CAVOK M00/M01 Q0998=
202403030350 METAR EGKK 030350Z 24001KT CAVOK M00/M01 Q0998=
202403030420 METAR EGKK 030420Z 25002KT CAVOK M01/M01 Q0998=
202403030450 METAR EGKK 030450Z 19001KT CAVOK M00/M01 Q0998=
202403030520 METAR EGKK 030520Z 19001KT 9999 7000W VCFG NSC M01/M01 Q0999=
202403030550 METAR EGKK 030550Z VRB01KT 9000 3500W VCFG NSC M01/M01 Q0999=
202403030620 METAR EGKK 030620Z 16001KT 8000 3900SW MIFG NSC M01/M01 Q0999=
202403030650 METAR EGKK 030650Z 17002KT 8000 1500W VCFG NSC M01/M01 Q1000=
202403030720 METAR EGKK 030720Z 25002KT 6000 1500W PRFG FEW001 M01/M01 Q1000=
202403030750 METAR EGKK 030750Z 00000KT 6000 VCFG FEW001 M01/M01 Q1001=
202403030820 METAR EGKK 030820Z 21001KT 7000 VCFG NSC 00/M00 Q1001=
202403030850 METAR EGKK 030850Z VRB02KT 8000 VCFG NSC 01/01 Q1001=
202403030920 METAR EGKK 030920Z VRB01KT 9000 VCFG NSC 02/01 Q1001=
202403030950 METAR EGKK 030950Z VRB01KT CAVOK 04/03 Q1002=
202403031020 METAR EGKK 031020Z VRB02KT 9999 FEW014 06/03 Q1002=
202403031050 METAR EGKK 031050Z 32004KT 280V350 9999 FEW016 06/03 Q1002=
202403031120 METAR EGKK 031120Z 30003KT 260V330 9999 FEW016 07/03 Q1002=
202403031150 METAR EGKK 031150Z 32004KT 250V020 9999 FEW022 08/03 Q1003=
202403031220 METAR EGKK 031220Z 31005KT 270V350 9999 FEW022 09/03 Q1003=
202403031250 METAR EGKK 031250Z 29006KT 220V020 9999 FEW030 09/02 Q1003=
202403031320 METAR EGKK 031320Z 25007KT 9999 FEW033 09/01 Q1003=
202403031350 METAR EGKK 031350Z 27007KT 240V310 9999 FEW032 10/02 Q1003=
202403031420 METAR EGKK 031420Z 32007KT 280V350 9999 FEW036 09/01 Q1003=
202403031450 METAR EGKK 031450Z 31006KT 9999 FEW042 09/01 Q1004=
202403031520 METAR EGKK 031520Z 30005KT 260V340 9999 FEW045 10/00 Q1004=
202403031550 METAR EGKK 031550Z 26006KT 240V300 9999 FEW042 09/01 Q1004=
202403031620 METAR EGKK 031620Z 30005KT 270V340 9999 FEW039 10/01 Q1004=
202403031650 METAR EGKK 031650Z 30004KT 240V360 9999 FEW040 10/M00 Q1005=
202403031720 METAR EGKK 031720Z 25005KT 9999 FEW047 09/M00 Q1005=
202403031750 METAR EGKK 031750Z 23003KT CAVOK 08/M00 Q1006=
202403031820 METAR EGKK 031820Z VRB02KT CAVOK 08/M00 Q1006=
202403031850 METAR EGKK 031850Z 21003KT CAVOK 07/02 Q1007=
202403031920 METAR EGKK 031920Z 21002KT CAVOK 06/02 Q1007=
202403031950 METAR EGKK 031950Z 17001KT CAVOK 05/02 Q1007=
202403032020 METAR EGKK 032020Z 21003KT CAVOK 04/02 Q1008=
202403032050 METAR EGKK 032050Z 19003KT CAVOK 04/02 Q1008=
202403032120 METAR EGKK 032120Z 19002KT CAVOK 03/02 Q1008=
202403032150 METAR EGKK 032150Z 18002KT CAVOK 03/02 Q1008=
202403032220 METAR EGKK 032220Z VRB01KT CAVOK 03/02 Q1009=
202403032250 METAR EGKK 032250Z 16003KT CAVOK 02/01 Q1009=
202403032320 METAR EGKK 032320Z 09002KT CAVOK 02/01 Q1009=
202403032350 METAR EGKK 032350Z 12002KT CAVOK 01/01 Q1009=
202403040020 METAR EGKK 040020Z 06001KT CAVOK 01/M00 Q1009=
202403040050 METAR EGKK 040050Z 10002KT CAVOK 01/01 Q1009=
202403040120 METAR EGKK 040120Z 13001KT 9999 FEW020 00/M00 Q1009=
202403040150 METAR EGKK 040150Z VRB01KT CAVOK 00/M00 Q1009=
202403040220 METAR EGKK 040220Z 26002KT 9999 FEW036 M01/M01 Q1009=
202403040250 METAR EGKK 040250Z 07004KT 9999 SCT032 00/M00 Q1009=
202403040320 METAR COR EGKK 040320Z 07003KT 9999 VCFG SCT032 00/M00 Q1009=
202403040350 METAR EGKK 040350Z 07003KT 020V090 9000 VCFG SCT032 01/00 Q1009=
202403040420 METAR EGKK 040420Z 08003KT 8000 VCFG SCT022 01/00 Q1009=
202403040450 METAR EGKK 040450Z 09003KT 9000 VCFG SCT017 01/00 Q1009=
202403040520 METAR EGKK 040520Z 08004KT 9999 FEW018 M00/M00 Q1009=
202403040550 METAR EGKK 040550Z 08004KT 9000 FEW014 00/M00 Q1009=
202403040620 METAR EGKK 040620Z 08003KT 5000 1200E BR PRFG FEW013 M01/M01 Q1010=
202403040650 METAR COR EGKK 040650Z 09003KT 5000 2000E BR VCFG FEW002 M01/M01 Q1010=
202403040720 METAR EGKK 040720Z 08004KT 3000 1400E R26L/P1500N BCFG FEW002 M01/M01 Q1010=
202403040750 METAR EGKK 040750Z 08003KT 2500 BCFG FEW003 00/00 Q1010=
202403040820 METAR EGKK 040820Z 08002KT 4000 VCFG FEW021 02/02 Q1010=
202403040850 METAR EGKK 040850Z 09003KT 9999 VCFG FEW022 03/03 Q1010=
202403040920 METAR EGKK 040920Z 08003KT 9999 FEW015 05/04 Q1010=
202403040950 METAR EGKK 040950Z VRB02KT 9999 BKN012 09/06 Q1010=
202403041020 METAR EGKK 041020Z 19008KT 150V230 9999 SCT015 09/05 Q1009=
202403041050 METAR EGKK 041050Z 17009KT 140V200 9999 FEW023 10/04 Q1009=
202403041120 METAR EGKK 041120Z 19009KT 150V210 9999 BKN031 10/03 Q1009=
202403041150 METAR EGKK 041150Z 18010KT 140V220 9999 SCT031 10/02 Q1009=
202403041220 METAR EGKK 041220Z 17011KT 140V200 9999 FEW038 10/00 Q1009=
202403041250 METAR EGKK 041250Z 16010KT 120V200 9999 FEW037 10/01 Q1009=
202403041320 METAR EGKK 041320Z 17012KT 130V200 9999 FEW037 10/01 Q1009=
202403041350 METAR EGKK 041350Z 17011KT 140V200 9999 FEW035 10/M00 Q1008=
202403041420 METAR COR EGKK 041420Z 17010KT 120V200 9999 FEW030 10/M01 Q1008=
202403041450 METAR EGKK 041450Z 16011KT 9999 FEW030 09/M00 Q1008=
202403041520 METAR EGKK 041520Z 15010KT 110V180 9999 FEW032 09/01 Q1007=
202403041550 METAR EGKK 041550Z 14009KT 110V170 9999 FEW028 09/02 Q1007=
202403041620 METAR EGKK 041620Z 14009KT 9999 FEW028 09/02 Q1007=
202403041650 METAR EGKK 041650Z 14009KT CAVOK 09/02 Q1007=
202403041720 METAR EGKK 041720Z 14008KT 110V170 CAVOK 09/03 Q1007=
202403041750 METAR EGKK 041750Z 14007KT 110V170 CAVOK 09/02 Q1007=
202403041820 METAR EGKK 041820Z 14007KT 110V180 CAVOK 09/02 Q1007=
202403041850 METAR EGKK 041850Z 17007KT 130V220 9999 -RA SCT023 09/03 Q1007=
202403041920 METAR EGKK 041920Z 19009KT 9999 -RA FEW025 SCT029 07/04 Q1008=
202403041950 METAR EGKK 041950Z 18011G21KT 9999 -RA FEW019 SCT029 06/04 Q1008=
202403042020 METAR EGKK 042020Z 16009KT 130V190 9999 -RA FEW020 SCT030 06/04 Q1008=
202403042050 METAR EGKK 042050Z 16008KT 140V200 7000 -RA FEW014 SCT020 BKN030 06/04 Q1008=
202403042120 METAR EGKK 042120Z 15009KT 9000 -RA FEW011 SCT018 BKN023 06/05 Q1008=
202403042150 METAR EGKK 042150Z 15007KT 7000 -RA FEW012 SCT019 BKN045 06/05 Q1008=
202403042220 METAR EGKK 042220Z 15007KT 120V180 4000 -DZRA FEW007 BKN012 06/05 Q1008=
202403042250 METAR EGKK 042250Z 14006KT 120V190 5000 -DZRA BKN007 06/05 Q1008=
202403042320 METAR EGKK 042320Z 14006KT 110V170 7000 -RA BKN006 06/05 Q1008=
202403042350 METAR EGKK 042350Z 14005KT 110V200 5000 -DZRA BKN005 06/06 Q1008=
202403050020 METAR EGKK 050020Z 14006KT 100V180 5000 -RADZ BKN004 06/06 Q1008=
202403050050 METAR EGKK 050050Z 14004KT 4200 -RADZ BKN004 06/06 Q1008=
202403050120 METAR EGKK 050120Z 14004KT 100V180 6000 -DZ FEW003 BKN006 07/06 Q1008=
202403050150 METAR EGKK 050150Z 15003KT 110V180 9999 -DZ FEW004 BKN008 07/06 Q1008=
202403050220 METAR EGKK 050220Z 13004KT 9999 SCT007 BKN020 07/06 Q1008=
202403050250 METAR EGKK 050250Z 11003KT 9999 SCT008 BKN028 07/06 Q1008=
202403050320 METAR EGKK 050320Z 11002KT 9999 FEW008 BKN027 07/06 Q1008=
202403050350 METAR EGKK 050350Z 05002KT 8000 -RADZ FEW019 BKN025 07/06 Q1008=
202403050420 METAR EGKK 050420Z 07004KT 7000 -RA FEW004 SCT007 BKN018 06/06 Q1008=
202403050450 METAR EGKK 050450Z 09004KT 8000 -RA FEW018 BKN038 06/06 Q1009=
202403050520 METAR EGKK 050520Z 07002KT 7000 -RA FEW003 BKN031 06/06 Q1009=
202403050550 METAR EGKK 050550Z 09003KT 8000 -RA SCT003 SCT026 BKN031 06/06 Q1009=
202403050620 METAR EGKK 050620Z 07003KT 7000 -RA FEW002 SCT020 BKN034 06/06 Q1009=
202403050650 METAR EGKK 050650Z 09003KT 7000 -RADZ SCT002 SCT009 BKN027 06/06 Q1010=
202403050720 METAR EGKK 050720Z 09003KT 9999 -DZ FEW003 SCT008 06/06 Q1010=
202403050750 METAR EGKK 050750Z 07003KT 9999 FEW006 SCT037 07/07 Q1010=
202403050820 METAR EGKK 050820Z 10004KT 080V150 9999 FEW003 BKN036 BKN046 07/07 Q1010=
202403050850 METAR EGKK 050850Z VRB01KT 9999 -RA BKN044 07/07 Q1011=
202403050920 METAR EGKK 050920Z VRB01KT 9999 -DZ SCT034 08/07 Q1011=
202403050950 METAR EGKK 050950Z 30004KT 260V340 9999 FEW005 BKN031 08/07 Q1012=
202403051020 METAR EGKK 051020Z 30005KT 270V330 9999 FEW008 BKN011 BKN015 08/06 Q1012=
202403051050 METAR EGKK 051050Z VRB02KT 9999 SCT012 SCT029 BKN039 09/07 Q1012=
202403051120 METAR EGKK 051120Z 26003KT 230V320 9999 SCT011 BKN040 09/07 Q1012=
202403051150 METAR EGKK 051150Z VRB02KT 9999 SCT013 SCT027 09/06 Q1012=
202403051220 METAR EGKK 051220Z 30006KT 9999 -RA FEW015 BKN020 BKN029 08/06 Q1013=
202403051250 METAR EGKK 051250Z 28006KT 9999 SCT018 SCT026 08/05 Q1013=
202403051320 METAR EGKK 051320Z 23002KT 9999 VCSH SCT013 BKN029 08/06 Q1013=
202403051350 METAR EGKK 051350Z 20003KT 9999 VCSH SCT012 BKN027 08/07 Q1013=
202403051420 METAR EGKK 051420Z 27004KT 240V340 8000 -RADZ FEW008 SCT012 BKN017 08/07 Q1013=
202403051450 METAR EGKK 051450Z 24006KT 9999 -RA SCT018 SCT024 BKN030 07/06 Q1014=
202403051520 METAR EGKK 051520Z 22006KT 9999 VCSH FEW015 SCT020 07/07 Q1014=
202403051550 METAR EGKK 051550Z 23005KT 6000 SCT022 SCT027 07/07 Q1014=
202403051620 METAR EGKK 051620Z 29004KT 250V330 9999 -RA FEW017 SCT024 BKN032 08/07 Q1014=
202403051650 METAR EGKK 051650Z 30004KT 270V350 9999 VCSH FEW005 SCT036 08/07 Q1015=
202403051720 METAR EGKK 051720Z 34004KT 310V020 9999 FEW021 SCT032 08/07 Q1015=
202403051750 METAR EGKK 051750Z 03006KT 340V070 9999 FEW010 SCT032 08/05 Q1015=
202403051820 METAR EGKK 051820Z 33004KT 9999 FEW010 08/05 Q1016=
202403051850 METAR EGKK 051850Z 33004KT 300V360 CAVOK 08/05 Q1016=
202403051920 METAR EGKK 051920Z 31004KT CAVOK 07/05 Q1016=
202403051950 METAR EGKK 051950Z 31004G15KT 240V350 CAVOK 07/05 Q1016=
202403052020 METAR EGKK 052020Z 30003KT CAVOK 06/04 Q1016=
202403052050 METAR EGKK 052050Z VRB03KT CAVOK 06/04 Q1017=
202403052120 METAR EGKK 052120Z VRB02KT CAVOK 06/04 Q1017=
202403052150 METAR EGKK 052150Z VRB02KT 9999 SCT019 05/04 Q1017=
202403052220 METAR EGKK 052220Z 25001KT 9999 BKN017 05/04 Q1017=
202403052250 METAR EGKK 052250Z VRB01KT 9999 SCT016 04/03 Q1017=
202403052320 METAR EGKK 052320Z VRB01KT 9999 SCT016 04/03 Q1018=
202403052350 METAR EGKK 052350Z 30002KT 9999 FEW014 BKN016 04/04 Q1018=
202403060020 METAR EGKK 060020Z VRB02KT 9999 BKN026 04/04 Q1018=
202403060050 METAR EGKK 060050Z 30002KT 9000 FEW026 04/03 Q1018=
202403060120 METAR EGKK 060120Z VRB02KT 8000 NSC 04/03 Q1018=
202403060150 METAR EGKK 060150Z 22002KT 6000 NSC 03/03 Q1018=
202403060220 METAR EGKK 060220Z VRB02KT 4000 BR NSC 02/02 Q1018=
202403060250 METAR EGKK 060250Z 16001KT 2000 BR BCFG FEW003 02/01 Q1018=
202403060320 METAR COR EGKK 060320Z 29002KT 0700 R26L/P1500U FG FEW002 01/01 Q1018=
202403060350 METAR EGKK 060350Z 27004KT 0000 R26L/0300D FG VV/// 02/01 Q1018=
202403060420 METAR EGKK 060420Z VRB02KT 0050 R26L/0375N FG VV/// 03/02 Q1018=
202403060450 METAR EGKK 060450Z 29001KT 0100 R26L/0450N FG VV/// 03/03 Q1019=
202403060520 METAR EGKK 060520Z 31003KT 0150 R26L/0500N FG VV/// 03/03 Q1019=
202403060550 METAR EGKK 060550Z 35003KT 290V080 0100 R26L/0450N FG VV/// 03/03 Q1019=
202403060620 METAR EGKK 060620Z VRB02KT 0150 R26L/0600U FG VV/// 04/04 Q1019=
202403060650 METAR EGKK 060650Z VRB02KT 0250 R26L/0700D FG VV/// 04/04 Q1020=
202403060720 METAR EGKK 060720Z 05004KT 020V100 0200 R26L/0800N FG VV/// 04/04 Q1020=
202403060750 METAR EGKK 060750Z VRB02KT 0400 R26L/1100N FG VV/// 04/04 Q1020=
202403060820 METAR EGKK 060820Z 08003KT 0300 R26L/1000U FG VV/// 04/04 Q1020=
202403060850 METAR EGKK 060850Z 08005KT 1500 R26L/1300U BR VCFG OVC001 05/05 Q1021=
202403060920 METAR EGKK 060920Z 10005KT 060V140 2300 BR BKN003 06/06 Q1021=
202403060950 METAR EGKK 060950Z 07004KT 010V130 3000 BR VCFG BKN005 06/06 Q1021=
202403061020 METAR EGKK 061020Z 08004KT 020V120 5000 BR VCFG BKN005 07/06 Q1021=
202403061050 METAR EGKK 061050Z 05003KT 340V100 7000 VCFG BKN006 07/07 Q1021=
202403061120 METAR EGKK 061120Z 11003KT 060V210 7000 BKN009 08/06 Q1021=
202403061150 METAR EGKK 061150Z VRB02KT 9000 SCT012 09/06 Q1021=
202403061220 METAR EGKK 061220Z 04004KT 350V140 9999 SCT018 10/06 Q1021=
202403061250 METAR EGKK 061250Z 05004KT 020V080 9999 SCT020 10/06 Q1021=
202403061320 METAR EGKK 061320Z 13005KT 9999 SCT023 SCT028 10/05 Q1021=
202403061350 METAR EGKK 061350Z 10003KT 080V140 9999 SCT028 10/05 Q1021=
202403061420 METAR EGKK 061420Z 09002KT 9999 FEW030 10/05 Q1021=
202403061450 METAR EGKK 061450Z 14003KT 070V190 9999 FEW030 10/05 Q1021=
202403061520 METAR EGKK 061520Z VRB01KT 9999 FEW030 10/04 Q1021=
202403061550 METAR EGKK 061550Z 09003KT 070V130 9999 SCT035 10/05 Q1021=
202403061620 METAR EGKK 061620Z 15005KT 9999 FEW027 10/06 Q1021=
202403061650 METAR EGKK 061650Z 12003KT 090V150 9999 VCSH SCT022 09/05 Q1022=
202403061720 METAR EGKK 061720Z VRB01KT 9999 SCT024 09/06 Q1022=
202403061750 METAR EGKK 061750Z 13003KT 9999 FEW025 08/05 Q1022=
202403061820 METAR EGKK 061820Z 13003KT 9999 VCFG FEW012 08/05 Q1022=
202403061850 METAR EGKK 061850Z 13003KT 9999 MIFG NSC 07/05 Q1022=
202403061920 METAR EGKK 061920Z 18001KT 9999 MIFG NSC 06/04 Q1023=
202403061950 METAR EGKK 061950Z 09002KT 9999 MIFG NSC 05/04 Q1023=
202403062020 METAR EGKK 062020Z 07003KT CAVOK 05/04 Q1023=
202403062050 METAR EGKK 062050Z 08004KT CAVOK 04/03 Q1023=
202403062120 METAR EGKK 062120Z 08006KT CAVOK 02/02 Q1023=
202403062150 METAR EGKK 062150Z 10004KT CAVOK 04/03 Q1023=
202403062220 METAR EGKK 062220Z 06004KT CAVOK 03/03 Q1023=
202403062250 METAR EGKK 062250Z 08004KT CAVOK 03/03 Q1023=
202403062320 METAR EGKK 062320Z 07005KT 9999 8000S NSC 02/02 Q1023=
202403062350 METAR EGKK 062350Z 09005KT 7000 NSC 02/02 Q1023=
202403070020 METAR COR EGKK 070020Z 07005KT 0400 R08R/0650N FG VV/// 03/03 Q1023=
202403070050 METAR EGKK 070050Z 06006KT 0150 R08R/0550N FG VV/// 04/03 Q1023=
202403070120 METAR EGKK 070120Z 08006KT 0150 R08R/0500N FG VV/// 04/03 Q1023=
202403070150 METAR EGKK 070150Z 09005KT 0100 R08R/0400N FG VV/// 04/04 Q1023=
202403070220 METAR EGKK 070220Z 08007KT 0150 R08R/0550N FG VV/// 04/04 Q1023=
202403070250 METAR EGKK 070250Z 06008KT 0100 R08R/0600N FG VV/// 04/04 Q1022=
202403070320 METAR EGKK 070320Z 09008KT 0900 R08R/1400U FG BKN001 04/04 Q1022=
202403070350 METAR EGKK 070350Z 09005KT 0500 R08R/P1500N FG VV/// 04/04 Q1022=
202403070420 METAR EGKK 070420Z 05005KT 0300 R08R/1000U FG VV/// 04/04 Q1022=
202403070450 METAR EGKK 070450Z 06005KT 0100 R08R/1000D FG VV/// 04/04 Q1022=
202403070520 METAR EGKK 070520Z 06006KT 0200 R08R/0800N FG VV/// 04/04 Q1022=
202403070550 METAR EGKK 070550Z 06005KT 0900 R08R/P1500U FG VV/// 04/04 Q1022=
202403070620 METAR EGKK 070620Z 07005KT 1500 BR VCFG BKN003 05/05 Q1022=
202403070650 METAR EGKK 070650Z 06004KT 1500 BR BCFG BKN004 04/04 Q1022=
202403070720 METAR EGKK 070720Z 08008KT 2500 BR VCFG BKN004 05/05 Q1022=
202403070750 METAR EGKK 070750Z 06007KT 2000 BR VCFG BKN004 05/05 Q1022=
202403070820 METAR EGKK 070820Z 07006KT 2500 BR VCFG BKN003 05/05 Q1022=
202403070850 METAR EGKK 070850Z 07005KT 2000 BR VCFG BKN003 05/05 Q1021=
202403070920 METAR EGKK 070920Z 06006KT 2500 BR VCFG SCT004 BKN041 05/05 Q1021=
202403070950 METAR EGKK 070950Z 05007KT 4000 BR VCFG BKN042 07/06 Q1021=
202403071020 METAR EGKK 071020Z 05009KT 4900 BR VCFG BKN043 07/06 Q1021=
202403071050 METAR EGKK 071050Z 07008KT 6000 VCFG FEW013 BKN049 08/06 Q1020=
202403071120 METAR EGKK 071120Z 07009KT 6000 VCFG FEW012 09/07 Q1020=
202403071150 METAR EGKK 071150Z 07011KT 6000 VCFG BKN013 09/07 Q1020=
202403071220 METAR EGKK 071220Z 08010KT 6000 SCT014 09/07 Q1019=
202403071250 METAR EGKK 071250Z 07013KT 9000 FEW024 10/06 Q1019=
202403071320 METAR EGKK 071320Z 08013KT 9999 FEW022 10/06 Q1018=
202403071350 METAR EGKK 071350Z 07013KT 040V100 9999 SCT025 10/06 Q1018=
202403071420 METAR EGKK 071420Z 07013KT 9999 SCT026 10/05 Q1017=
202403071450 METAR EGKK 071450Z 07013KT 9999 SCT029 11/06 Q1017=
202403071520 METAR EGKK 071520Z 05014KT 9999 SCT025 10/06 Q1017=
202403071550 METAR EGKK 071550Z 06015KT 9999 SCT023 10/06 Q1017=
202403071620 METAR EGKK 071620Z 07014KT 9999 FEW022 09/05 Q1016=
202403071650 METAR EGKK 071650Z 06013KT 9999 FEW021 09/05 Q1016=
202403071720 METAR EGKK 071720Z 06011KT 9999 FEW020 08/04 Q1016=
202403071750 METAR EGKK 071750Z 06012KT 9999 SCT019 07/04 Q1016=
202403071820 METAR EGKK 071820Z 06010KT 8000 SCT020 07/04 Q1016=
202403071850 METAR EGKK 071850Z 07015KT 9999 BKN020 07/03 Q1016=
202403071920 METAR EGKK 071920Z 07009KT 9999 BKN019 06/03 Q1016=
202403071950 METAR EGKK 071950Z 06009KT 9999 BKN024 06/04 Q1016=
202403072020 METAR EGKK 072020Z 06011KT 9999 SCT024 06/03 Q1015=
202403072050 METAR EGKK 072050Z 06011KT 030V100 8000 FEW024 06/03 Q1015=
202403072120 METAR EGKK 072120Z 06010KT 8000 NSC 06/03 Q1015=
202403072150 METAR EGKK 072150Z 06009KT 8000 NSC 05/03 Q1015=
202403072220 METAR EGKK 072220Z 06009KT 9000 NSC 05/03 Q1014=
202403072250 METAR EGKK 072250Z 06009KT 8000 NSC 05/03 Q1014=
202403072320 METAR EGKK 072320Z 06008KT 9000 NSC 05/03 Q1014=
202403072350 METAR EGKK 072350Z 07005KT 7000 NSC 04/02 Q1013=
202403080020 METAR EGKK 080020Z 06006KT 7000 NSC 03/02 Q1013=
202403080050 METAR EGKK 080050Z 06006KT 6000 NSC 03/02 Q1013=
202403080120 METAR EGKK 080120Z 07006KT 6000 NSC 03/02 Q1012=
202403080150 METAR EGKK 080150Z 07007KT 6000 NSC 04/02 Q1012=
202403080220 METAR EGKK 080220Z 07008KT 6000 NSC 04/03 Q1012=
202403080250 METAR EGKK 080250Z 06007KT 6000 NSC 03/02 Q1011=
202403080320 METAR EGKK 080320Z 06006KT 6000 NSC 03/02 Q1011=
202403080350 METAR EGKK 080350Z 07007KT 7000 NSC 03/02 Q1010=
202403080420 METAR EGKK 080420Z 06007KT 8000 NSC 03/02 Q1010=
202403080450 METAR EGKK 080450Z 07005KT 8000 NSC 02/01 Q1010=
202403080520 METAR EGKK 080520Z 07005KT 8000 NSC 02/01 Q1009=
202403080550 METAR EGKK 080550Z 07006KT 8000 NSC 02/01 Q1009=
202403080620 METAR EGKK 080620Z 07007KT 9000 NSC 02/01 Q1009=
202403080650 METAR EGKK 080650Z 07009KT 8000 NSC 03/02 Q1009=
202403080720 METAR EGKK 080720Z 07008KT 9000 NSC 03/02 Q1009=
202403080750 METAR EGKK 080750Z 06008KT 9000 NSC 04/02 Q1009=
202403080820 METAR EGKK 080820Z 07009KT 9000 NSC 05/03 Q1008=
202403080850 METAR EGKK 080850Z 07011KT 9999 FEW018 06/03 Q1008=
202403080920 METAR EGKK 080920Z 07012KT 9999 FEW017 07/04 Q1008=
202403080950 METAR EGKK 080950Z 07013KT 9999 FEW018 07/04 Q1007=
202403081020 METAR EGKK 081020Z 07014KT 9999 FEW020 08/03 Q1006=
202403081050 METAR EGKK 081050Z 08015KT 9999 FEW025 08/03 Q1006=
202403081120 METAR EGKK 081120Z 08013KT CAVOK 09/03 Q1006=
202403081150 METAR EGKK 081150Z 07014KT CAVOK 10/03 Q1005=
202403081220 METAR EGKK 081220Z 08012KT 9999 FEW028 10/02 Q1005=
202403081250 METAR EGKK 081250Z 07014KT 9999 FEW025 10/02 Q1004=
202403081320 METAR EGKK 081320Z 08015KT CAVOK 10/02 Q1004=
202403081350 METAR EGKK 081350Z 07014KT 9999 FEW034 10/03 Q1004=
202403081420 METAR EGKK 081420Z 06014KT 9999 FEW031 10/03 Q1003=
202403081450 METAR EGKK 081450Z 06015KT 9999 FEW026 09/03 Q1003=
202403081520 METAR EGKK 081520Z 06014KT 9999 SCT024 08/03 Q1003=
202403081550 METAR EGKK 081550Z 06012KT 9999 SCT024 09/04 Q1002=
202403081620 METAR EGKK 081620Z 05013KT 9999 SCT022 08/03 Q1002=
202403081650 METAR EGKK 081650Z 06013KT 9999 SCT022 07/03 Q1002=
202403081720 METAR EGKK 081720Z 06011KT 9000 FEW022 07/03 Q1002=
202403081750 METAR EGKK 081750Z 06010KT 9000 NSC 07/03 Q1002=
202403081820 METAR EGKK 081820Z 06009KT 8000 FEW034 06/03 Q1002=
202403081850 METAR EGKK 081850Z 06010KT 9000 SCT042 06/03 Q1001=
202403081920 METAR EGKK 081920Z 06009KT 9999 FEW042 06/03 Q1001=
202403081950 METAR EGKK 081950Z 08005KT CAVOK 05/02 Q1001=
202403082020 METAR EGKK 082020Z 07007KT CAVOK 05/02 Q1000=
202403082050 METAR EGKK 082050Z 07006G17KT 030V130 CAVOK 04/02 Q1000=
202403082120 METAR EGKK 082120Z 06004KT CAVOK 05/02 Q1000=
202403082150 METAR EGKK 082150Z 07006KT 9999 FEW048 05/03 Q0999=
202403082220 METAR EGKK 082220Z 07006KT 9999 FEW048 05/03 Q0999=
202403082250 METAR EGKK 082250Z 07005KT CAVOK 04/02 Q0998=
202403082320 METAR EGKK 082320Z 07006KT CAVOK 04/03 Q0998=
202403082350 METAR EGKK 082350Z 07008KT CAVOK 05/03 Q0997=
202403090020 METAR EGKK 090020Z 07009KT CAVOK 06/03 Q0997=
202403090050 METAR EGKK 090050Z 07008KT CAVOK 06/03 Q0997=
202403090120 METAR EGKK 090120Z 07009KT CAVOK 06/03 Q0996=
202403090150 METAR EGKK 090150Z 07007KT CAVOK 06/03 Q0996=
202403090220 METAR EGKK 090220Z 08006KT 9999 FEW040 06/03 Q0996=
202403090250 METAR EGKK 090250Z 07006KT 9999 SCT042 06/04 Q0996=
202403090320 METAR EGKK 090320Z 07005KT 9999 SCT041 06/04 Q0995=
202403090350 METAR EGKK 090350Z 09007KT 9999 FEW023 SCT041 08/05 Q0995=
202403090420 METAR EGKK 090420Z 11008KT 9999 BKN017 09/05 Q0995=
202403090450 METAR EGKK 090450Z 11007KT 060V140 9999 BKN015 09/06 Q0995=
202403090520 METAR EGKK 090520Z 13007KT 090V160 9999 BKN017 08/05 Q0995=
202403090550 METAR EGKK 090550Z 12007KT 9999 FEW016 SCT027 08/04 Q0995=
202403090620 METAR EGKK 090620Z 10005KT 9999 FEW016 07/04 Q0995=
202403090650 METAR EGKK 090650Z 10007KT 9999 FEW016 06/04 Q0995=
202403090720 METAR EGKK 090720Z 10008KT CAVOK 07/04 Q0995=
202403090750 METAR EGKK 090750Z 09008KT CAVOK 07/05 Q0995=
202403090820 METAR EGKK 090820Z 09007KT CAVOK 08/05 Q0995=
202403090850 METAR EGKK 090850Z 08007KT CAVOK 08/05 Q0995=
202403090920 METAR EGKK 090920Z 09008KT CAVOK 09/05 Q0995=
202403090950 METAR EGKK 090950Z 10006KT 070V130 CAVOK 09/06 Q0995=
202403091020 METAR EGKK 091020Z 10008KT 070V140 9999 FEW022 11/06 Q0995=
202403091050 METAR EGKK 091050Z 09012KT 9999 FEW026 12/06 Q0994=
202403091120 METAR EGKK 091120Z 11013KT 070V140 9999 FEW030 12/05 Q0994=
202403091150 METAR EGKK 091150Z 09013KT 9999 FEW030 12/06 Q0994=
202403091220 METAR EGKK 091220Z 11012KT 9999 FEW030 12/05 Q0993=
202403091250 METAR EGKK 091250Z 10014KT 9999 SCT031 12/05 Q0993=
202403091320 METAR EGKK 091320Z 08012KT 9999 SCT032 13/06 Q0993=
202403091350 METAR EGKK 091350Z 09013KT 9999 SCT035 12/05 Q0993=
202403091420 METAR EGKK 091420Z 09011KT 9999 SCT032 12/05 Q0993=
202403091450 METAR EGKK 091450Z 11011KT 9999 SCT032 11/05 Q0993=
202403091520 METAR EGKK 091520Z 09011KT 9999 FEW032 11/05 Q0992=
202403091550 METAR EGKK 091550Z 10013KT 9999 FEW031 11/05 Q0992=
202403091620 METAR EGKK 091620Z 09013KT 9999 FEW031 11/05 Q0992=
202403091650 METAR EGKK 091650Z 10010KT 9999 FEW030 11/05 Q0992=
202403091720 METAR EGKK 091720Z 09007KT 9999 FEW034 10/05 Q0992=
202403091750 METAR EGKK 091750Z 08007KT 9999 FEW042 10/05 Q0992=
202403091820 METAR EGKK 091820Z 08006KT 9999 FEW035 10/05 Q0992=
202403091850 METAR EGKK 091850Z 07006KT CAVOK 10/05 Q0992=
202403091920 METAR EGKK 091920Z 08005KT 9999 SCT028 09/06 Q0992=
202403091950 METAR EGKK 091950Z 10005KT 9999 -RA BKN030 09/07 Q0992=
202403092020 METAR EGKK 092020Z 07004KT 9999 -RA SCT033 08/07 Q0992=
202403092050 METAR EGKK 092050Z 07004KT 9999 SCT035 07/06 Q0992=
202403092120 METAR EGKK 092120Z 07005KT 9999 FEW035 07/06 Q0992=
202403092150 METAR EGKK 092150Z 10003KT CAVOK 08/07 Q0992=
202403092220 METAR EGKK 092220Z 07003KT CAVOK 07/06 Q0992=
202403092250 METAR EGKK 092250Z 08005KT 9999 -RA SCT048 08/07 Q0992=
202403092320 METAR EGKK 092320Z 08004KT 9999 BKN032 08/07 Q0992=
202403092350 METAR EGKK 092350Z 11004KT 9999 -RA BKN041 08/07 Q0992=
202403100020 METAR EGKK 100020Z NIL=
202403100050 METAR EGKK 100050Z 13003KT 8000 -RADZ BKN034 08/07 Q0992=
202403100120 METAR EGKK 100120Z NIL=
202403100150 METAR EGKK 100150Z 17004KT 150V220 9000 -RADZ FEW006 BKN024 08/08 Q0992=
202403100220 METAR EGKK 100220Z 15003KT 9999 FEW008 08/07 Q0992=
202403100250 METAR EGKK 100250Z 14003KT 9999 SCT007 BKN033 08/07 Q0992=
202403100320 METAR EGKK 100320Z 12005KT 9999 SCT006 SCT017 08/07 Q0992=
202403100350 METAR EGKK 100350Z 12004KT 080V150 9999 BKN007 08/07 Q0992=
202403100420 METAR EGKK 100420Z 11003KT 9999 BKN007 08/07 Q0993=
202403100450 METAR EGKK 100450Z 05005KT 9999 BKN007 08/07 Q0993=
202403100520 METAR EGKK 100520Z 07005KT 9999 BKN009 08/07 Q0992=
202403100550 METAR EGKK 100550Z 08006KT 9999 FEW006 SCT010 07/07 Q0993=
202403100620 METAR EGKK 100620Z 10004KT 9999 FEW010 BKN016 08/07 Q0993=
202403100650 METAR EGKK 100650Z 07005KT 8000 -RADZ BKN015 07/07 Q0994=
202403100720 METAR EGKK 100720Z 07004KT 9000 -DZ FEW021 BKN035 08/07 Q0994=
202403100750 METAR EGKK 100750Z 06004KT 9999 FEW006 BKN036 08/07 Q0994=
202403100820 METAR EGKK 100820Z 07004KT 9999 -DZ FEW004 BKN030 08/08 Q0994=
202403100850 METAR EGKK 100850Z 07006KT 9999 -RADZ FEW004 SCT010 BKN032 08/08 Q0994=
202403100920 METAR EGKK 100920Z 07005KT 9999 -RA FEW007 BKN040 08/08 Q0994=
202403100950 METAR EGKK 100950Z 08005KT 9999 -RA SCT008 08/08 Q0995=
202403101020 METAR EGKK 101020Z 05005KT 010V090 9999 -RA BKN006 09/08 Q0995=
202403101050 METAR EGKK 101050Z 03004KT 350V070 9999 -RADZ SCT007 BKN041 09/07 Q0995=
202403101120 METAR EGKK 101120Z 06004KT 360V160 9999 -RA SCT008 SCT033 09/08 Q0995=
202403101150 METAR EGKK 101150Z VRB04KT 9999 -RA FEW008 BKN017 09/08 Q0995=
202403101220 METAR EGKK 101220Z 02005KT 340V120 9999 -RA FEW008 BKN032 09/08 Q0995=
202403101250 METAR EGKK 101250Z 01004KT 350V090 9999 -RA FEW006 BKN029 09/08 Q0995=
202403101320 METAR EGKK 101320Z 03005KT 340V110 9999 -RA SCT008 BKN030 09/08 Q0995=
202403101350 METAR EGKK 101350Z 05005G15KT 360V090 9999 -RA BKN007 BKN013 09/08 Q0995=
202403101420 METAR EGKK 101420Z 04005KT 350V090 9999 -RA SCT008 SCT036 09/08 Q0995=
202403101450 METAR EGKK 101450Z 05003KT 340V080 9999 -RA SCT013 SCT046 09/06 Q0995=
202403101520 METAR EGKK 101520Z VRB01KT 9999 -RA SCT012 BKN038 09/08 Q0995=
202403101550 METAR EGKK 101550Z 21002KT 9999 -RA SCT012 BKN018 09/07 Q0995=
202403101620 METAR EGKK 101620Z 24003KT 9999 -RA SCT017 BKN032 09/07 Q0995=
202403101650 METAR EGKK 101650Z VRB01KT 9999 FEW017 BKN035 09/08 Q0996=
202403101720 METAR EGKK 101720Z 24003KT 9999 -RA FEW017 BKN040 09/07 Q0996=
202403101750 METAR EGKK 101750Z 24003KT 9999 -RA FEW015 BKN039 08/07 Q0996=
202403101820 METAR EGKK 101820Z 15002KT 9999 -RA FEW019 BKN028 08/08 Q0997=
202403101850 METAR EGKK 101850Z 13002KT 8000 -RA FEW014 SCT023 BKN036 08/08 Q0997=
202403101920 METAR EGKK 101920Z 13002KT 9999 -RA FEW011 SCT016 BKN035 08/08 Q0997=
202403101950 METAR EGKK 101950Z 13002KT 9999 -RA BKN010 08/08 Q0998=
202403102020 METAR EGKK 102020Z 11003KT 9999 SCT034 BKN043 08/08 Q0998=
202403102050 METAR EGKK 102050Z 13002KT 9999 FEW005 SCT012 BKN035 08/07 Q0998=
202403102120 METAR EGKK 102120Z VRB01KT 9999 FEW005 BKN035 08/07 Q0998=
202403102150 METAR EGKK 102150Z VRB02KT 9999 FEW006 SCT009 BKN028 08/07 Q0998=
202403102220 METAR EGKK 102220Z VRB01KT 7000 SCT006 BKN018 08/07 Q0998=
202403102250 METAR EGKK 102250Z 04003KT 350V060 7000 FEW003 BKN018 08/08 Q0999=
202403102320 METAR EGKK 102320Z VRB02KT 7000 SCT004 BKN036 08/07 Q0999=
202403102350 METAR EGKK 102350Z 26001KT 6000 SCT008 BKN015 08/07 Q0999=
202403110020 METAR EGKK 110020Z 35003KT 320V030 5000 -RA SCT006 BKN009 08/08 Q0999=
202403110050 METAR EGKK 110050Z 33004KT 5000 -RA BR SCT004 BKN010 08/07 Q0999=
202403110120 METAR EGKK 110120Z 31003KT 4000 -DZ SCT005 BKN010 08/07 Q1000=
202403110150 METAR EGKK 110150Z 33004KT 3500 -DZRA BKN005 BKN007 08/07 Q1000=
202403110220 METAR EGKK 110220Z 01004KT 4500 -RADZ BKN004 BKN006 08/07 Q1000=
202403110250 METAR EGKK 110250Z 36004KT 320V020 5000 -RADZ BKN004 BKN009 08/07 Q1000=
202403110320 METAR EGKK 110320Z 35005KT 3500 -RADZ BKN005 07/07 Q1000=
202403110350 METAR EGKK 110350Z 34005KT 4800 -RADZ BKN007 BKN011 07/07 Q1001=
202403110420 METAR EGKK 110420Z 34005KT 4500 HZ VCSH BKN009 07/06 Q1001=
202403110450 METAR EGKK 110450Z 30004KT 4000 -RA BKN012 07/06 Q1001=
202403110520 METAR EGKK 110520Z 28005KT 3600 HZ VCSH BKN009 07/06 Q1001=
202403110550 METAR EGKK 110550Z 29005KT 3300 BR BKN007 07/06 Q1002=
202403110620 METAR EGKK 110620Z 31007KT 3500 BR BKN007 07/06 Q1002=
202403110650 METAR EGKK 110650Z 31008KT 3000 BR BKN004 OVC006 07/07 Q1002=
202403110720 METAR EGKK 110720Z 31008KT 2600 BR BKN004 OVC005 07/07 Q1003=
202403110750 METAR EGKK 110750Z 31008KT 1500 BR BKN003 07/07 Q1003=
202403110820 METAR EGKK 110820Z 32009KT 2000 BR BKN004 07/07 Q1004=
202403110850 METAR EGKK 110850Z 33008KT 3600 BR BKN004 07/07 Q1004=
202403110920 METAR EGKK 110920Z 33009KT 310V010 3800 BR BKN005 07/07 Q1004=
202403110950 METAR EGKK 110950Z 33009KT 3900 BR BKN005 07/07 Q1005=
202403111020 METAR EGKK 111020Z 32008KT 3000 HZ BKN005 08/07 Q1005=
202403111050 METAR EGKK 111050Z 32009KT 3500 HZ BKN005 08/07 Q1005=
202403111120 METAR EGKK 111120Z 33008KT 280V360 4600 HZ BKN006 08/07 Q1006=
202403111150 METAR EGKK 111150Z 33010KT 300V360 4600 HZ BKN006 08/07 Q1006=
202403111220 METAR EGKK 111220Z 33010KT 300V010 4700 HZ BKN006 08/07 Q1007=
202403111250 METAR EGKK 111250Z 33007KT 4500 HZ BKN006 08/07 Q1007=
202403111320 METAR EGKK 111320Z 33009KT 5000 HZ BKN007 08/07 Q1007=
202403111350 METAR EGKK 111350Z 32009KT 5000 HZ BKN008 08/06 Q1007=
202403111420 METAR EGKK 111420Z 30007KT 6000 BKN010 08/06 Q1008=
202403111450 METAR EGKK 111450Z 32008KT 6000 BKN013 08/06 Q1008=
202403111520 METAR EGKK 111520Z 32007KT 7000 BKN013 08/06 Q1008=
202403111550 METAR EGKK 111550Z 31007KT 7000 BKN015 08/06 Q1009=
202403111620 METAR EGKK 111620Z 32007KT 7000 SCT015 BKN022 08/06 Q1009=
202403111650 METAR EGKK 111650Z 34008KT 310V020 8000 SCT016 BKN042 08/06 Q1009=
202403111720 METAR EGKK 111720Z 32005KT 8000 FEW017 BKN040 08/06 Q1010=
202403111750 METAR EGKK 111750Z 31005KT 9999 SCT016 BKN037 08/06 Q1010=
202403111820 METAR EGKK 111820Z 32005KT 280V340 8000 FEW020 BKN029 08/06 Q1011=
202403111850 METAR EGKK 111850Z 29005KT 8000 BKN018 BKN037 08/06 Q1011=
202403111920 METAR EGKK 111920Z 30003KT 270V330 8000 FEW017 BKN038 08/06 Q1011=
202403111950 METAR EGKK 111950Z 30005KT 8000 FEW018 BKN035 08/06 Q1011=
202403112020 METAR EGKK 112020Z 28005KT 7000 SCT018 BKN030 08/06 Q1012=
202403112050 METAR EGKK 112050Z 26003KT 7000 FEW018 SCT023 BKN033 08/06 Q1012=
202403112120 METAR EGKK 112120Z 25004KT 7000 BKN033 08/06 Q1012=
202403112150 METAR EGKK 112150Z 25004KT 7000 FEW019 BKN028 08/06 Q1012=
202403112220 METAR EGKK 112220Z 22002KT 7000 FEW018 BKN030 08/06 Q1012=
202403112250 METAR EGKK 112250Z 22003KT 7000 BKN033 07/06 Q1013=
202403112320 METAR EGKK 112320Z 17004KT 140V210 7000 BKN043 08/06 Q1013=
202403112350 METAR EGKK 112350Z 25004KT 6000 BKN044 07/06 Q1013=
202403120020 METAR EGKK 120020Z 18002KT 8000 BKN040 07/06 Q1013=
202403120050 METAR EGKK 120050Z 20002KT 8000 SCT033 BKN044 07/06 Q1013=
202403120120 METAR EGKK 120120Z 22003KT 9000 BKN043 07/06 Q1013=
202403120150 METAR EGKK 120150Z 21003KT 9999 FEW024 BKN042 07/06 Q1013=
202403120220 METAR EGKK 120220Z 22004KT 9999 FEW044 07/05 Q1013=
202403120250 METAR EGKK 120250Z 22003KT CAVOK 07/05 Q1013=
202403120320 METAR EGKK 120320Z 21003KT CAVOK 07/05 Q1013=
202403120350 METAR EGKK 120350Z 21003KT CAVOK 07/05 Q1012=
202403120420 METAR EGKK 120420Z 20004KT CAVOK 07/05 Q1012=
202403120450 METAR EGKK 120450Z 22004KT 9999 -RA BKN049 07/05 Q1012=
202403120520 METAR EGKK 120520Z 22005KT 8000 -RA BKN041 07/06 Q1013=
202403120550 METAR EGKK 120550Z 19005KT 7000 -RA BKN047 07/06 Q1012=
202403120620 METAR EGKK 120620Z 16004KT 8000 -RA FEW039 BKN047 07/06 Q1012=
202403120650 METAR EGKK 120650Z 17004KT 9000 -RA FEW021 BKN032 07/07 Q1012=
202403120720 METAR EGKK 120720Z 17005KT 140V200 7000 -RA SCT006 BKN017 OVC033 07/07 Q1011=
202403120750 METAR EGKK 120750Z 17005KT 130V210 7000 -RA SCT005 BKN016 08/07 Q1011=
202403120820 METAR EGKK 120820Z 17008KT 140V200 8000 -RA BKN006 BKN018 08/08 Q1011=
202403120850 METAR EGKK 120850Z 18010KT 8000 -RA SCT006 BKN016 09/08 Q1010=
202403120920 METAR EGKK 120920Z 20007KT 160V230 6000 -RA SCT007 SCT011 BKN016 09/09 Q1010=
202403120950 METAR EGKK 120950Z 20007KT 9999 -RA BKN006 10/09 Q1011=
202403121020 METAR EGKK 121020Z 21006KT 180V240 9999 -RA BKN007 10/10 Q1010=
202403121050 METAR EGKK 121050Z 22006KT 9999 -RA BKN007 11/10 Q1010=
202403121120 METAR EGKK 121120Z 22007KT 9999 -RA SCT007 11/11 Q1010=
202403121150 METAR EGKK 121150Z 22009KT 9999 -RA SCT007 BKN013 12/11 Q1010=
202403121220 METAR EGKK 121220Z 23010KT 9999 -RA BKN008 12/11 Q1010=
202403121250 METAR EGKK 121250Z 23009KT 9999 -RA BKN007 12/11 Q1010=
202403121320 METAR EGKK 121320Z 23012G23KT 9999 -RA SCT007 BKN012 12/11 Q1010=
202403121350 METAR EGKK 121350Z 24012KT 9999 BKN006 12/11 Q1011=
202403121420 METAR EGKK 121420Z 23011KT 9999 BKN008 BKN016 12/11 Q1011=
202403121450 METAR EGKK 121450Z 23010KT 200V260 9999 BKN008 BKN012 12/11 Q1010=
202403121520 METAR EGKK 121520Z 23010KT 9999 BKN007 12/11 Q1011=
202403121550 METAR EGKK 121550Z 23008KT 9999 SCT008 BKN020 13/12 Q1011=
202403121620 METAR EGKK 121620Z 23011KT 9999 SCT010 BKN019 13/11 Q1011=
202403121650 METAR EGKK 121650Z 22010KT 9999 BKN008 BKN027 13/11 Q1011=
202403121720 METAR EGKK 121720Z 23009KT 9999 BKN009 12/11 Q1011=
202403121750 METAR EGKK 121750Z 22007KT 190V260 9999 BKN009 12/11 Q1012=
202403121820 METAR EGKK 121820Z 22007KT 9999 BKN008 12/11 Q1012=
202403121850 METAR EGKK 121850Z 23008KT 9999 BKN008 12/11 Q1012=
202403121920 METAR EGKK 121920Z 23007KT 170V260 9999 BKN007 12/11 Q1012=
202403121950 METAR EGKK 121950Z 22008KT 9999 BKN006 12/11 Q1012=
202403122020 METAR EGKK 122020Z 23007KT 9999 BKN007 11/10 Q1013=
202403122050 METAR EGKK 122050Z 23009KT 9999 BKN007 11/10 Q1013=
202403122120 METAR EGKK 122120Z 23008KT 9999 BKN007 11/10 Q1013=
202403122150 METAR EGKK 122150Z 22008KT 9999 BKN008 11/10 Q1013=
202403122220 METAR EGKK 122220Z 23010KT 9999 BKN007 11/10 Q1013=
202403122250 METAR EGKK 122250Z 22008KT 9999 BKN007 11/10 Q1013=
202403122320 METAR EGKK 122320Z 22007KT 9999 BKN008 11/10 Q1013=
202403122350 METAR EGKK 122350Z 23009KT 9999 BKN008 11/10 Q1013=
202403130020 METAR EGKK 130020Z NIL=
202403130050 METAR EGKK 130050Z NIL=
202403130120 METAR EGKK 130120Z 23010KT 9999 BKN008 11/10 Q1013=
202403130150 METAR EGKK 130150Z 23007KT 9999 BKN009 11/10 Q1013=
202403130220 METAR EGKK 130220Z 22008KT 180V240 9999 BKN008 11/10 Q1013=
202403130250 METAR EGKK 130250Z 22009KT 9999 BKN007 11/10 Q1013=
202403130320 METAR EGKK 130320Z 23008KT 9999 BKN013 11/09 Q1013=
202403130350 METAR EGKK 130350Z 23008KT 9999 BKN011 11/09 Q1013=
202403130420 METAR EGKK 130420Z 24009KT 9999 BKN010 11/09 Q1013=
202403130450 METAR EGKK 130450Z 23010KT 9999 BKN010 11/09 Q1013=
202403130520 METAR EGKK 130520Z 23012KT 9999 BKN011 11/09 Q1013=
202403130550 METAR EGKK 130550Z 23012KT 9999 BKN011 11/09 Q1013=
202403130620 METAR EGKK 130620Z 23012KT 9999 BKN013 11/09 Q1013=
202403130650 METAR EGKK 130650Z 23011KT 9999 BKN012 11/09 Q1013=
202403130720 METAR EGKK 130720Z 22010KT 9999 BKN009 11/09 Q1013=
202403130750 METAR EGKK 130750Z 22011KT 9999 SCT009 BKN014 11/09 Q1013=
202403130820 METAR EGKK 130820Z 22010KT 180V240 9999 BKN010 11/09 Q1013=
202403130850 METAR EGKK 130850Z 22012KT 9999 BKN010 11/09 Q1013=
202403130920 METAR EGKK 130920Z 22012KT 180V250 9999 SCT010 BKN015 11/09 Q1013=
202403130950 METAR EGKK 130950Z 22010KT 9999 SCT011 BKN016 11/09 Q1013=
202403131020 METAR EGKK 131020Z 22012KT 9999 BKN011 12/09 Q1013=
202403131050 METAR EGKK 131050Z 23013KT 8000 -DZ BKN009 11/10 Q1013=
202403131120 METAR EGKK 131120Z 22009KT 9999 SCT009 BKN014 11/10 Q1013=
202403131150 METAR EGKK 131150Z 22008KT 190V250 9999 BKN011 12/10 Q1013=
202403131220 METAR EGKK 131220Z 22011G21KT 9999 BKN012 12/10 Q1013=
202403131250 METAR EGKK 131250Z 22011KT 9999 SCT011 BKN015 11/10 Q1013=
202403131320 METAR EGKK 131320Z 22010KT 9999 BKN014 12/10 Q1013=
202403131350 METAR EGKK 131350Z 22012KT 9999 BKN016 12/09 Q1013=
202403131420 METAR EGKK 131420Z 22012KT 9999 BKN014 12/09 Q1013=
202403131450 METAR EGKK 131450Z 22013KT 9999 BKN015 12/09 Q1013=
202403131520 METAR EGKK 131520Z 22013KT 9999 FEW016 BKN022 12/09 Q1013=
202403131550 METAR EGKK 131550Z 21010KT 9999 FEW016 BKN022 12/09 Q1013=
202403131620 METAR EGKK 131620Z 21008KT 9999 BKN015 12/09 Q1013=
202403131650 METAR EGKK 131650Z 21008KT 9999 BKN014 11/09 Q1013=
202403131720 METAR EGKK 131720Z 21009KT 9999 BKN015 11/08 Q1013=
202403131750 METAR EGKK 131750Z 21008KT 9999 SCT017 11/08 Q1013=
202403131820 METAR EGKK 131820Z 21008KT 9999 FEW017 11/08 Q1013=
202403131850 METAR EGKK 131850Z 22007KT CAVOK 11/08 Q1013=
202403131920 METAR EGKK 131920Z 21008KT CAVOK 11/08 Q1013=
202403131950 METAR EGKK 131950Z 21009KT CAVOK 11/08 Q1012=
202403132020 METAR EGKK 132020Z 20007KT CAVOK 11/08 Q1012=
202403132050 METAR EGKK 132050Z 20007KT 9999 BKN031 11/09 Q1012=
202403132120 METAR EGKK 132120Z 20007KT 9999 BKN030 11/09 Q1012=
202403132150 METAR EGKK 132150Z 20005KT CAVOK 10/09 Q1012=
202403132220 METAR EGKK 132220Z 21006KT CAVOK 11/09 Q1012=
202403132250 METAR EGKK 132250Z 21006KT 180V250 CAVOK 11/08 Q1012=
202403132320 METAR EGKK 132320Z 20008KT 180V240 CAVOK 11/08 Q1012=
202403132350 METAR EGKK 132350Z 20006KT CAVOK 11/08 Q1011=
202403140020 METAR EGKK 140020Z 20006KT CAVOK 10/08 Q1011=
202403140050 METAR EGKK 140050Z 22006KT 180V240 CAVOK 10/08 Q1011=
202403140120 METAR EGKK 140120Z 20006KT CAVOK 10/08 Q1011=
202403140150 METAR EGKK 140150Z 20005KT CAVOK 10/08 Q1011=
202403140220 METAR EGKK 140220Z 19004KT 170V230 CAVOK 10/08 Q1011=
202403140250 METAR EGKK 140250Z 18004KT 150V210 CAVOK 09/08 Q1010=
202403140320 METAR EGKK 140320Z 18004KT 120V210 CAVOK 09/08 Q1010=
202403140350 METAR EGKK 140350Z 19005KT CAVOK 09/08 Q1010=
202403140420 METAR EGKK 140420Z 18004KT 9999 FEW020 09/08 Q1009=
202403140450 METAR EGKK 140450Z 19005KT 150V230 CAVOK 09/08 Q1009=
202403140520 METAR EGKK 140520Z 20005KT 9999 SCT017 09/08 Q1009=
202403140550 METAR EGKK 140550Z 16004KT 140V210 9999 FEW009 09/08 Q1009=
202403140620 METAR EGKK 140620Z 17005KT 9999 SCT008 09/08 Q1009=
202403140650 METAR EGKK 140650Z 19007KT 160V230 9999 SCT008 10/09 Q1009=
202403140720 METAR EGKK 140720Z 19007KT 160V220 9999 FEW009 SCT013 10/09 Q1009=
202403140750 METAR EGKK 140750Z 20007KT 9999 BKN018 10/09 Q1009=
202403140820 METAR EGKK 140820Z 20008KT 9999 FEW017 11/09 Q1009=
202403140850 METAR EGKK 140850Z 20009KT 160V230 9999 FEW014 11/09 Q1009=
202403140920 METAR EGKK 140920Z 19008KT 9999 SCT013 12/09 Q1009=
202403140950 METAR EGKK 140950Z 20008KT 160V230 9999 FEW014 12/09 Q1009=
202403141020 METAR EGKK 141020Z 19007KT 160V230 9999 SCT014 13/09 Q1008=
202403141050 METAR EGKK 141050Z 19011KT 9999 SCT015 13/09 Q1008=
202403141120 METAR EGKK 141120Z 20009KT 160V230 9999 FEW016 13/09 Q1008=
202403141150 METAR EGKK 141150Z 19008KT 150V240 CAVOK 14/09 Q1007=
202403141220 METAR EGKK 141220Z 18010KT 150V210 9999 FEW020 14/09 Q1007=
202403141250 METAR EGKK 141250Z 19010KT CAVOK 15/09 Q1007=
202403141320 METAR EGKK 141320Z 20010KT 160V230 CAVOK 15/09 Q1007=
202403141350 METAR EGKK 141350Z 20009KT CAVOK 15/09 Q1006=
202403141420 METAR EGKK 141420Z 21012KT 9999 FEW024 14/08 Q1006=
202403141450 METAR EGKK 141450Z 20011KT 170V230 9999 FEW025 14/08 Q1006=
202403141520 METAR EGKK 141520Z 22009KT 180V260 9999 FEW024 14/09 Q1006=
202403141550 METAR EGKK 141550Z 20009KT 170V240 9999 SCT028 14/08 Q1006=
202403141620 METAR EGKK 141620Z 21011G23KT 9999 VCSH FEW023 SCT030 13/09 Q1006=
202403141650 METAR EGKK 141650Z 20007KT 160V230 9999 FEW026 BKN035 13/10 Q1005=
202403141720 METAR EGKK 141720Z 17006KT 130V210 9999 FEW020 BKN030 13/10 Q1005=
202403141750 METAR EGKK 141750Z 19008KT 160V220 9999 BKN028 12/10 Q1005=
202403141820 METAR EGKK 141820Z 20008KT 170V230 9999 FEW020 BKN025 12/10 Q1005=
202403141850 METAR EGKK 141850Z 19008KT 9999 -SHRA FEW018 BKN033 13/10 Q1005=
202403141920 METAR EGKK 141920Z 22010KT 190V250 9999 -SHRA FEW014 SCT035 13/10 Q1005=
202403141950 METAR EGKK 141950Z 22010KT 9999 BKN013 12/11 Q1005=
202403142020 METAR EGKK 142020Z 20008KT 4900 SHRA BKN008 12/11 Q1005=
202403142050 METAR EGKK 142050Z 21011KT 3500 SHRA BKN007 12/11 Q1004 RESHRA=
202403142120 METAR EGKK 142120Z 22012KT 180V240 6000 -RA BKN006 12/11 Q1004 RESHRA=
202403142150 METAR EGKK 142150Z 22008KT 9999 BKN006 12/11 Q1004=
202403142220 METAR EGKK 142220Z 22009KT 9999 BKN006 12/11 Q1004=
202403142250 METAR EGKK 142250Z 23011KT 9999 BKN007 12/11 Q1004=
202403142320 METAR EGKK 142320Z 23011KT 9999 BKN008 12/11 Q1004=
202403142350 METAR EGKK 142350Z 22011KT 190V260 9999 BKN007 12/11 Q1004=
202403150020 METAR EGKK 150020Z 22011KT 180V250 9999 SCT007 BKN039 12/11 Q1004=
202403150050 METAR EGKK 150050Z 22010KT 9999 BKN009 12/10 Q1004=
202403150120 METAR EGKK 150120Z 22010KT 180V240 8000 BKN008 11/11 Q1004=
202403150150 METAR EGKK 150150Z 22010KT 8000 -DZRA BKN007 11/11 Q1004=
202403150220 METAR EGKK 150220Z 23009KT 9999 BKN009 11/10 Q1004=
202403150250 METAR EGKK 150250Z 22008KT 9999 BKN011 11/10 Q1004=
202403150320 METAR EGKK 150320Z 23010KT 9999 BKN011 11/10 Q1004=
202403150350 METAR EGKK 150350Z 21007KT 9999 SCT010 SCT038 11/10 Q1004=
202403150420 METAR EGKK 150420Z 21009KT 9999 BKN009 11/10 Q1004=
202403150450 METAR EGKK 150450Z 21008KT 8000 -RA BKN007 11/10 Q1004=
202403150520 METAR EGKK 150520Z 22010KT 9999 BKN009 11/10 Q1004=
202403150550 METAR EGKK 150550Z 21010KT 190V260 9999 BKN008 11/10 Q1004=
202403150620 METAR EGKK 150620Z 21008KT 6000 -RA BKN006 11/10 Q1004 REDZ=
202403150650 METAR EGKK 150650Z 21009KT 9999 -DZ BKN006 11/10 Q1004=
202403150720 METAR EGKK 150720Z 22009KT 9999 BKN012 11/10 Q1004=
202403150750 METAR EGKK 150750Z 22011KT 9999 VCSH SCT009 BKN013 11/10 Q1005=
202403150820 METAR EGKK 150820Z 22010KT 9999 SCT008 BKN015 11/10 Q1005=
202403150850 METAR EGKK 150850Z 22010KT 8000 -DZ BKN008 BKN015 12/11 Q1005=
202403150920 METAR EGKK 150920Z 22011KT 9999 -DZ SCT008 BKN018 12/11 Q1005=
202403150950 METAR EGKK 150950Z 22011KT 9999 -DZ SCT008 BKN013 12/11 Q1005=
202403151020 METAR EGKK 151020Z 22011KT 9999 BKN011 12/11 Q1006=
202403151050 METAR EGKK 151050Z 22011KT 9999 SCT011 BKN016 13/11 Q1006=
202403151120 METAR EGKK 151120Z 22013KT 9999 FEW012 SCT016 13/10 Q1006=
202403151150 METAR EGKK 151150Z 22012KT 9999 -RA FEW018 SCT023 13/10 Q1006=
202403151220 METAR EGKK 151220Z 23011KT 9999 SCT020 BKN028 14/10 Q1006=
202403151250 METAR EGKK 151250Z 23013KT 180V260 9999 SCT020 BKN027 14/10 Q1006=
202403151320 METAR EGKK 151320Z 23014KT 200V270 9999 SCT016 SCT024 14/10 Q1006=
202403151350 METAR EGKK 151350Z 22014KT 9999 SCT020 BKN028 13/10 Q1005=
202403151420 METAR EGKK 151420Z 23015KT 190V250 9999 SCT018 BKN023 14/10 Q1005=
202403151450 METAR EGKK 151450Z 22012KT 190V250 9999 BKN017 BKN032 13/10 Q1005=
202403151520 METAR EGKK 151520Z 22013KT 9999 SCT015 BKN025 13/10 Q1005=
202403151550 METAR EGKK 151550Z 22010KT 180V250 9999 SCT017 13/09 Q1005=
202403151620 METAR EGKK 151620Z 23011KT 9999 SCT022 13/09 Q1005=
202403151650 METAR EGKK 151650Z 23012G22KT 9999 SCT022 13/09 Q1006=
202403151720 METAR EGKK 151720Z 23010KT 9999 BKN019 BKN043 12/08 Q1006=
202403151750 METAR EGKK 151750Z 23010KT 9999 BKN017 12/09 Q1006=
202403151820 METAR EGKK 151820Z 23009KT 9999 SCT017 11/09 Q1007=
202403151850 METAR EGKK 151850Z 22007KT 9999 SCT015 11/09 Q1007=
202403151920 METAR EGKK 151920Z 23006KT 9999 BKN015 11/09 Q1008=
202403151950 METAR EGKK 151950Z 23008KT 9999 SCT012 BKN016 BKN038 10/09 Q1008=
202403152020 METAR EGKK 152020Z 24007KT 9999 BKN014 10/09 Q1009=
202403152050 METAR EGKK 152050Z 24006KT 9999 BKN018 10/09 Q1009=
202403152120 METAR EGKK 152120Z 25007KT 9999 BKN015 10/09 Q1010=
202403152150 METAR EGKK 152150Z 29007KT 9999 SCT015 11/09 Q1011=
202403152220 METAR EGKK 152220Z 30010KT 9999 FEW019 BKN031 11/08 Q1011=
202403152250 METAR EGKK 152250Z 32009KT 9999 FEW019 BKN034 11/07 Q1012=
202403152320 METAR EGKK 152320Z 34009KT 9999 FEW019 BKN035 10/06 Q1012=
202403152350 METAR EGKK 152350Z 32011KT 9999 BKN038 09/03 Q1013=
202403160020 METAR EGKK 160020Z 32008KT 280V350 9999 FEW038 08/03 Q1014=
202403160050 METAR EGKK 160050Z 30006KT CAVOK 08/03 Q1014=
202403160120 METAR EGKK 160120Z 27006KT 9999 FEW035 06/02 Q1015=
202403160150 METAR EGKK 160150Z 27005KT 9999 SCT036 05/02 Q1015=
202403160220 METAR EGKK 160220Z 26006KT 9999 SCT031 06/04 Q1016=
202403160250 METAR EGKK 160250Z 28005KT 9999 BKN032 07/04 Q1016=
202403160320 METAR EGKK 160320Z 28005KT 9999 BKN033 08/04 Q1016=
202403160350 METAR EGKK 160350Z 30005KT 9999 BKN032 08/04 Q1017=
202403160420 METAR EGKK 160420Z 29004KT 9999 BKN034 08/04 Q1017=
202403160450 METAR EGKK 160450Z 28004KT 9999 BKN038 07/04 Q1018=
202403160520 METAR EGKK 160520Z 21003KT 9999 SCT023 BKN041 07/04 Q1018=
202403160550 METAR EGKK 160550Z 19002KT 9999 BKN039 07/04 Q1018=
202403160620 METAR EGKK 160620Z 21003KT 9999 SCT040 06/04 Q1019=
202403160650 METAR EGKK 160650Z 23003KT CAVOK 06/04 Q1019=
202403160720 METAR EGKK 160720Z 23002KT CAVOK 07/04 Q1020=
202403160750 METAR EGKK 160750Z 25003KT 9999 FEW012 08/04 Q1020=
202403160820 METAR EGKK 160820Z 26003KT 210V340 CAVOK 09/04 Q1021=
202403160850 METAR EGKK 160850Z 31004KT 280V350 CAVOK 09/04 Q1021=
202403160920 METAR EGKK 160920Z VRB02KT 9999 FEW020 10/04 Q1021=
202403160950 METAR EGKK 160950Z 29003KT 210V350 9999 FEW024 10/05 Q1021=
202403161020 METAR EGKK 161020Z 24005KT 170V320 9999 FEW028 11/04 Q1021=
202403161050 METAR EGKK 161050Z 20006KT 160V260 9999 FEW033 12/04 Q1021=
202403161120 METAR EGKK 161120Z 21006KT 130V240 9999 FEW035 12/04 Q1021=
202403161150 METAR EGKK 161150Z 17006KT 110V240 9999 FEW033 13/04 Q1021=
202403161220 METAR EGKK 161220Z 20006KT 140V260 CAVOK 13/03 Q1021=
202403161250 METAR EGKK 161250Z 19008KT 140V230 9999 FEW035 12/04 Q1021=
202403161320 METAR EGKK 161320Z 22008KT 180V250 9999 FEW035 12/03 Q1021=
202403161350 METAR EGKK 161350Z 20008KT 160V240 9999 FEW035 12/03 Q1021=
202403161420 METAR EGKK 161420Z 18008KT 150V210 9999 FEW036 11/03 Q1021=
202403161450 METAR EGKK 161450Z 19007KT 150V220 9999 FEW034 BKN044 11/03 Q1021=
202403161520 METAR EGKK 161520Z 18007KT 150V220 9999 BKN035 10/03 Q1021=
202403161550 METAR EGKK 161550Z 19005KT 150V220 9999 BKN030 11/04 Q1021=
202403161620 METAR EGKK 161620Z 18008KT 150V220 9999 BKN031 10/04 Q1021=
202403161650 METAR EGKK 161650Z 19007KT 9999 BKN027 10/04 Q1021=
202403161720 METAR EGKK 161720Z 18007KT 9999 BKN026 10/05 Q1021=
202403161750 METAR EGKK 161750Z 17005KT 140V210 9999 FEW021 BKN026 10/05 Q1021=
202403161820 METAR EGKK 161820Z 16005KT 120V190 9999 BKN019 10/05 Q1021=
202403161850 METAR EGKK 161850Z 14005KT 100V170 9999 BKN017 10/05 Q1020=
202403161920 METAR EGKK 161920Z 14004KT 110V180 9999 BKN017 10/06 Q1020=
202403161950 METAR EGKK 161950Z 15005KT 9999 BKN015 10/06 Q1020=
202403162020 METAR EGKK 162020Z 15004KT 120V180 9999 BKN016 10/06 Q1020=
202403162050 METAR EGKK 162050Z NIL=
202403162120 METAR EGKK 162120Z 16007KT 130V200 9999 BKN012 10/06 Q1020=
202403162150 METAR EGKK 162150Z 15007KT 9999 BKN011 BKN019 10/06 Q1020=
202403162220 METAR EGKK 162220Z 16007KT 130V200 9999 -RA BKN010 09/08 Q1020=
202403162250 METAR EGKK 162250Z 16004KT 130V200 4000 -DZ BKN006 09/08 Q1020=
202403162320 METAR EGKK 162320Z 16006KT 8000 -RADZ SCT005 BKN034 09/08 Q1019=
202403162350 METAR EGKK 162350Z 15005KT 120V180 9999 -DZ SCT005 BKN026 09/08 Q1019=
202403170020 METAR EGKK 170020Z 16003KT 120V200 9999 SCT004 09/09 Q1019=
202403170050 METAR EGKK 170050Z 15006KT 9000 VCSH BKN003 09/09 Q1018=
202403170120 METAR EGKK 170120Z 16005KT 5000 -DZ BKN002 10/09 Q1018=
202403170150 METAR EGKK 170150Z 17005KT 3500 -DZ OVC002 10/10 Q1018=
202403170220 METAR EGKK 170220Z 16005KT 120V190 3000 BR OVC002 10/10 Q1017=
202403170250 METAR EGKK 170250Z 16005KT 120V190 5000 BR OVC002 10/10 Q1017=
202403170320 METAR EGKK 170320Z 17004KT 140V220 8000 FEW004 SCT020 BKN043 11/10 Q1017=
202403170350 METAR EGKK 170350Z 17003KT 130V210 8000 -RADZ FEW005 SCT014 11/10 Q1016=
202403170420 METAR EGKK 170420Z 16003KT 140V210 9999 SCT023 BKN048 11/10 Q1016=
202403170450 METAR EGKK 170450Z 17004KT 130V210 9999 FEW007 BKN022 11/10 Q1016=
202403170520 METAR EGKK 170520Z 17004KT 140V200 7000 -RADZ SCT012 SCT023 BKN038 11/10 Q1016=
202403170550 METAR EGKK 170550Z 17004KT 140V210 9999 FEW008 SCT013 11/10 Q1016=
202403170620 METAR EGKK 170620Z 17004KT 140V220 9000 -RA FEW009 SCT013 BKN017 11/10 Q1016=
202403170650 METAR EGKK 170650Z 18005KT 150V210 9000 -RA FEW007 SCT017 11/10 Q1016=
202403170720 METAR EGKK 170720Z 19006KT 9000 -RA BKN006 11/11 Q1015=
202403170750 METAR EGKK 170750Z 17005KT 9999 -RA BKN006 11/11 Q1015=
202403170820 METAR EGKK 170820Z 16006KT 9000 -RA BKN006 11/11 Q1015=
202403170850 METAR EGKK 170850Z 16006KT 7000 -RA BKN007 12/11 Q1015=
202403170920 METAR EGKK 170920Z 17009KT 140V210 4700 RADZ BKN007 BKN030 11/11 Q1015=
202403170950 METAR EGKK 170950Z 16008KT 130V200 5000 -RADZ BKN006 BKN013 11/11 Q1014 RERA REDZ=
202403171020 METAR EGKK 171020Z 17007KT 140V200 3000 -RADZ BKN005 11/11 Q1014=
202403171050 METAR EGKK 171050Z 19008KT 3500 -RADZ BKN004 12/11 Q1014=
202403171120 METAR EGKK 171120Z 20008KT 7000 BKN006 12/12 Q1014=
202403171150 METAR EGKK 171150Z 22008KT 9999 BKN006 12/12 Q1014=
202403171220 METAR EGKK 171220Z 22008KT 9999 BKN008 13/12 Q1014=
202403171250 METAR EGKK 171250Z 22007KT 9999 BKN008 BKN016 13/12 Q1014=
202403171320 METAR EGKK 171320Z 22007KT 9999 BKN014 14/12 Q1014=
202403171350 METAR EGKK 171350Z 23007KT 190V270 9999 BKN010 13/12 Q1014=
202403171420 METAR EGKK 171420Z 23007KT 9999 FEW008 BKN014 13/11 Q1013=
202403171450 METAR EGKK 171450Z 22006KT 170V250 9999 FEW008 BKN012 14/12 Q1013=
202403171520 METAR EGKK 171520Z 22007KT 9999 SCT018 14/11 Q1014=
202403171550 METAR EGKK 171550Z 21009KT 9999 SCT020 15/11 Q1013=
202403171620 METAR EGKK 171620Z 21008KT 9999 SCT021 14/10 Q1013=
202403171650 METAR EGKK 171650Z 19007KT 9999 FEW010 SCT022 13/11 Q1013=
202403171720 METAR EGKK 171720Z 23007KT 9999 FEW020 13/09 Q1013=
202403171750 METAR EGKK 171750Z 22009KT 9999 FEW020 12/09 Q1014=
202403171820 METAR EGKK 171820Z 22008KT 9999 FEW017 12/10 Q1014=
202403171850 METAR EGKK 171850Z 21008KT 9999 FEW016 11/09 Q1014=
202403171920 METAR EGKK 171920Z 21007KT CAVOK 11/09 Q1014=
202403171950 METAR EGKK 171950Z 22009KT CAVOK 11/09 Q1014=
202403172020 METAR EGKK 172020Z 22008KT CAVOK 11/09 Q1014=
202403172050 METAR EGKK 172050Z 22005KT 9999 FEW012 10/09 Q1014=
202403172120 METAR EGKK 172120Z 21005KT 9999 FEW012 10/09 Q1014=
202403172150 METAR EGKK 172150Z 23006KT 9999 SCT012 10/09 Q1015=
202403172220 METAR EGKK 172220Z 23007KT 9999 BKN009 10/09 Q1015=
202403172250 METAR EGKK 172250Z 22006KT 9999 SCT008 10/09 Q1015=
202403172320 METAR EGKK 172320Z 22004KT 9999 BKN009 10/09 Q1014=
202403172350 METAR EGKK 172350Z 22004KT 9999 BKN007 10/09 Q1014=
202403180020 METAR EGKK 180020Z 22005KT 9999 BKN006 10/09 Q1014=
202403180050 METAR EGKK 180050Z 24007KT 9999 BKN006 10/09 Q1014=
202403180120 METAR EGKK 180120Z 22005KT 9999 BKN006 10/09 Q1014=
202403180150 METAR EGKK 180150Z 21004KT 9999 FEW006 09/08 Q1014=
202403180220 METAR EGKK 180220Z 22006KT 9999 SCT007 SCT048 09/09 Q1014=
202403180250 METAR EGKK 180250Z 23003KT 190V270 9999 BKN008 09/09 Q1014=
202403180320 METAR EGKK 180320Z 19004KT 9999 FEW010 SCT044 09/09 Q1014=
202403180350 METAR EGKK 180350Z 22004KT 9999 FEW007 SCT040 09/09 Q1014=
202403180420 METAR EGKK 180420Z 20003KT 9999 SCT005 09/09 Q1014=
202403180450 METAR EGKK 180450Z 20003KT 8000 FEW004 09/08 Q1014=
202403180520 METAR EGKK 180520Z 25003KT 9999 FEW014 08/08 Q1014=
202403180550 METAR EGKK 180550Z 22004KT 9999 1100W R26L/P1500N PRFG FEW001 08/08 Q1014=
202403180620 METAR EGKK 180620Z 23005KT 0300 R26L/0450D FG FEW012 08/08 Q1015=
202403180650 METAR EGKK 180650Z 24002KT 9999 2500W BCFG FEW010 08/08 Q1015=
202403180720 METAR EGKK 180720Z 23003KT 9999 3000W VCFG FEW010 08/08 Q1015=
202403180750 METAR EGKK 180750Z 22004KT 9999 VCFG FEW009 BKN031 09/09 Q1015=
202403180820 METAR COR EGKK 180820Z 23004KT 9999 SCT011 SCT030 10/09 Q1015=
202403180850 METAR EGKK 180850Z 23006KT 9999 BKN009 11/09 Q1016=
202403180920 METAR EGKK 180920Z 23007KT 200V260 9999 BKN012 11/09 Q1016=
202403180950 METAR EGKK 180950Z 23006KT 190V250 9999 BKN011 12/10 Q1016=
202403181020 METAR EGKK 181020Z 21007KT 170V240 9999 BKN011 12/10 Q1016=
202403181050 METAR EGKK 181050Z 21008KT 9999 BKN012 13/10 Q1016=
202403181120 METAR EGKK 181120Z 21009KT 180V250 9999 -SHRA BKN012 13/10 Q1016=
202403181150 METAR EGKK 181150Z 21008KT 180V250 9999 BKN013 13/11 Q1015=
202403181220 METAR EGKK 181220Z 22011KT 9999 SCT013 BKN023 13/09 Q1015=
202403181250 METAR EGKK 181250Z 22011KT 190V250 9999 SCT018 SCT030 13/09 Q1015=
202403181320 METAR EGKK 181320Z 23009KT 190V250 9999 SCT015 SCT030 13/09 Q1015=
202403181350 METAR EGKK 181350Z 22009KT 190V250 9999 FEW017 BKN030 13/09 Q1015=
202403181420 METAR EGKK 181420Z 21010KT 9999 BKN018 13/09 Q1015=
202403181450 METAR EGKK 181450Z 20008KT 9999 BKN014 13/09 Q1015=
202403181520 METAR EGKK 181520Z 22008KT 9999 BKN011 12/10 Q1015=
202403181550 METAR EGKK 181550Z 20008KT 160V230 9999 SCT011 BKN020 12/10 Q1015=
202403181620 METAR EGKK 181620Z 21007KT 170V230 9999 BKN013 12/10 Q1015=
202403181650 METAR EGKK 181650Z 22008KT 9999 SCT011 SCT037 12/10 Q1015=
202403181720 METAR EGKK 181720Z 21007KT 180V240 9999 FEW011 12/10 Q1015=
202403181750 METAR EGKK 181750Z 21008KT 9999 SCT012 BKN021 11/09 Q1015=
202403181820 METAR EGKK 181820Z 20006KT 170V240 9999 SCT012 BKN030 11/10 Q1015=
202403181850 METAR EGKK 181850Z 20006KT 9999 SCT011 11/09 Q1015=
202403181920 METAR EGKK 181920Z 21007KT 180V240 9999 SCT010 BKN024 11/09 Q1015=
202403181950 METAR EGKK 181950Z 21008KT 9999 FEW010 SCT028 11/10 Q1015=
202403182020 METAR EGKK 182020Z 21008KT 9999 SCT010 SCT032 11/09 Q1015=
202403182050 METAR EGKK 182050Z 21008KT 180V250 9999 BKN009 11/09 Q1015=
202403182120 METAR EGKK 182120Z 22009KT 190V260 9999 SCT012 11/09 Q1015=
202403182150 METAR EGKK 182150Z 22007KT 9999 FEW010 11/09 Q1015=
202403182220 METAR EGKK 182220Z 22006KT 9999 BKN034 11/09 Q1015=
202403182250 METAR EGKK 182250Z 21005KT 9999 FEW013 BKN036 11/09 Q1015=
202403182320 METAR EGKK 182320Z 21006KT 170V230 9999 SCT011 BKN038 11/09 Q1015=
202403182350 METAR EGKK 182350Z 22006KT 190V250 9999 SCT010 BKN038 11/09 Q1015=
202403190020 METAR EGKK 190020Z 21005KT 9999 FEW011 BKN038 11/09 Q1015=
202403190050 METAR EGKK 190050Z 21006KT 9999 FEW013 BKN042 11/09 Q1015=
202403190120 METAR EGKK 190120Z 21007KT 9999 FEW010 BKN040 11/09 Q1014=
202403190150 METAR EGKK 190150Z 20008KT 9999 BKN041 11/09 Q1014=
202403190220 METAR EGKK 190220Z 20006KT 9999 FEW014 BKN041 11/09 Q1014=
202403190250 METAR EGKK 190250Z 21008KT 9999 FEW013 BKN041 11/09 Q1014=
202403190320 METAR EGKK 190320Z 21007KT 180V240 9999 FEW014 BKN040 10/08 Q1014=
202403190350 METAR EGKK 190350Z 21007KT 9999 BKN039 10/08 Q1014=
202403190420 METAR EGKK 190420Z 22006KT 9999 SCT039 10/08 Q1014=
202403190450 METAR EGKK 190450Z 21006KT 9999 SCT032 10/07 Q1014=
202403190520 METAR EGKK 190520Z 21005KT 9999 SCT034 10/08 Q1014=
202403190550 METAR EGKK 190550Z 22005KT 9999 BKN027 10/08 Q1015=
202403190620 METAR EGKK 190620Z 22007KT 190V250 9999 BKN027 11/08 Q1015=
202403190650 METAR EGKK 190650Z 21008KT 9999 BKN026 11/08 Q1015=
202403190720 METAR EGKK 190720Z 21007KT 9999 BKN025 11/08 Q1015=
202403190750 METAR EGKK 190750Z 21009KT 9999 BKN029 11/08 Q1015=
202403190820 METAR EGKK 190820Z 21009KT 9999 FEW017 BKN025 12/08 Q1015=
202403190850 METAR EGKK 190850Z 22012KT 9999 BKN016 12/08 Q1015=
202403190920 METAR EGKK 190920Z 22013KT 180V240 9999 BKN013 11/08 Q1016=
202403190950 METAR EGKK 190950Z 21010KT 9999 BKN013 12/09 Q1016=
202403191020 METAR EGKK 191020Z 21011KT 170V240 9999 BKN012 11/09 Q1016=
202403191050 METAR EGKK 191050Z 21010KT 170V230 9999 BKN013 11/09 Q1016=
202403191120 METAR EGKK 191120Z 21011KT 180V240 9999 BKN011 11/09 Q1016=
202403191150 METAR EGKK 191150Z 21010KT 5000 -RADZ BKN009 11/10 Q1017=
202403191220 METAR EGKK 191220Z 21009KT 170V240 9000 -RA BKN011 11/10 Q1017=
202403191250 METAR EGKK 191250Z 21009KT 9999 BKN010 11/10 Q1017=
202403191320 METAR EGKK 191320Z 21008KT 170V230 9999 BKN009 11/10 Q1017=
202403191350 METAR EGKK 191350Z 21010KT 9999 BKN009 11/10 Q1017=
202403191420 METAR EGKK 191420Z 21010KT 9999 BKN010 11/10 Q1017=
202403191450 METAR EGKK 191450Z 21010KT 9999 BKN009 11/10 Q1017=
202403191520 METAR EGKK 191520Z 21010KT 9999 BKN009 11/10 Q1016=
202403191550 METAR EGKK 191550Z 22008KT 9999 BKN009 11/10 Q1016=
202403191620 METAR EGKK 191620Z 21007KT 9999 VCSH BKN008 11/10 Q1017=
202403191650 METAR EGKK 191650Z 21007KT 9999 BKN009 11/10 Q1017=
202403191720 METAR EGKK 191720Z 20006KT 9999 BKN007 11/10 Q1017=
202403191750 METAR EGKK 191750Z 21006KT 9999 BKN007 11/10 Q1017=
202403191820 METAR EGKK 191820Z 21007KT 9999 BKN007 11/10 Q1017=
202403191850 METAR EGKK 191850Z 20006KT 160V230 9999 BKN007 11/10 Q1017=
202403191920 METAR EGKK 191920Z 20005KT 160V230 9999 BKN006 11/10 Q1018=
202403191950 METAR EGKK 191950Z 21005KT 9999 BKN005 11/10 Q1018=
202403192020 METAR EGKK 192020Z 20005KT 9999 BKN005 11/10 Q1018=
202403192050 METAR EGKK 192050Z 20005KT 170V230 9999 BKN006 10/10 Q1018=
202403192120 METAR COR EGKK 192120Z 20005KT 6000 -RA BKN006 11/10 Q1018=
202403192150 METAR EGKK 192150Z 21005KT 9999 BKN007 11/10 Q1018=
202403192220 METAR EGKK 192220Z 21004KT 9999 BKN008 11/10 Q1018=
202403192250 METAR EGKK 192250Z 19004KT 9999 BKN007 11/10 Q1018=
202403192320 METAR EGKK 192320Z VRB02KT 9999 BKN017 11/10 Q1018=
202403192350 METAR EGKK 192350Z 16002KT 9999 BKN019 10/09 Q1017=
202403200020 METAR EGKK 200020Z 18002KT 9999 BKN021 10/09 Q1017=
202403200050 METAR EGKK 200050Z VRB02KT 9999 BKN021 10/09 Q1017=
202403200120 METAR EGKK 200120Z 17001KT 9999 BKN021 10/09 Q1017=
202403200150 METAR EGKK 200150Z VRB02KT 9999 FEW021 10/09 Q1017=
202403200220 METAR EGKK 200220Z VRB02KT CAVOK 10/09 Q1017=
202403200250 METAR EGKK 200250Z 15003KT 100V180 CAVOK 10/09 Q1017=
202403200320 METAR EGKK 200320Z NIL=
202403200350 METAR EGKK 200350Z 16002KT 9000 -RA NSC 10/09 Q1016=
202403200420 METAR EGKK 200420Z NIL=
202403200450 METAR EGKK 200450Z VRB02KT 9999 -RA NSC 09/08 Q1017=
202403200520 METAR EGKK 200520Z 00000KT 9999 -RA NSC 09/08 Q1017=
202403200550 METAR EGKK 200550Z 14002KT 9000 -RA FEW029 09/08 Q1017=
202403200620 METAR EGKK 200620Z VRB01KT 9999 FEW029 09/08 Q1017=
202403200650 METAR EGKK 200650Z 09001KT CAVOK 09/08 Q1017=
202403200720 METAR EGKK 200720Z 08004KT CAVOK 09/08 Q1018=
202403200750 METAR EGKK 200750Z VRB02KT CAVOK 10/08 Q1018=
202403200820 METAR EGKK 200820Z 03003KT 350V090 CAVOK 10/08 Q1018=
202403200850 METAR EGKK 200850Z 06003KT 360V130 CAVOK 11/09 Q1018=
202403200920 METAR EGKK 200920Z VRB02KT CAVOK 12/08 Q1018=
202403200950 METAR EGKK 200950Z VRB02KT CAVOK 13/09 Q1018=
202403201020 METAR EGKK 201020Z VRB02KT 9999 FEW031 14/09 Q1018=
202403201050 METAR EGKK 201050Z VRB02KT 9999 SCT031 14/09 Q1018=
202403201120 METAR EGKK 201120Z 33003KT 280V030 9999 SCT032 14/09 Q1018=
202403201150 METAR EGKK 201150Z 31004KT 270V340 9999 SCT028 14/09 Q1018=
202403201220 METAR EGKK 201220Z 29003KT 250V340 9999 SCT027 15/09 Q1018=
202403201250 METAR EGKK 201250Z VRB02KT 9999 SCT027 16/09 Q1018=
202403201320 METAR EGKK 201320Z 30004KT 260V350 9999 FEW032 16/09 Q1018=
202403201350 METAR EGKK 201350Z VRB02KT 9999 FEW035 17/08 Q1017=
202403201420 METAR EGKK 201420Z VRB02KT 9999 SCT035 17/08 Q1017=
202403201450 METAR EGKK 201450Z 29003KT 260V330 9999 FEW042 16/08 Q1017=
202403201520 METAR EGKK 201520Z 31004KT 280V020 9999 FEW043 16/08 Q1018=
202403201550 METAR EGKK 201550Z 30006KT 9999 FEW038 16/08 Q1018=
202403201620 METAR EGKK 201620Z 27004KT 180V320 9999 FEW040 16/08 Q1018=
202403201650 METAR EGKK 201650Z 30005KT 260V330 9999 FEW040 16/07 Q1018=
202403201720 METAR EGKK 201720Z 29006KT 9999 FEW045 16/07 Q1018=
202403201750 METAR EGKK 201750Z 30005KT CAVOK 15/07 Q1018=
202403201820 METAR EGKK 201820Z 30004KT 280V350 9999 FEW046 15/07 Q1019=
202403201850 METAR EGKK 201850Z 23006KT 9999 FEW044 14/09 Q1019=
202403201920 METAR EGKK 201920Z VRB02KT 9999 FEW042 13/09 Q1020=
202403201950 METAR EGKK 201950Z 22002KT 9999 FEW042 12/09 Q1020=
202403202020 METAR EGKK 202020Z VRB02KT CAVOK 12/08 Q1020=
202403202050 METAR EGKK 202050Z 28003KT 220V330 CAVOK 11/08 Q1021=
202403202120 METAR EGKK 202120Z VRB02KT CAVOK 11/08 Q1021=
202403202150 METAR EGKK 202150Z 29003KT 240V310 CAVOK 11/07 Q1021=
202403202220 METAR EGKK 202220Z VRB02KT CAVOK 09/07 Q1022=
202403202250 METAR EGKK 202250Z VRB02KT 9999 FEW045 09/07 Q1022=
202403202320 METAR EGKK 202320Z 29003KT CAVOK 10/08 Q1022=
202403202350 METAR EGKK 202350Z VRB02KT CAVOK 09/07 Q1022=
202403210020 METAR EGKK 210020Z VRB01KT 9999 SCT016 09/07 Q1022=
202403210050 METAR EGKK 210050Z VRB02KT 9999 FEW013 10/09 Q1023=
202403210120 METAR EGKK 210120Z VRB01KT 9999 SCT010 08/07 Q1023=
202403210150 METAR EGKK 210150Z 33002KT 9999 BKN011 09/08 Q1023=
202403210220 METAR EGKK 210220Z 35004KT 9999 FEW022 BKN034 10/09 Q1024=
202403210250 METAR EGKK 210250Z 01003KT 9999 FEW024 SCT034 BKN041 10/08 Q1024=
202403210320 METAR EGKK 210320Z 05003KT 9999 BKN041 10/08 Q1024=
202403210350 METAR EGKK 210350Z 03003KT 9999 BKN039 10/08 Q1024=
202403210420 METAR EGKK 210420Z 02002KT 9999 FEW039 09/08 Q1024=
202403210450 METAR EGKK 210450Z 09002KT CAVOK 08/08 Q1024=
202403210520 METAR EGKK 210520Z 09003KT CAVOK 08/07 Q1024=
202403210550 METAR EGKK 210550Z 12002KT CAVOK 08/07 Q1025=
202403210620 METAR EGKK 210620Z VRB01KT CAVOK 08/07 Q1025=
202403210650 METAR EGKK 210650Z 06001KT CAVOK 08/07 Q1025=
202403210720 METAR EGKK 210720Z 08002KT CAVOK 07/07 Q1025=
202403210750 METAR EGKK 210750Z 05002KT 9999 5000E BR NSC 09/08 Q1026=
202403210820 METAR EGKK 210820Z 12003KT 9999 6000E FEW005 09/08 Q1026=
202403210850 METAR EGKK 210850Z 09003KT 060V130 9999 FEW008 10/09 Q1026=
202403210920 METAR EGKK 210920Z 16004KT 130V190 9999 FEW009 11/09 Q1026=
202403210950 METAR EGKK 210950Z 17006KT 9999 FEW010 12/09 Q1026=
202403211020 METAR EGKK 211020Z 20007KT 170V250 9999 SCT012 12/09 Q1026=
202403211050 METAR EGKK 211050Z 20006KT 160V230 9999 BKN011 12/10 Q1027=
202403211120 METAR EGKK 211120Z 19007KT 9999 BKN010 12/10 Q1027=
202403211150 METAR EGKK 211150Z 19009KT 9999 BKN010 13/10 Q1027=
202403211220 METAR EGKK 211220Z 20011KT 9000 SCT010 13/10 Q1026=
202403211250 METAR EGKK 211250Z 21011KT 9000 SCT007 12/10 Q1026=
202403211320 METAR EGKK 211320Z 21009KT 9000 BKN006 12/10 Q1026=
202403211350 METAR EGKK 211350Z 19009KT 160V220 9999 BKN012 13/10 Q1026=
202403211420 METAR EGKK 211420Z 19009KT 160V220 9000 BKN011 13/10 Q1025=
202403211450 METAR EGKK 211450Z 20008KT 8000 FEW013 13/10 Q1025=
202403211520 METAR EGKK 211520Z 20008KT 9999 FEW015 14/11 Q1025=
202403211550 METAR EGKK 211550Z 22008KT 190V250 9999 FEW016 14/10 Q1024=
202403211620 METAR EGKK 211620Z 21007KT 9999 FEW016 14/10 Q1024=
202403211650 METAR EGKK 211650Z 21008KT CAVOK 14/10 Q1024=
202403211720 METAR EGKK 211720Z 20008KT 9999 FEW014 13/10 Q1024=
202403211750 METAR EGKK 211750Z 19006KT 9999 FEW010 12/10 Q1024=
202403211820 METAR EGKK 211820Z 20006KT 9999 FEW011 12/10 Q1024=
202403211850 METAR EGKK 211850Z 22008KT 9999 FEW011 11/09 Q1024=
202403211920 METAR EGKK 211920Z 21008KT 9999 FEW009 11/09 Q1024=
202403211950 METAR EGKK 211950Z 22007KT 9999 SCT008 11/09 Q1024=
202403212020 METAR EGKK 212020Z 23006KT 9999 SCT007 10/09 Q1024=
202403212050 METAR EGKK 212050Z 22007KT 9999 FEW008 10/09 Q1023=
202403212120 METAR EGKK 212120Z 22008KT 9999 FEW008 10/09 Q1023=
202403212150 METAR EGKK 212150Z 21007KT 9999 FEW007 10/08 Q1023=
202403212220 METAR EGKK 212220Z 23007KT 9999 BKN007 10/09 Q1023=
202403212250 METAR EGKK 212250Z 22007KT 9999 BKN007 10/09 Q1023=
202403212320 METAR EGKK 212320Z 22006KT 9999 BKN007 10/09 Q1023=
202403212350 METAR EGKK 212350Z 21006KT 180V250 9999 BKN006 10/09 Q1022=
202403220020 METAR EGKK 220020Z 23006KT 9999 BKN006 09/08 Q1022=
202403220050 METAR EGKK 220050Z 24007KT 9999 BKN006 09/08 Q1022=
202403220120 METAR EGKK 220120Z 22007KT 9999 BKN006 09/08 Q1021=
202403220150 METAR EGKK 220150Z 22006KT 9999 BKN006 09/08 Q1021=
202403220220 METAR EGKK 220220Z 23006KT 9999 SCT006 09/08 Q1021=
202403220250 METAR EGKK 220250Z 21005KT 9999 SCT006 09/08 Q1020=
202403220320 METAR EGKK 220320Z 22005KT 9999 FEW006 09/08 Q1020=
202403220350 METAR EGKK 220350Z 22006KT 9999 FEW006 09/08 Q1020=
202403220420 METAR EGKK 220420Z NIL=
202403220450 METAR EGKK 220450Z 22006KT CAVOK 09/07 Q1019=
202403220520 METAR EGKK 220520Z 23007KT 9999 SCT017 09/07 Q1019=
202403220550 METAR EGKK 220550Z 22006KT 180V250 9999 BKN017 09/07 Q1019=
202403220620 METAR EGKK 220620Z 23007KT 9999 BKN016 09/08 Q1019=
202403220650 METAR EGKK 220650Z 22007KT 9999 BKN014 10/08 Q1019=
202403220720 METAR EGKK 220720Z 22007KT 9999 BKN014 10/08 Q1019=
202403220750 METAR EGKK 220750Z 22008KT 9999 BKN013 10/08 Q1019=
202403220820 METAR EGKK 220820Z 23008KT 9999 SCT010 BKN021 10/08 Q1018=
202403220850 METAR EGKK 220850Z 23007KT 5000 HZ FEW007 SCT010 BKN024 10/09 Q1019=
202403220920 METAR EGKK 220920Z 23007KT 4500 BR FEW005 BKN012 10/10 Q1018=
202403220950 METAR EGKK 220950Z 24007KT 6000 SCT005 BKN009 11/10 Q1018=
202403221020 METAR EGKK 221020Z 24008KT 9999 SCT006 SCT009 BKN047 11/10 Q1018=
202403221050 METAR EGKK 221050Z 24008KT 9999 SCT008 BKN012 11/09 Q1018=
202403221120 METAR EGKK 221120Z 25007KT 9999 5000N HZ SCT009 BKN012 11/10 Q1018=
202403221150 METAR EGKK 221150Z 28006KT 230V320 9999 -RA BKN010 12/10 Q1018=
202403221220 METAR EGKK 221220Z 32011KT 9999 SCT011 SCT016 11/09 Q1018=
202403221250 METAR EGKK 221250Z 31013KT 9999 -RA FEW013 SCT017 BKN027 10/08 Q1017=
202403221320 METAR EGKK 221320Z 31007KT 9999 -RA FEW025 BKN044 09/08 Q1017=
202403221350 METAR EGKK 221350Z 29004KT 9999 -RA NSC 10/08 Q1017=
202403221420 METAR EGKK 221420Z 29006KT 9999 -DZ NSC 10/07 Q1017=
202403221450 METAR EGKK 221450Z 28008KT CAVOK 10/07 Q1016=
202403221520 METAR EGKK 221520Z 29008KT 9999 FEW035 10/05 Q1016=
202403221550 METAR EGKK 221550Z 29007KT 9999 FEW035 10/05 Q1016=
202403221620 METAR EGKK 221620Z 30009KT CAVOK 10/04 Q1016=
202403221650 METAR COR EGKK 221650Z 28008KT 9999 FEW028 11/04 Q1016=
202403221720 METAR EGKK 221720Z 29007KT 9999 FEW040 11/03 Q1016=
202403221750 METAR EGKK 221750Z 28007KT CAVOK 10/03 Q1015=
202403221820 METAR EGKK 221820Z 27005KT CAVOK 08/02 Q1015=
202403221850 METAR EGKK 221850Z 23003KT 9999 FEW047 08/03 Q1015=
202403221920 METAR EGKK 221920Z 28008KT 9999 FEW049 08/02 Q1016=
202403221950 METAR EGKK 221950Z 29010KT CAVOK 09/01 Q1016=
202403222020 METAR EGKK 222020Z 30008KT CAVOK 08/00 Q1016=
202403222050 METAR EGKK 222050Z 29009KT CAVOK 08/M00 Q1016=
202403222120 METAR EGKK 222120Z 29008KT CAVOK 07/M00 Q1016=
202403222150 METAR EGKK 222150Z 28007KT CAVOK 07/M00 Q1016=
202403222220 METAR EGKK 222220Z 25005KT CAVOK 05/M01 Q1016=
202403222250 METAR EGKK 222250Z 24005KT CAVOK 05/M01 Q1015=
202403222320 METAR EGKK 222320Z 26007KT CAVOK 04/M01 Q1015=
202403222350 METAR EGKK 222350Z 25008KT CAVOK 04/00 Q1015=
202403230020 METAR EGKK 230020Z 25008KT CAVOK 05/01 Q1015=
202403230050 METAR EGKK 230050Z 26006KT CAVOK 04/01 Q1015=
202403230120 METAR EGKK 230120Z 25005KT CAVOK 04/02 Q1015=
202403230150 METAR EGKK 230150Z 26008KT CAVOK 04/02 Q1015=
202403230220 METAR EGKK 230220Z 26009KT CAVOK 04/02 Q1015=
202403230250 METAR EGKK 230250Z 26009KT CAVOK 04/01 Q1014=
202403230320 METAR EGKK 230320Z 26008KT CAVOK 04/01 Q1014=
202403230350 METAR EGKK 230350Z 26009KT CAVOK 03/01 Q1014=
202403230420 METAR EGKK 230420Z 26011KT CAVOK 03/01 Q1014=
202403230450 METAR EGKK 230450Z 26012KT CAVOK 03/01 Q1014=
202403230520 METAR EGKK 230520Z 26012KT CAVOK 03/01 Q1014=
202403230550 METAR EGKK 230550Z 26011KT CAVOK 04/01 Q1014=
202403230620 METAR EGKK 230620Z 25010KT CAVOK 04/01 Q1014=
202403230650 METAR EGKK 230650Z 25009KT CAVOK 04/01 Q1014=
202403230720 METAR EGKK 230720Z 26010KT 9999 FEW012 05/02 Q1014=
202403230750 METAR EGKK 230750Z 26012KT 9999 FEW016 06/02 Q1014=
202403230820 METAR EGKK 230820Z 26015KT 9999 FEW020 07/02 Q1013=
202403230850 METAR EGKK 230850Z 26016KT 9999 FEW027 07/02 Q1013=
202403230920 METAR EGKK 230920Z 26015KT 9999 FEW027 08/02 Q1013=
202403230950 METAR EGKK 230950Z 26015KT 9999 SCT030 08/02 Q1013=
202403231020 METAR EGKK 231020Z 26011KT 9999 SCT031 09/02 Q1013=
202403231050 METAR EGKK 231050Z 26015KT 9999 FEW036 SCT043 09/01 Q1012=
202403231120 METAR EGKK 231120Z 25015KT 9999 FEW043 10/01 Q1012=
202403231150 METAR EGKK 231150Z 26015KT 9999 SCT045 10/01 Q1012=
202403231220 METAR EGKK 231220Z 24012KT 9999 -RA SCT045 09/01 Q1011=
202403231250 METAR EGKK 231250Z 25018KT 9999 -RA FEW025 SCT037CB 06/03 Q1012=
202403231320 METAR EGKK 231320Z 25011KT 9999 FEW024 08/04 Q1011=
202403231350 METAR EGKK 231350Z 25015G25KT 9999 -RA SCT024 06/03 Q1011 RESHRA=
202403231420 METAR EGKK 231420Z 28013KT 9999 FEW024 SCT039 BKN047 08/05 Q1010=
202403231450 METAR EGKK 231450Z 26012KT 9999 SCT026 06/03 Q1011=
202403231520 METAR EGKK 231520Z 27010KT 240V300 CAVOK 08/03 Q1010=
202403231550 METAR EGKK 231550Z 29013KT 9999 SCT030 09/03 Q1010=
202403231620 METAR EGKK 231620Z 28014KT 9999 BKN030 09/03 Q1010=
202403231650 METAR EGKK 231650Z 27015KT 9999 FEW036 08/01 Q1010=
202403231720 METAR EGKK 231720Z 28015KT 9999 FEW039 08/01 Q1010=
202403231750 METAR EGKK 231750Z 28013KT 9999 FEW032 08/00 Q1010=
202403231820 METAR EGKK 231820Z 28011KT CAVOK 07/01 Q1010=
202403231850 METAR EGKK 231850Z 27009KT CAVOK 06/01 Q1011=
202403231920 METAR EGKK 231920Z 27009KT CAVOK 06/00 Q1011=
202403231950 METAR EGKK 231950Z 25007KT CAVOK 06/01 Q1011=
202403232020 METAR EGKK 232020Z 24007KT CAVOK 06/00 Q1011=
202403232050 METAR EGKK 232050Z 25009KT CAVOK 05/00 Q1011=
202403232120 METAR EGKK 232120Z 24008KT CAVOK 06/00 Q1011=
202403232150 METAR EGKK 232150Z 23007KT CAVOK 06/00 Q1011=
202403232220 METAR EGKK 232220Z 24010KT CAVOK 06/M00 Q1010=
202403232250 METAR EGKK 232250Z 25011KT CAVOK 06/M00 Q1010=
202403232320 METAR EGKK 232320Z 25010KT CAVOK 06/00 Q1010=
202403232350 METAR EGKK 232350Z 24009KT CAVOK 06/00 Q1010=
202403240020 METAR EGKK 240020Z 24011KT CAVOK 06/01 Q1010=
202403240050 METAR EGKK 240050Z 25012KT 9999 FEW048 06/01 Q1010=
202403240120 METAR EGKK 240120Z 25011KT 9999 SCT044 06/01 Q1010=
202403240150 METAR EGKK 240150Z 25013KT 9999 FEW048 06/01 Q1010=
202403240220 METAR EGKK 240220Z 25012KT 9999 FEW049 05/01 Q1009=
202403240250 METAR EGKK 240250Z 25012KT 9999 SCT046 06/02 Q1009=
202403240320 METAR EGKK 240320Z 25012KT 9999 SCT048 06/02 Q1009=
202403240350 METAR EGKK 240350Z 24011KT 9999 SCT042 06/02 Q1009=
202403240420 METAR EGKK 240420Z 25010KT 9999 SCT037 05/02 Q1009=
202403240450 METAR EGKK 240450Z 26011KT 9999 SCT041 05/02 Q1009=
202403240520 METAR EGKK 240520Z 26012KT 9999 SCT041 06/02 Q1010=
202403240550 METAR EGKK 240550Z 25010KT 9999 FEW033 05/02 Q1010=
202403240620 METAR EGKK 240620Z 25011KT 9999 FEW032 05/03 Q1010=
202403240650 METAR EGKK 240650Z 25011KT 9999 FEW033 06/03 Q1010=
202403240720 METAR EGKK 240720Z 25011KT 9999 FEW022 06/03 Q1010=
202403240750 METAR EGKK 240750Z 27013KT 9999 FEW022 07/03 Q1010=
202403240820 METAR EGKK 240820Z 27012G24KT 9999 FEW024 08/03 Q1011=
202403240850 METAR EGKK 240850Z 29014KT 9999 SCT025 08/03 Q1011=
202403240920 METAR EGKK 240920Z 29016KT 9999 SCT028 08/02 Q1011=
202403240950 METAR EGKK 240950Z 30015KT 9999 SCT031 09/02 Q1011=
202403241020 METAR EGKK 241020Z 30012KT 9999 SCT030 09/02 Q1011=
202403241050 METAR EGKK 241050Z 30015KT 9999 FEW037 SCT045 10/02 Q1011=
202403241120 METAR EGKK 241120Z 30017KT 9999 SCT035 11/01 Q1011=
202403241150 METAR EGKK 241150Z 30013KT 9999 SCT040 11/01 Q1011=
202403241220 METAR EGKK 241220Z 30014KT 9999 SCT045 11/01 Q1011=
202403241250 METAR EGKK 241250Z 29014KT 9999 SCT045 12/01 Q1011=
202403241320 METAR EGKK 241320Z 29015KT 9999 SCT045 12/01 Q1011=
202403241350 METAR EGKK 241350Z 30016KT CAVOK 12/M00 Q1011=
202403241420 METAR EGKK 241420Z 29014KT CAVOK 13/00 Q1011=
202403241450 METAR EGKK 241450Z 29011KT CAVOK 12/00 Q1010=
202403241520 METAR EGKK 241520Z 30013KT CAVOK 12/M01 Q1010=
202403241550 METAR EGKK 241550Z 30012KT CAVOK 12/M00 Q1010=
202403241620 METAR EGKK 241620Z 31011KT CAVOK 12/M00 Q1010=
202403241650 METAR EGKK 241650Z 31008KT CAVOK 12/M00 Q1010=
202403241720 METAR EGKK 241720Z 31007KT CAVOK 12/M00 Q1010=
202403241750 METAR EGKK 241750Z 30006KT CAVOK 11/M01 Q1010=
202403241820 METAR EGKK 241820Z 28005KT CAVOK 10/M01 Q1010=
202403241850 METAR EGKK 241850Z 22003KT CAVOK 08/00 Q1010=
202403241920 METAR EGKK 241920Z 23004KT CAVOK 08/M00 Q1010=
202403241950 METAR EGKK 241950Z 20003KT CAVOK 06/M00 Q1010=
202403242020 METAR EGKK 242020Z 20003KT CAVOK 05/M00 Q1010=
202403242050 METAR EGKK 242050Z 17001KT CAVOK 05/M00 Q1009=
202403242120 METAR EGKK 242120Z VRB01KT CAVOK 04/00 Q1009=
202403242150 METAR EGKK 242150Z 17002KT CAVOK 04/00 Q1009=
202403242220 METAR EGKK 242220Z VRB02KT CAVOK 04/01 Q1009=
202403242250 METAR EGKK 242250Z 15001KT CAVOK 04/01 Q1009=
202403242320 METAR EGKK 242320Z 12001KT CAVOK 04/01 Q1008=
202403242350 METAR EGKK 242350Z VRB01KT CAVOK 03/01 Q1008=
202403250020 METAR EGKK 250020Z 10001KT CAVOK 04/02 Q1008=
202403250050 METAR EGKK 250050Z VRB02KT CAVOK 04/02 Q1007=
202403250120 METAR EGKK 250120Z 25001KT CAVOK 03/01 Q1007=
202403250150 METAR EGKK 250150Z 09001KT CAVOK 02/01 Q1007=
202403250220 METAR EGKK 250220Z 08002KT CAVOK 02/01 Q1006=
202403250250 METAR EGKK 250250Z 09003KT CAVOK 02/01 Q1006=
202403250320 METAR EGKK 250320Z 06001KT CAVOK 03/02 Q1005=
202403250350 METAR EGKK 250350Z 17003KT CAVOK 05/05 Q1005=
202403250420 METAR EGKK 250420Z 16003KT CAVOK 06/05 Q1004=
202403250450 METAR EGKK 250450Z 16003KT CAVOK 06/05 Q1004=
202403250520 METAR EGKK 250520Z 15003KT 9999 FEW020 07/05 Q1004=
202403250550 METAR EGKK 250550Z 16003KT 140V200 9999 FEW020 07/05 Q1004=
202403250620 METAR EGKK 250620Z 16004KT 9999 FEW020 07/05 Q1003=
202403250650 METAR EGKK 250650Z 16004KT 130V190 9999 FEW018 07/05 Q1003=
202403250720 METAR EGKK 250720Z 17005KT 140V210 9999 FEW022 08/05 Q1003=
202403250750 METAR EGKK 250750Z 16007KT 140V200 9999 FEW020 08/05 Q1003=
202403250820 METAR EGKK 250820Z 18007KT 140V210 9999 SCT021 09/05 Q1002=
202403250850 METAR EGKK 250850Z 17008KT 9999 SCT021 09/04 Q1002=
202403250920 METAR EGKK 250920Z 16009KT 130V190 9999 SCT022 09/04 Q1002=
202403250950 METAR EGKK 250950Z 15009KT 9999 FEW021 SCT038 09/04 Q1002=
202403251020 METAR EGKK 251020Z 17007KT 140V210 9999 SCT026 10/04 Q1001=
202403251050 METAR EGKK 251050Z 17010KT 130V200 9999 BKN029 10/04 Q1001=
202403251120 METAR EGKK 251120Z 17009KT 130V200 9999 BKN027 11/04 Q1001=
202403251150 METAR EGKK 251150Z 17010KT 130V200 9999 BKN026 11/04 Q1000=
202403251220 METAR EGKK 251220Z 18011KT 140V210 9999 SCT030 11/04 Q1000=
202403251250 METAR EGKK 251250Z 18009KT 9999 SCT032 11/03 Q0999=
202403251320 METAR EGKK 251320Z 14009KT 9999 SCT033 11/03 Q0999=
202403251350 METAR EGKK 251350Z 17009KT 120V210 9999 SCT035 SCT041 11/03 Q0998=
202403251420 METAR EGKK 251420Z 17007KT 120V200 9999 SCT035 11/03 Q0998=
202403251450 METAR EGKK 251450Z 15008KT 110V190 9999 SCT036 11/03 Q0997=
202403251520 METAR EGKK 251520Z 13009KT 100V170 9999 FEW037 11/03 Q0997=
202403251550 METAR EGKK 251550Z 14009KT 100V180 9999 FEW037 11/02 Q0996=
202403251620 METAR EGKK 251620Z 12011KT CAVOK 11/02 Q0996=
202403251650 METAR EGKK 251650Z 13009KT 080V170 CAVOK 10/03 Q0996=
202403251720 METAR EGKK 251720Z 13008KT CAVOK 10/03 Q0996=
202403251750 METAR EGKK 251750Z 12008KT 100V160 CAVOK 10/03 Q0995=
202403251820 METAR EGKK 251820Z 09006KT CAVOK 09/03 Q0995=
202403251850 METAR EGKK 251850Z 09008KT CAVOK 09/03 Q0995=
202403251920 METAR EGKK 251920Z 10006KT CAVOK 09/03 Q0995=
202403251950 METAR EGKK 251950Z 10006KT CAVOK 09/04 Q0995=
202403252020 METAR EGKK 252020Z 10006KT CAVOK 09/04 Q0994=
202403252050 METAR EGKK 252050Z 10008KT CAVOK 09/04 Q0994=
202403252120 METAR EGKK 252120Z 11007KT CAVOK 09/04 Q0994=
202403252150 METAR EGKK 252150Z 10007KT CAVOK 09/03 Q0994=
202403252220 METAR EGKK 252220Z 09006KT CAVOK 08/03 Q0993=
202403252250 METAR EGKK 252250Z 08005KT CAVOK 07/03 Q0993=
202403252320 METAR EGKK 252320Z 07005KT CAVOK 07/03 Q0993=
202403252350 METAR EGKK 252350Z NIL=
202403260020 METAR EGKK 260020Z 08004KT CAVOK 06/04 Q0992=
202403260050 METAR EGKK 260050Z NIL=
202403260120 METAR EGKK 260120Z 08006KT CAVOK 07/04 Q0991=
202403260150 METAR EGKK 260150Z 06004KT CAVOK 07/04 Q0991=
202403260220 METAR EGKK 260220Z 05004KT CAVOK 07/04 Q0991=
202403260250 METAR EGKK 260250Z 07004KT CAVOK 06/04 Q0991=
202403260320 METAR EGKK 260320Z 07004KT CAVOK 06/04 Q0990=
202403260350 METAR EGKK 260350Z 06005KT CAVOK 07/04 Q0990=
202403260420 METAR EGKK 260420Z 07004KT CAVOK 06/04 Q0990=
202403260450 METAR EGKK 260450Z 07004KT CAVOK 06/04 Q0990=
202403260520 METAR EGKK 260520Z 08004KT CAVOK 06/04 Q0990=
202403260550 METAR EGKK 260550Z 07003KT CAVOK 06/04 Q0990=
202403260620 METAR EGKK 260620Z 07004KT CAVOK 06/04 Q0989=
202403260650 METAR EGKK 260650Z 08005KT CAVOK 06/04 Q0989=
202403260720 METAR EGKK 260720Z 08006KT CAVOK 08/05 Q0989=
202403260750 METAR EGKK 260750Z 10004KT 070V140 CAVOK 09/05 Q0989=
202403260820 METAR EGKK 260820Z 09005KT CAVOK 09/05 Q0989=
202403260850 METAR EGKK 260850Z 07004KT 020V100 CAVOK 09/06 Q0989=
202403260920 METAR EGKK 260920Z 08003KT 030V130 CAVOK 10/06 Q0989=
202403260950 METAR EGKK 260950Z 13005KT 080V200 CAVOK 11/06 Q0988=
202403261020 METAR EGKK 261020Z VRB03KT CAVOK 12/05 Q0988=
202403261050 METAR EGKK 261050Z 12005KT 070V170 CAVOK 12/05 Q0988=
202403261120 METAR EGKK 261120Z 12005KT 090V150 CAVOK 12/05 Q0988=
202403261150 METAR EGKK 261150Z 14006KT 100V180 CAVOK 12/05 Q0988=
202403261220 METAR EGKK 261220Z 15005KT 120V200 CAVOK 12/06 Q0987=
202403261250 METAR EGKK 261250Z 14005KT 110V180 9999 -RA NSC 12/06 Q0987=
202403261320 METAR EGKK 261320Z 15005KT 130V190 9999 -RA SCT044 12/06 Q0986=
202403261350 METAR EGKK 261350Z 15004KT 130V200 9999 -RA SCT042 12/07 Q0986=
202403261420 METAR EGKK 261420Z 13004KT 090V190 9999 -RA SCT024 11/07 Q0986=
202403261450 METAR EGKK 261450Z VRB02KT 8000 -RA SCT020 BKN035 11/08 Q0985=
202403261520 METAR EGKK 261520Z 10005KT 080V140 9000 -RA SCT016 BKN023 10/08 Q0985=
202403261550 METAR EGKK 261550Z 11005KT 9000 -RA SCT015 BKN021 10/08 Q0985=
202403261620 METAR EGKK 261620Z 12003KT 9999 -RA BKN012 10/08 Q0984=
202403261650 METAR EGKK 261650Z 15003KT 120V190 8000 -RA SCT007 10/09 Q0984=
202403261720 METAR EGKK 261720Z 16003KT 8000 -RA SCT008 BKN018 09/09 Q0984=
202403261750 METAR EGKK 261750Z 18002KT 8000 -RA FEW005 SCT008 BKN020 09/09 Q0984=
202403261820 METAR EGKK 261820Z 16003KT 9000 -RA FEW007 SCT016 BKN023 09/08 Q0983=
202403261850 METAR EGKK 261850Z 15003KT 8000 -RA FEW013 SCT028 09/08 Q0983=
202403261920 METAR EGKK 261920Z VRB01KT 8000 -RA SCT004 BKN014 09/08 Q0983=
202403261950 METAR EGKK 261950Z 21003KT 8000 -RA SCT006 BKN016 09/08 Q0983=
202403262020 METAR EGKK 262020Z 21004KT 7000 -RA SCT004 BKN018 09/08 Q0983=
202403262050 METAR EGKK 262050Z 23009KT 9999 -RA SCT005 BKN031 08/07 Q0983=
202403262120 METAR EGKK 262120Z 24012KT 9000 -RA FEW006 SCT008 BKN042 07/06 Q0983=
202403262150 METAR EGKK 262150Z 24011KT 9999 -RA SCT008 BKN032 07/06 Q0983=
202403262220 METAR EGKK 262220Z 24008KT 9999 -RA SCT012 BKN044 06/05 Q0983=
202403262250 METAR EGKK 262250Z 24007KT 9999 -DZ FEW010 06/05 Q0983=
202403262320 METAR EGKK 262320Z 22007KT 9999 -DZ BKN032 06/05 Q0983=
202403262350 METAR EGKK 262350Z 21006KT 9999 -RA SCT040 06/05 Q0983=
202403270020 METAR EGKK 270020Z 25003KT 9999 FEW029 05/04 Q0981=
202403270050 METAR EGKK 270050Z 17003KT CAVOK 05/04 Q0982=
202403270120 METAR EGKK 270120Z 20005KT 9999 FEW025 05/04 Q0983=
202403270150 METAR EGKK 270150Z 20003KT CAVOK 05/04 Q0982=
202403270220 METAR EGKK 270220Z 19003KT CAVOK 05/04 Q0982=
202403270250 METAR EGKK 270250Z 17003KT 140V210 CAVOK 05/04 Q0981=
202403270320 METAR EGKK 270320Z 16005KT CAVOK 05/05 Q0982=
202403270350 METAR EGKK 270350Z 16004KT 9999 SCT020 BKN044 06/05 Q0981=
202403270420 METAR EGKK 270420Z 16003KT 9999 -RA SCT028 06/05 Q0981=
202403270450 METAR EGKK 270450Z 18003KT 150V220 9999 FEW027 06/05 Q0981=
202403270520 METAR EGKK 270520Z 16004KT CAVOK 06/05 Q0981=
202403270550 METAR EGKK 270550Z 16003KT 140V200 CAVOK 05/04 Q0980=
202403270620 METAR EGKK 270620Z 17005KT 150V210 9999 FEW018 06/05 Q0980=
202403270650 METAR EGKK 270650Z 18007KT 150V210 9999 FEW020 07/05 Q0980=
202403270720 METAR EGKK 270720Z 17007KT 140V210 9999 FEW023 07/05 Q0980=
202403270750 METAR EGKK 270750Z 18010KT 150V210 9999 FEW023 08/05 Q0981=
202403270820 METAR EGKK 270820Z 18012KT 140V200 9999 FEW021 09/05 Q0981=
202403270850 METAR EGKK 270850Z 18012KT 130V200 9999 SCT022 09/05 Q0981=
202403270920 METAR EGKK 270920Z 18014G25KT 140V210 9999 FEW025 10/03 Q0981=
202403270950 METAR EGKK 270950Z 18016KT 150V210 9999 FEW033 10/02 Q0981=
202403271020 METAR EGKK 271020Z 18014G24KT 9999 SCT027 10/03 Q0981=
202403271050 METAR EGKK 271050Z 18013KT 140V210 9999 SCT024 10/04 Q0981=
202403271120 METAR EGKK 271120Z 18015G25KT 140V210 9999 BKN023 10/04 Q0981=
202403271150 METAR EGKK 271150Z 17014KT 140V210 9999 -RA BKN023 10/04 Q0981=
202403271220 METAR EGKK 271220Z 17010KT 140V200 7000 -RA SCT018 BKN023 08/05 Q0981 RESHRA=
202403271250 METAR EGKK 271250Z 22011KT 9999 -RA FEW011 SCT018 BKN040 06/05 Q0981=
202403271320 METAR EGKK 271320Z 18008KT 140V220 9999 -RA FEW043 07/05 Q0981=
202403271350 METAR EGKK 271350Z 17008KT 120V210 9999 FEW014 08/06 Q0981=
202403271420 METAR EGKK 271420Z 19009KT 140V230 9999 SCT018 09/06 Q0981=
202403271450 METAR EGKK 271450Z 18012KT 140V220 9999 SCT020 09/05 Q0981=
202403271520 METAR EGKK 271520Z 18010KT 9999 SCT019 10/05 Q0981=
202403271550 METAR EGKK 271550Z 18011KT 140V210 9999 SCT023 10/04 Q0981=
202403271620 METAR EGKK 271620Z 19013KT 150V210 9999 SCT028 10/04 Q0981=
202403271650 METAR EGKK 271650Z 19010KT 150V210 9999 SCT027 10/03 Q0981=
202403271720 METAR EGKK 271720Z 20011KT 160V220 9999 SCT028 09/03 Q0981=
202403271750 METAR EGKK 271750Z 19009KT 9999 FEW030 09/03 Q0981=
202403271820 METAR EGKK 271820Z 17006KT 9999 FEW030 09/03 Q0981=
202403271850 METAR EGKK 271850Z 14004KT CAVOK 08/03 Q0981=
202403271920 METAR EGKK 271920Z 14004KT 100V170 CAVOK 08/04 Q0980=
202403271950 METAR EGKK 271950Z 11005KT CAVOK 07/05 Q0980=
202403272020 METAR EGKK 272020Z 09006KT CAVOK 06/05 Q0980=
202403272050 METAR EGKK 272050Z 09006KT CAVOK 06/05 Q0980=
202403272120 METAR EGKK 272120Z 11006KT 080V150 9999 FEW035 07/06 Q0979=
202403272150 METAR EGKK 272150Z 12008KT 9999 FEW035 08/06 Q0979=
202403272220 METAR EGKK 272220Z 12009KT CAVOK 08/06 Q0978=
202403272250 METAR EGKK 272250Z 12010KT 090V150 9999 FEW018 08/06 Q0977=
202403272320 METAR EGKK 272320Z 12009KT 9999 FEW015 08/06 Q0976=
202403272350 METAR EGKK 272350Z 13013KT 9999 FEW014 08/06 Q0976=
202403280020 METAR EGKK 280020Z NIL=
202403280050 METAR EGKK 280050Z 13012KT 9999 -RA SCT013 SCT022 BKN049 08/06 Q0975=
202403280120 METAR EGKK 280120Z 14012KT 110V180 7000 -RA FEW013 SCT019 BKN032 08/06 Q0974 RERA=
202403280150 METAR EGKK 280150Z 13014KT 8000 -RA FEW013 SCT021 07/06 Q0974=
202403280220 METAR EGKK 280220Z 14014KT 9000 -RA BKN012 07/06 Q0973=
202403280250 METAR EGKK 280250Z 19011KT 160V220 9999 -RA BKN012 07/05 Q0973=
202403280320 METAR EGKK 280320Z 22010KT 9999 SCT011 BKN018 06/05 Q0974=
202403280350 METAR EGKK 280350Z 21009KT 9999 FEW017 06/04 Q0975=
202403280420 METAR EGKK 280420Z 22008KT CAVOK 05/03 Q0975=
202403280450 METAR EGKK 280450Z 20005KT 9999 FEW020 05/03 Q0976=
202403280520 METAR EGKK 280520Z 19005KT 9999 FEW032 05/03 Q0977=
202403280550 METAR EGKK 280550Z 19005KT 150V230 9999 FEW023 05/03 Q0977=
202403280620 METAR EGKK 280620Z 19007KT 170V230 9999 -RA FEW024 SCT043 05/03 Q0978=
202403280650 METAR EGKK 280650Z 20007KT 9999 -SHRA FEW019 SCT038 05/03 Q0978=
202403280720 METAR EGKK 280720Z 21008KT 9999 2500SW -RA VCSH SCT014CB BKN027 05/03 Q0978=
202403280750 METAR EGKK 280750Z 22009KT 7000 -RA FEW012 BKN018CB 05/03 Q0979 RESHRA=
202403280820 METAR EGKK 280820Z 18007KT 120V220 9999 -SHRA FEW014 BKN020 07/05 Q0979=
202403280850 METAR EGKK 280850Z 19012KT 140V220 9999 SCT019 08/04 Q0979=
202403280920 METAR EGKK 280920Z 18012KT 9999 SCT020 SCT029 08/04 Q0979=
202403280950 METAR EGKK 280950Z 19013G24KT 9999 SCT023 SCT028 09/04 Q0979=
202403281020 METAR EGKK 281020Z 18015G25KT 140V210 9999 BKN024 09/04 Q0979=
202403281050 METAR EGKK 281050Z 17015G25KT 130V220 8000 -RA FEW012 BKN020 08/04 Q0979=
202403281120 METAR EGKK 281120Z 17014G25KT 7000 2500W -RA FEW013 BKN018 BKN025 07/05 Q0979 RESHRA=
202403281150 METAR EGKK 281150Z 17012KT 140V200 6000 2500W -RA VCSH BKN013 BKN022 07/05 Q0979=
202403281220 METAR EGKK 281220Z 17012KT 9999 -SHRA FEW018 BKN025 08/06 Q0978=
202403281250 METAR EGKK 281250Z 17014G25KT 140V210 9000 -SHRA BKN023 09/06 Q0978=
202403281320 METAR EGKK 281320Z 18015G27KT 9000 -RA SCT023 BKN028 09/06 Q0978=
202403281350 METAR EGKK 281350Z 18016G28KT 150V210 9000 -RA SCT015 BKN023 09/07 Q0979 RERA=
202403281420 METAR EGKK 281420Z 19014KT 9000 -RA FEW015 BKN020 10/07 Q0979=
202403281450 METAR COR EGKK 281450Z 18013KT 150V210 7000 -RA FEW019 BKN028 09/07 Q0979=
202403281520 METAR EGKK 281520Z 18016G26KT 140V210 9999 -RA FEW019 BKN030 09/07 Q0979=
202403281550 METAR EGKK 281550Z 20017G27KT 9999 SCT020 BKN025 10/07 Q0978=
202403281620 METAR EGKK 281620Z 19018G29KT 9999 SCT026 BKN030 11/06 Q0979=
202403281650 METAR EGKK 281650Z 19019G32KT 160V220 9999 BKN029 11/06 Q0978=
202403281720 METAR EGKK 281720Z 20019G35KT 160V220 9999 BKN029 11/06 Q0978=
202403281750 METAR EGKK 281750Z 19019G33KT 160V220 9999 BKN023 11/06 Q0979=
202403281820 METAR EGKK 281820Z 20019G32KT 9999 BKN026 10/06 Q0979=
202403281850 METAR EGKK 281850Z 20018G30KT 9999 BKN027 10/06 Q0980=
202403281920 METAR EGKK 281920Z 20018G30KT 9999 BKN024 10/06 Q0980=
202403281950 METAR EGKK 281950Z 21017G31KT 9999 BKN024 10/06 Q0981=
202403282020 METAR EGKK 282020Z 20018G30KT 170V240 9999 BKN023 10/06 Q0981=
202403282050 METAR EGKK 282050Z 21017KT 170V230 9999 BKN021 10/06 Q0981=
202403282120 METAR EGKK 282120Z 21019G33KT 190V250 9999 BKN023 10/06 Q0982=
202403282150 METAR EGKK 282150Z 21019G32KT 160V230 9999 BKN021 10/06 Q0982=
202403282220 METAR EGKK 282220Z 21017G27KT 9999 BKN020 10/06 Q0982=
202403282250 METAR EGKK 282250Z 21016G27KT 9999 BKN019 10/06 Q0983=
202403282320 METAR EGKK 282320Z 22017G27KT 9999 BKN022 09/05 Q0983=
202403282350 METAR EGKK 282350Z 22015KT 9999 SCT021 BKN034 09/05 Q0984=
202403290020 METAR EGKK 290020Z 21014KT 9999 SCT021 SCT042 09/05 Q0984=
202403290050 METAR EGKK 290050Z 21010KT 180V240 9999 -RA SCT022 09/06 Q0984=
202403290120 METAR EGKK 290120Z 20009KT 170V230 9999 SCT018 08/06 Q0984=
202403290150 METAR EGKK 290150Z 20007KT 9999 SCT013 08/07 Q0984=
202403290220 METAR EGKK 290220Z 19008KT 160V220 3500 RA SCT014 SCT026 08/06 Q0985=
202403290250 METAR EGKK 290250Z 22009KT 4500 -RA FEW011 BKN022 07/06 Q0985 RERA=
202403290320 METAR EGKK 290320Z 22008KT 6000 -RA SCT019 BKN026 07/05 Q0985 RERA=
202403290350 METAR EGKK 290350Z 19007KT 150V220 9999 SCT020 SCT028 07/06 Q0985=
202403290420 METAR EGKK 290420Z 24005KT 190V270 9999 SCT018 07/06 Q0985=
202403290450 METAR EGKK 290450Z 19009KT 160V230 9999 SCT019 08/06 Q0985=
202403290520 METAR EGKK 290520Z 19010KT 9999 BKN018 08/06 Q0985=
202403290550 METAR EGKK 290550Z 20008KT 150V230 9999 SCT019 08/06 Q0985=
202403290620 METAR EGKK 290620Z 18008KT 9999 SCT017 08/06 Q0986=
202403290650 METAR EGKK 290650Z 18010KT 9999 SCT017 08/06 Q0986=
202403290720 METAR EGKK 290720Z 18010KT 140V220 9999 SCT019 09/06 Q0986=
202403290750 METAR EGKK 290750Z 19011KT 9999 BKN022 09/06 Q0986=
202403290820 METAR EGKK 290820Z 18012KT 7000 -RA SCT015 BKN019 09/06 Q0986=
202403290850 METAR EGKK 290850Z 18012KT 3100 -RADZ SCT009 BKN011 09/07 Q0987=
202403290920 METAR EGKK 290920Z 20010KT 150V230 8000 -RA BKN010 09/08 Q0987=
202403290950 METAR EGKK 290950Z 20011G21KT 170V230 9999 FEW009 BKN013 09/08 Q0987=
202403291020 METAR EGKK 291020Z 19012KT 160V220 9999 -RA BKN012 10/08 Q0987=
202403291050 METAR EGKK 291050Z 20011KT 160V240 9999 BKN015 10/08 Q0987=
202403291120 METAR EGKK 291120Z 20011KT 170V230 9999 BKN020 11/07 Q0988=
202403291150 METAR EGKK 291150Z 21013KT 9999 BKN022 11/07 Q0988=
202403291220 METAR EGKK 291220Z 22014KT 9999 BKN021 BKN033 11/07 Q0988=
202403291250 METAR EGKK 291250Z 21014G24KT 170V250 9999 SCT023 BKN036 12/07 Q0988=
202403291320 METAR EGKK 291320Z 21014KT 170V230 9999 SCT024 BKN032 12/07 Q0988=
202403291350 METAR EGKK 291350Z 20015KT 180V240 9999 SCT027 13/07 Q0988=
202403291420 METAR EGKK 291420Z 22013G24KT 170V250 9999 SCT030 13/06 Q0989=
202403291450 METAR EGKK 291450Z 21016G28KT 180V240 9999 SCT032 13/05 Q0989=
202403291520 METAR EGKK 291520Z 21015KT 170V240 9999 SCT032 13/05 Q0989=
202403291550 METAR EGKK 291550Z 21011G21KT 9999 SCT033 13/05 Q0989=
202403291620 METAR EGKK 291620Z 21010KT 170V240 9999 SCT033 13/05 Q0989=
202403291650 METAR EGKK 291650Z 20013G24KT 170V250 9999 SCT031 12/05 Q0989=
202403291720 METAR EGKK 291720Z 21013KT 9999 SCT031 12/05 Q0990=
202403291750 METAR EGKK 291750Z 20012KT 9999 FEW025 11/05 Q0990=
202403291820 METAR EGKK 291820Z 20009KT 160V220 CAVOK 11/05 Q0990=
202403291850 METAR EGKK 291850Z 21008KT CAVOK 10/05 Q0991=
202403291920 METAR EGKK 291920Z 20007KT CAVOK 10/05 Q0991=
202403291950 METAR EGKK 291950Z 20005KT CAVOK 09/05 Q0991=
202403292020 METAR EGKK 292020Z 20003KT 160V240 CAVOK 09/05 Q0992=
202403292050 METAR EGKK 292050Z 15003KT 120V190 CAVOK 09/06 Q0992=
202403292120 METAR EGKK 292120Z 14004KT CAVOK 09/06 Q0992=
202403292150 METAR EGKK 292150Z 16004KT 9999 FEW049 08/06 Q0992=
202403292220 METAR EGKK 292220Z 17003KT 150V210 CAVOK 08/06 Q0992=
202403292250 METAR EGKK 292250Z 15003KT 130V200 9999 FEW046 08/06 Q0993=
202403292320 METAR EGKK 292320Z VRB02KT 9999 FEW045 08/06 Q0993=
202403292350 METAR EGKK 292350Z 16003KT CAVOK 08/06 Q0993=
202403300020 METAR EGKK 300020Z 17003KT 140V210 CAVOK 08/06 Q0993=
202403300050 METAR EGKK 300050Z 21003KT 170V230 CAVOK 07/06 Q0993=
202403300120 METAR EGKK 300120Z 16003KT CAVOK 07/06 Q0993=
202403300150 METAR EGKK 300150Z 18003KT CAVOK 07/06 Q0993=
202403300220 METAR EGKK 300220Z VRB01KT CAVOK 07/06 Q0993=
202403300250 METAR EGKK 300250Z 23001KT CAVOK 06/05 Q0993=
202403300320 METAR EGKK 300320Z VRB01KT CAVOK 05/05 Q0993=
202403300350 METAR EGKK 300350Z 13001KT 9999 4000SW PRFG NSC 05/05 Q0993=
202403300420 METAR EGKK 300420Z VRB01KT 9999 3000W PRFG NSC 04/04 Q0993=
202403300450 METAR EGKK 300450Z 07002KT 9000 3000W BCFG FEW030 04/03 Q0993=
202403300520 METAR EGKK 300520Z VRB01KT 8000 3000W PRFG FEW031 04/04 Q0993=
202403300550 METAR EGKK 300550Z VRB01KT 6000 2000W PRFG NSC 03/03 Q0993=
202403300620 METAR EGKK 300620Z VRB01KT 2500 BCFG NSC 04/04 Q0993=
202403300650 METAR EGKK 300650Z 09003KT 3500 VCFG FEW003 05/04 Q0994=
202403300720 METAR EGKK 300720Z 10002KT 5000 VCFG FEW003 06/05 Q0994=
202403300750 METAR EGKK 300750Z VRB01KT 7000 VCFG NSC 06/06 Q0994=
202403300820 METAR EGKK 300820Z VRB02KT 9000 FEW003 08/07 Q0994=
202403300850 METAR EGKK 300850Z VRB02KT 9999 FEW007 09/08 Q0994=
202403300920 METAR EGKK 300920Z VRB03KT 9999 FEW009 11/07 Q0994=
202403300950 METAR EGKK 300950Z VRB02KT 9999 SCT014 11/07 Q0995=
202403301020 METAR EGKK 301020Z 25004KT 210V280 9999 FEW024 SCT030 11/07 Q0995=
202403301050 METAR EGKK 301050Z 22006KT 9999 FEW024 SCT029 12/05 Q0995=
202403301120 METAR EGKK 301120Z 19007KT 150V230 9999 SCT032 13/04 Q0995=
202403301150 METAR EGKK 301150Z 24007KT 9999 SCT031 13/05 Q0995=
202403301220 METAR EGKK 301220Z 20007KT 140V250 9999 FEW039 13/04 Q0995=
202403301250 METAR EGKK 301250Z 18006KT 120V240 9999 FEW041 14/03 Q0995=
202403301320 METAR EGKK 301320Z 19006KT 140V240 9999 FEW043 14/03 Q0995=
202403301350 METAR EGKK 301350Z 18006KT 130V220 9999 FEW046 14/02 Q0995=
202403301420 METAR EGKK 301420Z 18005KT 130V240 CAVOK 14/03 Q0995=
202403301450 METAR EGKK 301450Z 18006KT 140V220 CAVOK 14/02 Q0995=
202403301520 METAR EGKK 301520Z 19008KT 140V230 9999 FEW048 14/02 Q0995=
202403301550 METAR EGKK 301550Z 19008KT 9999 FEW048 14/02 Q0995=
202403301620 METAR EGKK 301620Z 17008KT CAVOK 13/02 Q0996=
202403301650 METAR EGKK 301650Z 18007KT 140V220 CAVOK 13/02 Q0996=
202403301720 METAR EGKK 301720Z 15007KT 110V180 CAVOK 12/02 Q0996=
202403301750 METAR EGKK 301750Z 16004KT 110V190 CAVOK 12/02 Q0996=
202403301820 METAR EGKK 301820Z 13004KT CAVOK 11/02 Q0996=
202403301850 METAR EGKK 301850Z 09004KT CAVOK 09/02 Q0996=
202403301920 METAR EGKK 301920Z 12003KT CAVOK 09/02 Q0996=
202403301950 METAR EGKK 301950Z 11003KT CAVOK 09/02 Q0996=
202403302020 METAR EGKK 302020Z 12004KT CAVOK 08/03 Q0996=
202403302050 METAR EGKK 302050Z 08003KT CAVOK 07/03 Q0996=
202403302120 METAR EGKK 302120Z 08002KT CAVOK 07/03 Q0996=
202403302150 METAR EGKK 302150Z 06005KT CAVOK 05/02 Q0997=
202403302220 METAR EGKK 302220Z 07005KT 9999 FEW045 05/03 Q0997=
202403302250 METAR EGKK 302250Z 08004KT 9999 FEW045 05/03 Q0997=
202403302320 METAR EGKK 302320Z 08005KT 9999 FEW045 05/03 Q0997=
202403302350 METAR EGKK 302350Z 07006KT CAVOK 05/04 Q0997=
202403310020 METAR EGKK 310020Z 07005KT CAVOK 04/03 Q0996=
202403310050 METAR EGKK 310050Z 07005KT CAVOK 04/03 Q0996=
202403310120 METAR EGKK 310120Z 06004KT CAVOK 05/04 Q0996=
202403310150 METAR EGKK 310150Z 06005KT CAVOK 03/03 Q0996=
202403310220 METAR EGKK 310220Z 07004KT CAVOK 04/03 Q0995=
202403310250 METAR EGKK 310250Z 08005KT CAVOK 04/03 Q0995=
202403310320 METAR EGKK 310320Z 07005KT CAVOK 03/03 Q0995=
202403310350 METAR EGKK 310350Z 07005KT CAVOK 03/03 Q0995=
202403310420 METAR EGKK 310420Z 07006KT CAVOK 04/04 Q0995=
202403310450 METAR EGKK 310450Z 08006KT 9000 NSC 04/04 Q0994=
202403310520 METAR EGKK 310520Z 08009KT 9000 NSC 05/05 Q0994=
202403310550 METAR EGKK 310550Z 07008KT CAVOK 05/05 Q0994=
202403310620 METAR EGKK 310620Z 08007KT CAVOK 06/05 Q0994=
202403310650 METAR EGKK 310650Z 08007KT 9000 NSC 06/06 Q0994=
202403310720 METAR EGKK 310720Z 06007KT 9999 FEW011 BKN027 07/07 Q0994=
202403310750 METAR COR EGKK 310750Z 08009KT 8000 SCT011 BKN027 08/07 Q0994=
202403310820 METAR EGKK 310820Z 07011KT 9999 BKN009 BKN030 09/07 Q0993=
202403310850 METAR EGKK 310850Z 07009KT 9999 SCT009 BKN031 09/08 Q0993=
202403310920 METAR EGKK 310920Z 07011KT 9999 BKN009 10/08 Q0993=
202403310950 METAR EGKK 310950Z 08010KT 9999 BKN012 10/08 Q0993=
202403311020 METAR EGKK 311020Z 07010KT 9999 BKN011 10/08 Q0993=
202403311050 METAR EGKK 311050Z 06011KT 9999 SCT012 BKN018 11/09 Q0993=
202403311120 METAR EGKK 311120Z 07010KT 9999 SCT012 12/09 Q0992=
202403311150 METAR EGKK 311150Z 07012KT 030V090 9999 SCT014 12/08 Q0992=
202403311220 METAR EGKK 311220Z 07012KT 9999 SCT018 13/09 Q0992=
202403311250 METAR EGKK 311250Z 05011KT 9999 SCT022 14/09 Q0992=
202403311320 METAR EGKK 311320Z 06011KT 9999 SCT024 14/08 Q0991=
202403311350 METAR EGKK 311350Z 08007KT 050V130 9999 FEW025 SCT033 15/08 Q0991=
202403311420 METAR EGKK 311420Z 05009KT 010V080 9999 FEW030 SCT038 15/08 Q0991=
202403311450 METAR EGKK 311450Z 05012KT 9999 FEW028 SCT030 14/09 Q0990=
202403311520 METAR EGKK 311520Z 05012KT 9999 FEW025 SCT035 14/09 Q0990=
202403311550 METAR EGKK 311550Z 06013KT 9999 SCT022 13/09 Q0990=
202403311620 METAR EGKK 311620Z 05011KT 9999 SCT021 13/09 Q0990=
202403311650 METAR COR EGKK 311650Z 05010KT 030V090 9999 SCT020 13/09 Q0990=
202403311720 METAR EGKK 311720Z 06012KT 9999 SCT020 12/08 Q0990=
202403311750 METAR EGKK 311750Z 06012KT 9999 FEW026 11/08 Q0990=
202403311820 METAR EGKK 311820Z 07011KT 9999 FEW020 11/08 Q0990=
202403311850 METAR EGKK 311850Z 06007KT 9999 FEW030 10/08 Q0990=
202403311920 METAR EGKK 311920Z 05007KT 9999 FEW035 10/08 Q0990=
202403311950 METAR EGKK 311950Z 07005KT 9000 SCT023 10/08 Q0990=
202403312020 METAR EGKK 312020Z 11005KT 9000 BKN013 10/08 Q0990=
202403312050 METAR EGKK 312050Z 12005KT 080V140 9999 BKN016 10/08 Q0990=
202403312120 METAR EGKK 312120Z 19004KT 150V230 9999 BKN009 10/08 Q0990=
202403312150 METAR EGKK 312150Z 22009KT 9999 FEW009 SCT017 BKN023 10/07 Q0990=
202403312220 METAR EGKK 312220Z 24006KT 9999 SCT028 BKN034 10/07 Q0990=
202403312250 METAR EGKK 312250Z 25004KT 9999 BKN034 09/07 Q0990=
202403312320 METAR EGKK 312320Z 20007KT 170V230 9999 BKN042 09/07 Q0990=
202403312350 METAR EGKK 312350Z 21006KT CAVOK 09/06 Q0990=
202404010020 METAR EGKK 010020Z 20008KT 9999 BKN045 09/07 Q0990=
202404010050 METAR EGKK 010050Z 23005KT 9999 BKN046 09/07 Q0990=
202404010120 METAR EGKK 010120Z 23006KT 9999 FEW010 08/07 Q0990=
202404010150 METAR EGKK 010150Z 22007KT 9999 SCT015 08/07 Q0991=
202404010220 METAR EGKK 010220Z 22005KT 9999 SCT011 08/07 Q0991=
202404010250 METAR EGKK 010250Z 23005KT 9999 SCT008 BKN012 09/07 Q0991=
202404010320 METAR EGKK 010320Z 23006KT 9999 BKN008 09/07 Q0991=
202404010350 METAR EGKK 010350Z 23009KT 9999 SCT008 BKN013 09/07 Q0992=
202404010420 METAR EGKK 010420Z 24005KT 9999 FEW009 08/07 Q0992=
202404010450 METAR EGKK 010450Z VRB02KT 9999 FEW009 07/06 Q0992=
202404010520 METAR EGKK 010520Z 21002KT CAVOK 07/06 Q0992=
202404010550 METAR EGKK 010550Z 21002KT 9999 FEW010 07/06 Q0993=
202404010620 METAR EGKK 010620Z 21002KT 9999 FEW008 07/06 Q0993=
202404010650 METAR EGKK 010650Z 23003KT 190V250 9999 FEW008 08/07 Q0993=
202404010720 METAR EGKK 010720Z 20004KT 160V230 9999 FEW008 09/07 Q0993=
202404010750 METAR EGKK 010750Z 22008KT 9999 SCT011 10/08 Q0993=
202404010820 METAR EGKK 010820Z 22008KT 9999 SCT010 10/07 Q0993=
202404010850 METAR EGKK 010850Z 23008KT 9999 SCT013 10/07 Q0993=
202404010920 METAR EGKK 010920Z 23008KT 9999 FEW019 11/06 Q0994=
202404010950 METAR EGKK 010950Z 21007KT 160V280 9999 SCT025 SCT033 13/06 Q0994=
202404011020 METAR EGKK 011020Z 19008KT 160V230 9999 VCSH FEW022 BKN027 12/06 Q0994=
202404011050 METAR EGKK 011050Z 21007KT 170V250 9999 -SHRA BKN022 13/07 Q0994=
202404011120 METAR EGKK 011120Z 26010KT 9999 -SHRA BKN019 10/07 Q0995=
202404011150 METAR EGKK 011150Z 21004KT 160V260 9999 VCSH FEW018 SCT029 10/08 Q0995=
202404011220 METAR EGKK 011220Z 19009KT 170V230 9999 VCSH FEW015 BKN042 10/07 Q0995=
202404011250 METAR EGKK 011250Z 21007KT 160V250 9999 -SHRA FEW013 BKN027 10/08 Q0996=
202404011320 METAR EGKK 011320Z 22007KT 9999 -SHRA FEW011 SCT027 BKN032TCU 10/08 Q0996=
202404011350 METAR EGKK 011350Z 25007KT 9999 -SHRA FEW015 SCT018 BKN030TCU 10/08 Q0996=
202404011420 METAR EGKK 011420Z 23005KT 200V270 9999 -RA FEW023 SCT037 10/08 Q0996=
202404011450 METAR EGKK 011450Z 22010KT 9999 FEW023 12/08 Q0996=
202404011520 METAR EGKK 011520Z 21011KT 9999 FEW025 12/07 Q0996=
202404011550 METAR EGKK 011550Z 23011KT 9999 FEW023 12/07 Q0996=
202404011620 METAR EGKK 011620Z 21010KT 9999 FEW040 12/06 Q0996=
202404011650 METAR EGKK 011650Z 23011KT 9999 FEW031 12/06 Q0996=
202404011720 METAR EGKK 011720Z 22009KT 180V240 9999 FEW029 12/05 Q0997=
202404011750 METAR EGKK 011750Z 21008KT 9999 FEW031 11/05 Q0997=
202404011820 METAR EGKK 011820Z 19007KT CAVOK 11/06 Q0997=
202404011850 METAR EGKK 011850Z 19006KT CAVOK 10/06 Q0997=
202404011920 METAR EGKK 011920Z 18004KT 140V210 9999 FEW037 09/06 Q0997=
202404011950 METAR EGKK 011950Z 17004KT 140V200 9999 FEW036 09/06 Q0997=
202404012020 METAR EGKK 012020Z 20008KT 9999 -RA BKN043 09/07 Q0998=
202404012050 METAR EGKK 012050Z 20007KT 9999 BKN049 09/07 Q0998=
202404012120 METAR EGKK 012120Z 19006KT 160V220 9999 BKN046 09/08 Q0998=
202404012150 METAR EGKK 012150Z 19006KT 9999 FEW022 BKN035 09/08 Q0998=
202404012220 METAR EGKK 012220Z 19009KT 160V220 8000 -RA SCT014 BKN018 09/08 Q0998=
202404012250 METAR EGKK 012250Z 20011KT 170V230 9999 BKN018 10/08 Q0998=
202404012320 METAR EGKK 012320Z 21010KT 170V240 9999 BKN018 09/07 Q0998=
202404012350 METAR EGKK 012350Z 20008KT 9999 BKN018 09/07 Q0998=
202404020020 METAR EGKK 020020Z 20008KT 9999 BKN015 09/08 Q0999=
202404020050 METAR EGKK 020050Z 21010KT 8000 -RA BKN012 09/08 Q0999=
202404020120 METAR EGKK 020120Z 20008KT 160V230 9999 BKN014 09/08 Q0999=
202404020150 METAR EGKK 020150Z 19009KT 9999 FEW015 BKN022 09/08 Q0999=
202404020220 METAR EGKK 020220Z 19009KT 9999 BKN014 10/08 Q0999=
202404020250 METAR EGKK 020250Z 19010KT 9999 -RA BKN010 09/08 Q0998=
202404020320 METAR EGKK 020320Z 20011KT 150V240 7000 -RA BKN010 09/08 Q0998=
202404020350 METAR EGKK 020350Z 20009KT 160V230 9999 BKN012 09/08 Q0998=
202404020420 METAR EGKK 020420Z 20009KT 170V230 8000 -RA BKN011 09/08 Q0998=
202404020450 METAR EGKK 020450Z 20010KT 160V230 9999 -RA BKN011 09/08 Q0998=
202404020520 METAR EGKK 020520Z 21009KT 180V240 9999 -RA BKN010 09/08 Q0999=
202404020550 METAR EGKK 020550Z 22008KT 9999 BKN012 09/08 Q0999=
202404020620 METAR EGKK 020620Z 23009KT 190V250 9999 SCT010 BKN020 09/08 Q1000=
202404020650 METAR EGKK 020650Z 24010KT 9999 SCT015 SCT021 09/08 Q1000=
202404020720 METAR EGKK 020720Z 24009KT 9999 BKN018 09/07 Q1001=
202404020750 METAR EGKK 020750Z 24010KT 9999 SCT015 09/07 Q1002=
202404020820 METAR EGKK 020820Z 25010KT 9999 SCT013 10/07 Q1002=
202404020850 METAR EGKK 020850Z 24010KT 9999 SCT014 10/07 Q1003=
202404020920 METAR EGKK 020920Z 24010KT 9999 SCT016 11/07 Q1003=
202404020950 METAR EGKK 020950Z 25008KT 9999 SCT022 11/08 Q1004=
202404021020 METAR EGKK 021020Z 23011KT 9999 SCT021 12/07 Q1004=
202404021050 METAR EGKK 021050Z 25011KT 9999 SCT025 13/07 Q1004=
202404021120 METAR EGKK 021120Z 23012KT 9999 SCT032 13/06 Q1004=
202404021150 METAR EGKK 021150Z 22012KT 9999 SCT033 14/06 Q1004=
202404021220 METAR EGKK 021220Z 21012KT 9999 SCT032 14/06 Q1005=
202404021250 METAR EGKK 021250Z 22012KT 9999 SCT029 14/07 Q1005=
202404021320 METAR EGKK 021320Z 23011KT 190V270 9999 FEW027 SCT030 14/07 Q1005=
202404021350 METAR EGKK 021350Z 22012KT 9999 FEW020 BKN031 13/08 Q1005=
202404021420 METAR EGKK 021420Z 23011KT 9999 VCSH SCT016 BKN038 12/08 Q1005=
202404021450 METAR EGKK 021450Z 21010KT 9999 SCT017 12/07 Q1005=
202404021520 METAR EGKK 021520Z 21010KT 9999 FEW021 12/05 Q1005=
202404021550 METAR EGKK 021550Z 20007KT 170V230 9999 FEW024 SCT028 12/06 Q1005=
202404021620 METAR EGKK 021620Z 19007KT 9999 -RA SCT020 11/08 Q1004=
202404021650 METAR EGKK 021650Z 16007KT 140V200 9000 -RA BKN009 BKN025 10/09 Q1004=
202404021720 METAR EGKK 021720Z 19009KT 160V220 9999 -RA BKN009 BKN018 11/09 Q1004=
202404021750 METAR EGKK 021750Z 19011KT 8000 -RA BKN009 BKN018 11/09 Q1004=
202404021820 METAR EGKK 021820Z 19010KT 140V220 8000 -RA BKN010 10/09 Q1003=
202404021850 METAR EGKK 021850Z 17010KT 140V210 9000 -RA BKN010 10/09 Q1003=
202404021920 METAR EGKK 021920Z 18013G24KT 140V220 6000 -RA FEW007 BKN009 BKN017 10/09 Q1003=
202404021950 METAR EGKK 021950Z 18011KT 6000 -RA BKN009 BKN017 10/09 Q1003=
202404022020 METAR EGKK 022020Z 19013KT 160V220 5000 -RADZ BKN007 BKN016 10/09 Q1003=
202404022050 METAR EGKK 022050Z 20011KT 150V220 4000 -RADZ BKN007 BKN010 10/09 Q1002=
202404022120 METAR EGKK 022120Z 20009KT 170V230 4000 -RADZ BKN007 10/09 Q1002=
202404022150 METAR EGKK 022150Z 20010KT 160V230 4000 -RADZ BKN007 BKN014 10/09 Q1002=
202404022220 METAR EGKK 022220Z 20010KT 5000 -RADZ BKN007 10/09 Q1002=
202404022250 METAR EGKK 022250Z 20010KT 4500 -DZ BKN007 BKN010 10/09 Q1001=
202404022320 METAR EGKK 022320Z 20010G20KT 170V230 3500 -RADZ BKN007 10/09 Q1001=
202404022350 METAR EGKK 022350Z 20011KT 3500 -RADZ BKN006 10/09 Q1001=
202404030020 METAR EGKK 030020Z 20010KT 5000 -RA BKN007 10/09 Q1001=
202404030050 METAR EGKK 030050Z 20008KT 4000 -DZ BKN006 10/09 Q1000=
202404030120 METAR EGKK 030120Z 20009KT 4000 -DZRA BKN006 10/09 Q1000=
202404030150 METAR EGKK 030150Z 19008KT 9999 -RA BKN006 10/09 Q1000=
202404030220 METAR EGKK 030220Z 20007KT 3500 -DZ BKN006 10/10 Q0999=
202404030250 METAR EGKK 030250Z 20008KT 170V230 5000 -DZ BKN006 10/10 Q0999=
202404030320 METAR EGKK 030320Z 20008KT 7000 -RA BKN005 10/10 Q0999=
202404030350 METAR EGKK 030350Z 20008KT 9000 -RA BKN006 10/10 Q0998=
202404030420 METAR EGKK 030420Z 20008KT 160V230 9999 BKN006 11/10 Q0998=
202404030450 METAR EGKK 030450Z 18006KT 4000 -DZ BKN005 11/10 Q0998=
202404030520 METAR EGKK 030520Z 20006KT 160V230 9000 -RA FEW005 BKN006 11/10 Q0998=
202404030550 METAR EGKK 030550Z 20008KT 2500 -DZRA BKN005 11/10 Q0998=
202404030620 METAR EGKK 030620Z 19008KT 5000 -RADZ BKN006 11/11 Q0998=
202404030650 METAR EGKK 030650Z 20010KT 170V240 3000 -DZ BKN007 11/11 Q0998=
202404030720 METAR EGKK 030720Z 20011KT 2500 -DZ BKN006 11/11 Q0998=
202404030750 METAR EGKK 030750Z 22009KT 9999 VCSH BKN008 SCT011 11/10 Q0998=
202404030820 METAR EGKK 030820Z 21009KT 180V260 9999 VCSH BKN010 11/09 Q0998=
202404030850 METAR EGKK 030850Z 21011KT 8000 BKN011 11/09 Q0998=
202404030920 METAR EGKK 030920Z 21011KT 5000 BR BKN009 11/10 Q0998=
202404030950 METAR EGKK 030950Z 22011KT 180V250 9000 BKN008 11/10 Q0998=
202404031020 METAR EGKK 031020Z 22014KT 9999 BKN010 11/10 Q0999=
202404031050 METAR EGKK 031050Z 23012KT 9999 BKN012 11/09 Q0999=
202404031120 METAR EGKK 031120Z 23012KT 190V260 9999 BKN016 12/09 Q0999=
202404031150 METAR EGKK 031150Z 23014KT 9999 BKN018 12/09 Q0999=
202404031220 METAR EGKK 031220Z 24012KT 200V260 9999 BKN018 12/09 Q1000=
202404031250 METAR EGKK 031250Z 23015KT 9999 SCT020 SCT041 12/08 Q1001=
202404031320 METAR EGKK 031320Z 23016KT 9999 BKN020 12/08 Q1001=
202404031350 METAR EGKK 031350Z 24015KT 9999 SCT026 SCT037 13/08 Q1001=
202404031420 METAR EGKK 031420Z 23014G24KT 9999 SCT022 SCT030 13/08 Q1002=
202404031450 METAR EGKK 031450Z 24014KT 9999 SCT022 SCT031 13/07 Q1002=
202404031520 METAR EGKK 031520Z 24012KT 9999 BKN025 12/07 Q1003=
202404031550 METAR EGKK 031550Z 25013KT 9999 BKN042 13/07 Q1003=
202404031620 METAR EGKK 031620Z 24015KT 9999 BKN038 13/07 Q1003=
202404031650 METAR EGKK 031650Z 23012KT 9999 BKN038 12/08 Q1004=
202404031720 METAR EGKK 031720Z 23012KT 9999 FEW022 SCT041 12/08 Q1004=
202404031750 METAR EGKK 031750Z 23012KT 9999 FEW044 11/07 Q1004=
202404031820 METAR EGKK 031820Z 23012KT CAVOK 11/07 Q1004=
202404031850 METAR EGKK 031850Z 22010KT CAVOK 11/07 Q1004=
202404031920 METAR EGKK 031920Z 23010KT CAVOK 10/07 Q1004=
202404031950 METAR EGKK 031950Z 21008KT CAVOK 10/06 Q1005=
202404032020 METAR EGKK 032020Z 21005KT 9999 BKN043 10/07 Q1005=
202404032050 METAR EGKK 032050Z 21006KT 170V230 9999 BKN031 10/07 Q1005=
202404032120 METAR EGKK 032120Z 20008KT 9999 SCT020 BKN030 10/07 Q1004=
202404032150 METAR EGKK 032150Z 20005KT 150V230 9999 BKN009 BKN018 10/08 Q1004=
202404032220 METAR EGKK 032220Z 19006KT 170V240 9999 FEW007 BKN009 BKN015 10/08 Q1004=
202404032250 METAR EGKK 032250Z 17005KT 130V210 9999 -RA BKN007 09/09 Q1003=
202404032320 METAR EGKK 032320Z 19004KT 150V230 4000 RA BKN005 10/09 Q1003=
202404032350 METAR EGKK 032350Z 15004KT 6000 -RA FEW007 BKN010 10/09 Q1002 RERA=
202404040020 METAR EGKK 040020Z 21006KT 160V240 5000 -DZ BKN005 11/10 Q1001=
202404040050 METAR EGKK 040050Z 22011KT 6000 -DZ BKN004 12/11 Q1001=
202404040120 METAR EGKK 040120Z 22012KT 9000 -RA BKN007 12/11 Q1001=
202404040150 METAR EGKK 040150Z 22009KT 8000 -DZ BKN006 12/11 Q1000=
202404040220 METAR EGKK 040220Z 23012KT 9000 -RADZ BKN006 12/11 Q1000=
202404040250 METAR EGKK 040250Z 22012KT 9999 -DZ BKN007 12/11 Q1000=
202404040320 METAR EGKK 040320Z 22010KT 9999 -DZ BKN008 12/11 Q1000=
202404040350 METAR EGKK 040350Z 22010KT 8000 -RA FEW008 BKN012 11/10 Q1000=
202404040420 METAR EGKK 040420Z 22010KT 9999 -RA FEW006 BKN010 11/10 Q0999 RERA=
202404040450 METAR EGKK 040450Z 22014KT 9999 -DZRA FEW008 BKN010 11/10 Q0999=
202404040520 METAR EGKK 040520Z 22009KT 9999 SCT011 11/10 Q0999=
202404040550 METAR EGKK 040550Z 22012KT 9999 FEW013 10/09 Q1000=
202404040620 METAR EGKK 040620Z 22011KT 190V250 9999 FEW019 10/08 Q1000=
202404040650 METAR EGKK 040650Z 23010KT 9999 FEW016 10/08 Q1001=
202404040720 METAR EGKK 040720Z 23012KT 9999 SCT016 10/08 Q1001=
202404040750 METAR EGKK 040750Z 23010KT 190V250 9999 BKN017 10/08 Q1002=
202404040820 METAR EGKK 040820Z 22009KT 180V240 9000 4000E -SHRA VCSH FEW010 BKN013 11/09 Q1002=
202404040850 METAR EGKK 040850Z 22009KT 180V250 9999 VCSH FEW011 BKN016 11/10 Q1002=
202404040920 METAR EGKK 040920Z 22012KT 9999 SCT015 SCT022 12/10 Q1002=
202404040950 METAR EGKK 040950Z 24012KT 9999 SCT015 SCT026 13/09 Q1003=
202404041020 METAR EGKK 041020Z 24014KT 9999 FEW019 SCT028 13/09 Q1003=
202404041050 METAR EGKK 041050Z 24015G25KT 9999 FEW015 SCT039 13/09 Q1003=
202404041120 METAR EGKK 041120Z 24011KT 9999 -SHRA BKN021 13/10 Q1004=
202404041150 METAR EGKK 041150Z 23015KT 9999 -SHRA SCT022 SCT033 14/09 Q1004=
202404041220 METAR EGKK 041220Z 24015KT 9999 SCT024 SCT029 14/09 Q1004=
202404041250 METAR EGKK 041250Z 23016G27KT 9999 VCSH BKN024 13/10 Q1005=
202404041320 METAR EGKK 041320Z 23012KT 9999 -SHRA SCT016 BKN028 13/10 Q1005=
202404041350 METAR EGKK 041350Z 23015KT 9999 VCSH BKN020 14/10 Q1005=
202404041420 METAR EGKK 041420Z 22011KT 9999 VCSH SCT019 BKN038 14/10 Q1005=
202404041450 METAR EGKK 041450Z 23013KT 9999 SCT020 BKN026 14/10 Q1005=
202404041520 METAR EGKK 041520Z 23014KT 9999 BKN022 14/09 Q1006=
202404041550 METAR EGKK 041550Z 22012KT 190V250 9999 BKN021 14/09 Q1006=
202404041620 METAR EGKK 041620Z 22015KT 9999 BKN022 14/09 Q1006=
202404041650 METAR EGKK 041650Z 23011KT 9999 SCT023 BKN032 14/09 Q1006=
202404041720 METAR EGKK 041720Z 23012KT 180V250 9999 BKN023 13/09 Q1006=
202404041750 METAR EGKK 041750Z 22009KT 9999 BKN023 13/10 Q1006=
202404041820 METAR EGKK 041820Z 22011KT 9999 BKN015 13/10 Q1006=
202404041850 METAR EGKK 041850Z 22009KT 9999 -RA SCT015 SCT037 12/10 Q1006=
202404041920 METAR EGKK 041920Z 20007KT 9999 -RA BKN009 12/11 Q1007=
202404041950 METAR EGKK 041950Z 21009KT 180V240 9999 -RA BKN007 12/11 Q1007=
202404042020 METAR EGKK 042020Z 20008KT 9999 -SHRA BKN006 12/11 Q1007=
202404042050 METAR EGKK 042050Z 19008KT 170V230 9999 -RADZ BKN008 12/11 Q1006=
202404042120 METAR EGKK 042120Z 20008KT 5000 -RADZ FEW005 BKN007 12/12 Q1006=
202404042150 METAR EGKK 042150Z 19010KT 150V220 9000 -DZ FEW006 BKN009 13/12 Q1006=
202404042220 METAR EGKK 042220Z 20010KT 9999 -DZ FEW006 BKN009 13/12 Q1006=
202404042250 METAR EGKK 042250Z 20009KT 9999 BKN009 13/12 Q1006=
202404042320 METAR EGKK 042320Z 20010KT 9999 -DZ BKN009 13/12 Q1006=
202404042350 METAR EGKK 042350Z 19011KT 9999 BKN009 13/12 Q1005=
202404050020 METAR EGKK 050020Z 19012KT 9999 FEW009 BKN018 13/12 Q1005=
202404050050 METAR EGKK 050050Z 19011KT 9999 -DZ BKN009 13/12 Q1005=
202404050120 METAR EGKK 050120Z 19009KT 9999 BKN008 13/11 Q1004=
202404050150 METAR EGKK 050150Z 19008KT 9999 -RA SCT009 BKN018 13/11 Q1004=
202404050220 METAR EGKK 050220Z 18007KT 150V220 9999 -RA FEW009 SCT031 12/11 Q1004=
202404050250 METAR EGKK 050250Z 15009KT 110V190 9999 -RA FEW007 SCT030 12/11 Q1003=
202404050320 METAR EGKK 050320Z 16007KT 130V200 9999 -RA SCT007 12/11 Q1002=
202404050350 METAR EGKK 050350Z 17007KT 140V200 9999 -RA SCT008 SCT036 12/11 Q1002=
202404050420 METAR EGKK 050420Z 17007KT 140V200 9999 FEW008 SCT032 12/11 Q1001=
202404050450 METAR EGKK 050450Z 17012G25KT 140V200 9999 -RA FEW016 SCT029 13/11 Q1001=
202404050520 METAR EGKK 050520Z 18010KT 150V210 9000 -RA FEW011 BKN030 13/11 Q1001=
202404050550 METAR EGKK 050550Z 20012KT 9000 -RA SCT011 BKN017 13/11 Q1000=
202404050620 METAR EGKK 050620Z 21012KT 4000 -RA VCSH SCT008 BKN015 12/11 Q1001=
202404050650 METAR EGKK 050650Z 22015KT 3000 -RA VCSH BKN007 BKN012 12/11 Q1001=
202404050720 METAR COR EGKK 050720Z 22013KT 9999 BKN007 BKN011 12/11 Q1001=
202404050750 METAR EGKK 050750Z 22012KT 9999 BKN011 BKN016 12/11 Q1002=
202404050820 METAR EGKK 050820Z 22012KT 9999 BKN015 13/11 Q1002=
202404050850 METAR EGKK 050850Z 21013KT 9999 BKN014 BKN036 13/11 Q1003=
202404050920 METAR EGKK 050920Z 22013KT 190V250 9999 BKN014 BKN024 13/11 Q1003=
202404050950 METAR EGKK 050950Z 22013KT 9999 BKN015 BKN021 14/11 Q1004=
202404051020 METAR EGKK 051020Z 22013KT 190V250 9999 SCT016 BKN019 14/11 Q1004=
202404051050 METAR EGKK 051050Z 21014KT 9999 SCT018 BKN026 14/10 Q1004=
202404051120 METAR EGKK 051120Z 22018KT 9999 SCT016 BKN020 14/10 Q1004=
202404051150 METAR EGKK 051150Z 23018KT 9999 BKN023 15/10 Q1004=
202404051220 METAR EGKK 051220Z 22017KT 9999 SCT025 SCT031 16/10 Q1005=
202404051250 METAR EGKK 051250Z 22014KT 9999 SCT025 SCT030 15/10 Q1005=
202404051320 METAR EGKK 051320Z 22014KT 9999 SCT025 BKN037 16/10 Q1005=
202404051350 METAR EGKK 051350Z 22014KT 9999 BKN026 15/10 Q1006=
202404051420 METAR EGKK 051420Z 23015G25KT 9999 BKN025 15/10 Q1006=
202404051450 METAR EGKK 051450Z 23014KT 9999 BKN028 15/09 Q1006=
202404051520 METAR EGKK 051520Z 22015KT 9999 SCT026 15/09 Q1006=
202404051550 METAR EGKK 051550Z 22014KT 9999 SCT028 15/10 Q1007=
202404051620 METAR EGKK 051620Z 22011KT 9999 FEW024 SCT039 15/10 Q1007=
202404051650 METAR EGKK 051650Z 22012KT 180V240 9999 FEW025 15/09 Q1007=
202404051720 METAR EGKK 051720Z 22008KT 9999 FEW030 15/09 Q1007=
202404051750 METAR EGKK 051750Z 22009KT 9999 FEW035 14/09 Q1007=
202404051820 METAR EGKK 051820Z 21008KT 170V230 CAVOK 14/09 Q1007=
202404051850 METAR EGKK 051850Z 19007KT CAVOK 14/10 Q1007=
202404051920 METAR EGKK 051920Z 21006KT 170V240 CAVOK 13/10 Q1007=
202404051950 METAR EGKK 051950Z 19004KT 160V240 CAVOK 13/10 Q1007=
202404052020 METAR EGKK 052020Z 18006KT CAVOK 13/10 Q1007=
202404052050 METAR EGKK 052050Z 18007KT CAVOK 13/10 Q1007=
202404052120 METAR EGKK 052120Z 19007KT 150V210 9999 FEW034 SCT047 14/10 Q1007=
202404052150 METAR EGKK 052150Z 18007KT 140V220 9999 FEW048 14/11 Q1007=
202404052220 METAR EGKK 052220Z 19007KT 150V210 CAVOK 14/11 Q1007=
202404052250 METAR EGKK 052250Z 17005KT 130V200 CAVOK 14/12 Q1007=
202404052320 METAR EGKK 052320Z 16003KT 110V230 CAVOK 14/12 Q1006=
202404052350 METAR EGKK 052350Z 13004KT 100V190 CAVOK 14/12 Q1006=
202404060020 METAR EGKK 060020Z 16006KT 100V200 CAVOK 15/12 Q1006=
202404060050 METAR EGKK 060050Z 16009KT 130V200 CAVOK 16/12 Q1005=
202404060120 METAR EGKK 060120Z 16008KT 120V200 CAVOK 16/12 Q1005=
202404060150 METAR EGKK 060150Z 14004KT 100V210 CAVOK 16/11 Q1004=
202404060220 METAR EGKK 060220Z 14007KT 100V170 CAVOK 16/10 Q1004=
202404060250 METAR EGKK 060250Z 14008KT 110V180 CAVOK 15/10 Q1003=
202404060320 METAR EGKK 060320Z 16007KT 110V190 CAVOK 15/10 Q1003=
202404060350 METAR EGKK 060350Z 15007KT 110V180 CAVOK 15/10 Q1002=
202404060420 METAR EGKK 060420Z 14008KT CAVOK 15/10 Q1002=
202404060450 METAR EGKK 060450Z 15007KT 120V190 CAVOK 15/09 Q1001=
202404060520 METAR EGKK 060520Z 14007KT CAVOK 16/09 Q1001=
202404060550 METAR EGKK 060550Z 15009KT 120V190 CAVOK 15/10 Q1001=
202404060620 METAR EGKK 060620Z 15008KT 120V180 CAVOK 15/10 Q1001=
202404060650 METAR EGKK 060650Z 16010KT CAVOK 17/10 Q1001=
202404060720 METAR EGKK 060720Z 17010KT 110V210 CAVOK 17/09 Q1001=
202404060750 METAR EGKK 060750Z 18013KT 150V220 CAVOK 16/09 Q1001=
202404060820 METAR EGKK 060820Z 18014KT CAVOK 16/09 Q1001=
202404060850 METAR EGKK 060850Z 18013KT CAVOK 16/09 Q1001=
202404060920 METAR EGKK 060920Z 18012KT CAVOK 17/09 Q1001=
202404060950 METAR EGKK 060950Z 19012KT CAVOK 17/09 Q1001=
202404061020 METAR EGKK 061020Z 19015G25KT CAVOK 17/09 Q1001=
202404061050 METAR EGKK 061050Z 20013G24KT CAVOK 18/10 Q1001=
202404061120 METAR EGKK 061120Z 20013KT CAVOK 17/10 Q1001=
202404061150 METAR EGKK 061150Z 21013KT CAVOK 17/10 Q1002=
202404061220 METAR EGKK 061220Z 21013G25KT CAVOK 18/10 Q1002=
202404061250 METAR EGKK 061250Z 20012KT 150V230 CAVOK 18/10 Q1002=
202404061320 METAR EGKK 061320Z 22015G26KT 9999 FEW032 17/10 Q1003=
202404061350 METAR EGKK 061350Z 22016G26KT 9999 FEW032 17/10 Q1003=
202404061420 METAR EGKK 061420Z 22016G26KT 160V250 9999 FEW030 17/10 Q1003=
202404061450 METAR EGKK 061450Z 23016G26KT 9999 FEW030 17/10 Q1003=
202404061520 METAR EGKK 061520Z 22014KT 9999 -SHRA FEW035 16/09 Q1004=
202404061550 METAR EGKK 061550Z 21010KT 9999 FEW023 15/10 Q1003=
202404061620 METAR EGKK 061620Z 20009KT 170V230 9999 -RA FEW024 15/10 Q1003=
202404061650 METAR EGKK 061650Z 19009KT 160V230 9999 -RA FEW042 15/11 Q1004=
202404061720 METAR EGKK 061720Z 15010KT 9999 -SHRA VCSH FEW042 14/11 Q1003=
202404061750 METAR EGKK 061750Z 18012G22KT 9999 -RA FEW047 14/10 Q1003=
202404061820 METAR EGKK 061820Z 18012KT 140V220 9999 FEW047 14/10 Q1003=
202404061850 METAR EGKK 061850Z 20013KT 9999 FEW045 14/10 Q1003=
202404061920 METAR EGKK 061920Z 19015G26KT 9999 FEW035 14/10 Q1004=
202404061950 METAR EGKK 061950Z 20014KT 160V220 CAVOK 14/10 Q1004=
202404062020 METAR EGKK 062020Z 20015G26KT CAVOK 14/09 Q1004=
202404062050 METAR EGKK 062050Z 20015G26KT 9999 BKN041 14/09 Q1004=
202404062120 METAR EGKK 062120Z 20016G30KT 160V230 9999 BKN041 14/10 Q1004=
202404062150 METAR EGKK 062150Z 21017G29KT 160V240 9999 BKN024 14/10 Q1004=
202404062220 METAR EGKK 062220Z 21016G30KT 9999 SCT021 BKN039 14/09 Q1005=
202404062250 METAR EGKK 062250Z 21019KT 9999 SCT020 BKN031 13/09 Q1005=
202404062320 METAR EGKK 062320Z 22017G27KT 190V250 9999 BKN020 13/09 Q1005=
202404062350 METAR EGKK 062350Z 21016G27KT 9999 BKN020 13/09 Q1005=
202404070020 METAR EGKK 070020Z 22015KT 180V240 9999 BKN021 12/08 Q1006=
202404070050 METAR EGKK 070050Z 22014KT 9999 BKN019 12/08 Q1006=
202404070120 METAR EGKK 070120Z 22013KT 9999 BKN020 12/08 Q1006=
202404070150 METAR EGKK 070150Z 22012G22KT 190V260 9999 BKN022 BKN026 12/08 Q1007=
202404070220 METAR EGKK 070220Z 21013KT 180V240 9999 BKN019 12/08 Q1007=
202404070250 METAR EGKK 070250Z 22013KT 190V260 9999 BKN020 12/08 Q1007=
202404070320 METAR EGKK 070320Z 22014KT 170V240 9999 BKN021 12/08 Q1007=
202404070350 METAR EGKK 070350Z 22013KT 9999 BKN021 12/08 Q1008=
202404070420 METAR EGKK 070420Z 22015KT 9999 BKN020 12/08 Q1008=
202404070450 METAR EGKK 070450Z 22013G23KT 9999 SCT020 11/08 Q1008=
202404070520 METAR EGKK 070520Z 21014KT 9999 FEW020 11/08 Q1008=
202404070550 METAR EGKK 070550Z 21015KT 9999 FEW018 11/08 Q1008=
202404070620 METAR EGKK 070620Z 21015KT 9999 FEW015 SCT019 11/08 Q1008=
202404070650 METAR EGKK 070650Z 21014G24KT 9999 SCT018 12/08 Q1009=
202404070720 METAR EGKK 070720Z 21011KT 170V240 9999 SCT019 12/08 Q1009=
202404070750 METAR EGKK 070750Z 21012KT 180V250 9999 BKN018 12/08 Q1010=
202404070820 METAR EGKK 070820Z 21014KT 9999 BKN018 12/08 Q1010=
202404070850 METAR EGKK 070850Z 21013KT 160V240 9999 BKN020 12/08 Q1010=
202404070920 METAR EGKK 070920Z 21015G25KT 9999 BKN020 13/08 Q1010=
202404070950 METAR EGKK 070950Z 21014KT 170V240 9999 BKN021 13/08 Q1010=
202404071020 METAR EGKK 071020Z 21016G27KT 9999 BKN021 13/08 Q1010=
202404071050 METAR EGKK 071050Z 21016KT 180V240 9999 BKN022 13/08 Q1010=
202404071120 METAR EGKK 071120Z 21016KT 9999 BKN025 14/08 Q1010=
202404071150 METAR EGKK 071150Z 22016KT 9999 SCT027 14/07 Q1010=
202404071220 METAR EGKK 071220Z 22015G25KT 180V250 9999 SCT028 14/08 Q1010=
202404071250 METAR EGKK 071250Z 22019G29KT 9999 SCT029 15/07 Q1010=
202404071320 METAR EGKK 071320Z 21018G28KT 9999 SCT030 15/07 Q1010=
202404071350 METAR EGKK 071350Z 21019G30KT 180V250 9999 SCT030 15/07 Q1010=
202404071420 METAR EGKK 071420Z 22015G29KT 9999 SCT031 15/07 Q1010=
202404071450 METAR EGKK 071450Z 21016KT 9999 SCT032 15/07 Q1010=
202404071520 METAR EGKK 071520Z 22016KT 180V240 9999 SCT032 15/06 Q1009=
202404071550 METAR EGKK 071550Z 21014G27KT 9999 FEW034 15/07 Q1009=
202404071620 METAR EGKK 071620Z 21013KT 170V240 9999 FEW035 15/07 Q1009=
202404071650 METAR EGKK 071650Z 21012G26KT 170V250 9999 FEW033 14/07 Q1009=
202404071720 METAR EGKK 071720Z 22011KT 190V250 9999 FEW032 14/07 Q1009=
202404071750 METAR EGKK 071750Z 21012KT 180V240 9999 FEW040 14/07 Q1009=
202404071820 METAR EGKK 071820Z 21010KT 9999 FEW040 13/07 Q1009=
202404071850 METAR EGKK 071850Z 20008KT 160V230 CAVOK 13/08 Q1009=
202404071920 METAR EGKK 071920Z 20007KT CAVOK 12/08 Q1010=
202404071950 METAR EGKK 071950Z 20005KT 160V230 CAVOK 12/07 Q1010=
202404072020 METAR EGKK 072020Z 20005KT 160V230 CAVOK 11/07 Q1010=
202404072050 METAR EGKK 072050Z 20003KT 100V260 CAVOK 11/07 Q1009=
202404072120 METAR EGKK 072120Z 20006KT CAVOK 11/07 Q1009=
202404072150 METAR EGKK 072150Z 20004KT CAVOK 10/07 Q1009=
202404072220 METAR EGKK 072220Z VRB02KT CAVOK 10/07 Q1009=
202404072250 METAR EGKK 072250Z VRB02KT CAVOK 10/07 Q1009=
202404072320 METAR EGKK 072320Z 21004KT CAVOK 09/07 Q1009=
202404072350 METAR EGKK 072350Z 18003KT 150V220 CAVOK 09/07 Q1009=
202404080020 METAR EGKK 080020Z 18004KT 160V220 CAVOK 10/07 Q1008=
202404080050 METAR EGKK 080050Z 18004KT CAVOK 10/07 Q1008=
202404080120 METAR EGKK 080120Z 18003KT CAVOK 09/07 Q1008=
202404080150 METAR EGKK 080150Z 19004KT CAVOK 09/07 Q1008=
202404080220 METAR EGKK 080220Z 15003KT CAVOK 10/08 Q1007=
202404080250 METAR EGKK 080250Z 16003KT 120V200 CAVOK 09/08 Q1007=
202404080320 METAR EGKK 080320Z 16003KT CAVOK 09/08 Q1007=
202404080350 METAR EGKK 080350Z 15003KT 110V190 CAVOK 09/08 Q1007=
202404080420 METAR EGKK 080420Z 18003KT CAVOK 09/08 Q1007=
202404080450 METAR EGKK 080450Z 15003KT 090V190 CAVOK 09/08 Q1007=
202404080520 METAR EGKK 080520Z 17004KT CAVOK 09/08 Q1007=
202404080550 METAR EGKK 080550Z 16003KT 130V190 CAVOK 09/08 Q1007=
202404080620 METAR EGKK 080620Z 16003KT 120V180 CAVOK 09/08 Q1007=
202404080650 METAR EGKK 080650Z 14004KT CAVOK 09/08 Q1007=
202404080720 METAR EGKK 080720Z 13006KT 9999 FEW006 10/09 Q1006=
202404080750 METAR EGKK 080750Z 15005KT 110V170 9999 FEW007 11/09 Q1006=
202404080820 METAR EGKK 080820Z 15007KT 9999 FEW012 11/09 Q1006=
202404080850 METAR EGKK 080850Z 16006KT 120V200 9999 FEW012 12/09 Q1006=
202404080920 METAR EGKK 080920Z 16006KT 120V200 9999 FEW013 12/09 Q1006=
202404080950 METAR EGKK 080950Z 14008KT 9999 FEW017 13/09 Q1006=
202404081020 METAR EGKK 081020Z 16006KT 120V200 9999 FEW024 14/08 Q1005=
202404081050 METAR EGKK 081050Z 13006KT 100V170 9999 FEW025 14/08 Q1005=
202404081120 METAR EGKK 081120Z 13009KT 090V180 9999 FEW023 15/08 Q1005=
202404081150 METAR EGKK 081150Z 12010KT CAVOK 15/07 Q1004=
202404081220 METAR EGKK 081220Z 14007KT 100V190 9999 FEW045 16/06 Q1004=
202404081250 METAR EGKK 081250Z 13009KT 100V160 9999 FEW044 16/05 Q1003=
202404081320 METAR EGKK 081320Z 15009KT 120V190 9999 FEW034 16/06 Q1003=
202404081350 METAR EGKK 081350Z 14009KT 110V180 9999 FEW040 16/08 Q1002=
202404081420 METAR EGKK 081420Z 13010KT 100V180 9999 SCT028 16/10 Q1002=
202404081450 METAR EGKK 081450Z 13010KT 9999 SCT024 16/11 Q1002=
202404081520 METAR EGKK 081520Z 14009KT 9999 BKN022 BKN030 16/11 Q1001=
202404081550 METAR EGKK 081550Z 14009KT 110V190 9999 BKN023 BKN029 16/11 Q1001=
202404081620 METAR EGKK 081620Z 14008KT 9999 -RA SCT025 SCT031 16/11 Q1001=
202404081650 METAR EGKK 081650Z 15008KT 110V190 9999 SCT022 SCT032 16/12 Q1000=
202404081720 METAR EGKK 081720Z 17007KT 130V210 9999 SCT021 SCT047 16/12 Q1000=
202404081750 METAR COR EGKK 081750Z 18009KT 150V220 9999 -RA VCSH SCT022CB BKN029 15/11 Q1000=
202404081820 METAR EGKK 081820Z 20008KT 9000 -SHRA SCT009CB BKN013 13/12 Q1001=
202404081850 METAR EGKK 081850Z 21007KT 170V240 9999 -RA FEW008 BKN012 13/12 Q1000=
202404081920 METAR EGKK 081920Z 21009KT 9999 SCT011 12/11 Q1001=
202404081950 METAR EGKK 081950Z 21008KT 170V240 9999 FEW009 BKN013 12/11 Q1000=
202404082020 METAR EGKK 082020Z 21009KT 9999 FEW010 SCT018 12/10 Q1001=
202404082050 METAR EGKK 082050Z 21009KT 9999 SCT014 SCT035 12/10 Q1001=
202404082120 METAR EGKK 082120Z 22009KT 180V250 9999 FEW017 SCT023 11/09 Q1000=
202404082150 METAR EGKK 082150Z 21007KT 9999 FEW025 10/07 Q1001=
202404082220 METAR EGKK 082220Z 21007KT 170V250 9999 FEW031 10/06 Q1000=
202404082250 METAR EGKK 082250Z 20009KT 150V240 9999 FEW030 10/06 Q1000=
202404082320 METAR EGKK 082320Z 20009KT 170V250 9999 SCT034 10/05 Q1001=
202404082350 METAR EGKK 082350Z 18011G21KT 120V220 9999 SCT033 10/04 Q1000=
202404090020 METAR EGKK 090020Z 20015G25KT 160V220 9999 SCT031 09/04 Q1000=
202404090050 METAR EGKK 090050Z 19016KT 9999 SCT034 09/04 Q1000=
202404090120 METAR EGKK 090120Z 19016KT 150V210 9999 -RA BKN018 09/05 Q0999=
202404090150 METAR EGKK 090150Z 18014KT 150V210 7000 -RA BKN013 08/07 Q0999=
202404090220 METAR EGKK 090220Z 18015KT 140V210 5000 -DZ BKN009 08/07 Q0999=
202404090250 METAR EGKK 090250Z 18016KT 4000 -RADZ BKN008 BKN015 09/08 Q0998=
202404090320 METAR EGKK 090320Z 19014KT 7000 -RA BKN009 BKN021 09/08 Q0998=
202404090350 METAR EGKK 090350Z 20014KT 170V230 9999 -RA BKN010 BKN016 09/07 Q0998=
202404090420 METAR EGKK 090420Z 20013G23KT 9999 BKN015 09/07 Q0998=
202404090450 METAR EGKK 090450Z 21015KT 180V240 9999 BKN016 09/07 Q0998=
202404090520 METAR EGKK 090520Z 21015G28KT 9999 SCT015 SCT035 09/06 Q0999=
202404090550 METAR EGKK 090550Z 21015KT 9999 VCSH SCT015 SCT022 09/06 Q0999=
202404090620 METAR EGKK 090620Z 22014G24KT 9000 -RA FEW011 BKN013 BKN028 08/06 Q1000=
202404090650 METAR EGKK 090650Z 23015G25KT 9999 VCSH BKN013 BKN027 08/06 Q1001=
202404090720 METAR EGKK 090720Z 23014G24KT 9999 -SHRA BKN012 08/06 Q1001=
202404090750 METAR EGKK 090750Z 24014KT 9999 FEW013 BKN016 08/05 Q1002=
202404090820 METAR EGKK 090820Z 25018KT 9999 FEW018 BKN022 08/04 Q1003=
202404090850 METAR EGKK 090850Z 25015KT 9999 BKN022 08/04 Q1004=
202404090920 METAR EGKK 090920Z 26017G28KT 9999 -SHRA SCT021 BKN030 08/04 Q1005=
202404090950 METAR EGKK 090950Z 27022KT 9999 -SHRA SCT021 BKN030 09/05 Q1006=
202404091020 METAR EGKK 091020Z 26017KT 9999 -SHRA BKN022 09/06 Q1007=
202404091050 METAR EGKK 091050Z 25018KT 9999 -SHRA FEW018 BKN021 09/06 Q1007=
202404091120 METAR EGKK 091120Z 25017KT 9999 -SHRA SCT024 BKN029 10/06 Q1008=
202404091150 METAR EGKK 091150Z 25017KT 9999 VCSH BKN028 10/06 Q1009=
202404091220 METAR EGKK 091220Z 26021KT 9999 BKN030 11/05 Q1009=
202404091250 METAR EGKK 091250Z 26019KT 9999 BKN033 11/04 Q1010=
202404091320 METAR EGKK 091320Z 27022KT 9999 BKN038 12/04 Q1010=
202404091350 METAR EGKK 091350Z 26019KT 9999 BKN036 12/04 Q1011=
202404091420 METAR EGKK 091420Z 27021G34KT 9999 SCT043 13/03 Q1012=
202404091450 METAR EGKK 091450Z 27017KT 9999 SCT046 12/02 Q1012=
202404091520 METAR EGKK 091520Z 27021G32KT 9999 SCT048 13/02 Q1013=
202404091550 METAR EGKK 091550Z 28018G31KT 9999 FEW048 12/01 Q1013=
202404091620 METAR EGKK 091620Z 27020KT 9999 FEW049 12/01 Q1014=
202404091650 METAR EGKK 091650Z 26018KT 9999 FEW048 11/02 Q1015=
202404091720 METAR EGKK 091720Z 25012KT 9999 FEW047 11/03 Q1016=
202404091750 METAR EGKK 091750Z 26015KT 9999 FEW048 11/01 Q1016=
202404091820 METAR EGKK 091820Z 25011KT 9999 FEW049 10/03 Q1017=
202404091850 METAR EGKK 091850Z 25011KT 9999 FEW039 10/04 Q1018=
202404091920 METAR EGKK 091920Z 25013KT 9999 FEW035 09/04 Q1019=
202404091950 METAR EGKK 091950Z 25009KT 9999 FEW047 09/04 Q1019=
202404092020 METAR EGKK 092020Z 25011KT CAVOK 08/04 Q1020=
202404092050 METAR EGKK 092050Z 24007KT CAVOK 08/04 Q1020=
202404092120 METAR EGKK 092120Z 22007KT CAVOK 07/04 Q1021=
202404092150 METAR EGKK 092150Z 24008KT CAVOK 07/04 Q1021=
202404092220 METAR EGKK 092220Z 23006KT CAVOK 07/04 Q1022=
202404092250 METAR EGKK 092250Z 23006KT CAVOK 07/04 Q1022=
202404092320 METAR EGKK 092320Z 23005KT CAVOK 07/04 Q1023=
202404092350 METAR EGKK 092350Z 22005KT CAVOK 06/04 Q1023=
202404100020 METAR EGKK 100020Z 23007KT CAVOK 06/04 Q1023=
202404100050 METAR EGKK 100050Z 23006KT CAVOK 06/04 Q1024=
202404100120 METAR EGKK 100120Z 22005KT CAVOK 06/04 Q1024=
202404100150 METAR EGKK 100150Z 21004KT CAVOK 06/04 Q1024=
202404100220 METAR EGKK 100220Z 22003KT CAVOK 05/03 Q1024=
202404100250 METAR EGKK 100250Z VRB02KT CAVOK 05/04 Q1024=
202404100320 METAR EGKK 100320Z VRB02KT CAVOK 05/03 Q1025=
202404100350 METAR EGKK 100350Z 21002KT CAVOK 04/03 Q1025=
202404100420 METAR EGKK 100420Z VRB02KT CAVOK 04/03 Q1025=
202404100450 METAR EGKK 100450Z 20001KT CAVOK 03/03 Q1025=
202404100520 METAR EGKK 100520Z 18002KT 9999 R26L/1400D NSC 04/03 Q1026=
202404100550 METAR EGKK 100550Z VRB01KT CAVOK 03/03 Q1026=
202404100620 METAR EGKK 100620Z 17002KT CAVOK 05/05 Q1026=
202404100650 METAR EGKK 100650Z 18003KT 150V220 CAVOK 06/05 Q1026=
202404100720 METAR EGKK 100720Z 21004KT 180V240 CAVOK 07/05 Q1027=
202404100750 METAR EGKK 100750Z 22006KT 180V250 9999 FEW012 09/06 Q1027=
202404100820 METAR EGKK 100820Z 23009KT 190V260 9999 FEW012 10/07 Q1027=
202404100850 METAR EGKK 100850Z 21008KT 180V250 9999 FEW020 11/06 Q1027=
202404100920 METAR EGKK 100920Z 22010KT 190V250 9999 SCT021 12/06 Q1027=
202404100950 METAR EGKK 100950Z 21010KT 9999 SCT025 12/06 Q1027=
202404101020 METAR EGKK 101020Z 21012KT 170V240 9999 SCT026 13/06 Q1027=
202404101050 METAR EGKK 101050Z 21011KT 170V240 9999 SCT024 13/06 Q1027=
202404101120 METAR EGKK 101120Z 19011KT 160V220 9999 SCT022 BKN031 13/07 Q1027=
202404101150 METAR EGKK 101150Z 20013KT 160V240 9999 BKN021 BKN029 13/07 Q1027=
202404101220 METAR EGKK 101220Z 20013KT 170V230 9999 SCT023 BKN031 13/07 Q1027=
202404101250 METAR EGKK 101250Z 20011G21KT 150V230 9999 SCT023 BKN031 13/07 Q1027=
202404101320 METAR EGKK 101320Z 21014KT 9999 FEW027 BKN035 13/06 Q1027=
202404101350 METAR EGKK 101350Z 21014G26KT 9999 -SHRA FEW024 BKN030 12/06 Q1026=
202404101420 METAR EGKK 101420Z 20012G23KT 160V230 9999 -RA BKN018 BKN027 11/08 Q1026=
202404101450 METAR EGKK 101450Z 20014KT 9999 -RA BKN015 BKN023 11/08 Q1027=
202404101520 METAR EGKK 101520Z 20010KT 160V230 9999 -RA BKN013 11/09 Q1027=
202404101550 METAR EGKK 101550Z 20011KT 9999 -RA BKN009 10/09 Q1026=
202404101620 METAR EGKK 101620Z 20013KT 160V220 6000 -RA BKN006 11/10 Q1026=
202404101650 METAR EGKK 101650Z 21010KT 170V240 9999 -RA BKN006 11/10 Q1026=
202404101720 METAR COR EGKK 101720Z 21011KT 9000 -SHRA BKN006 11/10 Q1026=
202404101750 METAR EGKK 101750Z 20011G21KT 140V230 5000 -RADZ BKN005 11/10 Q1026=
202404101820 METAR EGKK 101820Z 20011KT 6000 -RA BKN005 11/10 Q1026=
202404101850 METAR EGKK 101850Z 21010KT 180V250 5000 -DZ BKN004 11/11 Q1026=
202404101920 METAR EGKK 101920Z 20011G21KT 4800 BR BKN004 11/11 Q1025=
202404101950 METAR EGKK 101950Z 21010KT 7000 BKN004 11/11 Q1026=
202404102020 METAR EGKK 102020Z 21011KT 5000 BR BKN003 11/11 Q1026=
202404102050 METAR EGKK 102050Z 22011KT 4000 BR BKN003 11/11 Q1026=
202404102120 METAR EGKK 102120Z 21009KT 3500 -RADZ BKN003 11/11 Q1026=
202404102150 METAR EGKK 102150Z 22010KT 180V240 3500 -DZ BKN003 12/11 Q1026=
202404102220 METAR EGKK 102220Z 21009KT 7000 -RA BKN004 12/12 Q1026=
202404102250 METAR EGKK 102250Z 22011KT 9000 BKN004 12/12 Q1026=
202404102320 METAR EGKK 102320Z 22010KT 6000 BKN003 12/12 Q1026=
202404102350 METAR EGKK 102350Z 21007KT 4300 -RADZ BKN003 12/12 Q1026=
202404110020 METAR EGKK 110020Z 22007KT 170V260 2700 -RADZ BKN003 12/12 Q1027=
202404110050 METAR EGKK 110050Z 23007KT 9999 BKN006 12/12 Q1026=
202404110120 METAR EGKK 110120Z 22006KT 9999 BKN006 12/12 Q1026=
202404110150 METAR EGKK 110150Z 22008KT 9999 BKN005 12/12 Q1026=
202404110220 METAR EGKK 110220Z 24007KT 210V270 9999 BKN005 12/12 Q1026=
202404110250 METAR EGKK 110250Z 23009KT 9999 BKN005 12/12 Q1026=
202404110320 METAR EGKK 110320Z 23008KT 9999 BKN005 12/12 Q1027=
202404110350 METAR EGKK 110350Z 22008KT 9999 BKN005 12/11 Q1026=
202404110420 METAR EGKK 110420Z 23007KT 9999 -RA BKN004 12/11 Q1027=
202404110450 METAR EGKK 110450Z 23007KT 9999 BKN004 12/11 Q1027=
202404110520 METAR EGKK 110520Z 22008KT 9999 BKN003 12/12 Q1027=
202404110550 METAR EGKK 110550Z 23007KT 200V270 9999 BKN004 12/11 Q1027=
202404110620 METAR EGKK 110620Z 24007KT 190V270 9999 BKN004 12/11 Q1028=
202404110650 METAR EGKK 110650Z 24007KT 7000 OVC004 12/12 Q1029=
202404110720 METAR EGKK 110720Z 24006KT 4000 BR BKN003 12/12 Q1029=
202404110750 METAR EGKK 110750Z 20004KT 160V230 6000 BKN003 12/12 Q1029=
202404110820 METAR EGKK 110820Z 21005KT 9999 BKN006 12/12 Q1029=
202404110850 METAR EGKK 110850Z 23007KT 9999 BKN006 13/12 Q1030=
202404110920 METAR EGKK 110920Z 23008KT 9999 BKN006 13/12 Q1030=
202404110950 METAR EGKK 110950Z 22006KT 180V250 9999 BKN008 14/12 Q1030=
202404111020 METAR EGKK 111020Z 22006KT 180V240 9999 BKN008 14/12 Q1030=
202404111050 METAR EGKK 111050Z 23006KT 190V260 9999 BKN009 14/12 Q1031=
202404111120 METAR EGKK 111120Z 23007KT 9999 BKN008 14/12 Q1031=
202404111150 METAR EGKK 111150Z 21007KT 9999 BKN008 14/12 Q1031=
202404111220 METAR EGKK 111220Z 22006KT 190V250 9999 BKN010 15/13 Q1031=
202404111250 METAR EGKK 111250Z 23007KT 9999 BKN013 15/13 Q1031=
202404111320 METAR EGKK 111320Z 22007KT 200V270 9999 BKN015 16/13 Q1030=
202404111350 METAR EGKK 111350Z 24008KT 200V280 9999 BKN015 16/13 Q1030=
202404111420 METAR EGKK 111420Z 23007KT 9999 BKN016 16/13 Q1030=
202404111450 METAR EGKK 111450Z 23006KT 200V260 9999 FEW016 BKN019 16/13 Q1030=
202404111520 METAR EGKK 111520Z 21007KT 9999 SCT014 BKN020 16/13 Q1030=
202404111550 METAR EGKK 111550Z 20009KT 9999 BKN012 BKN020 16/13 Q1030=
202404111620 METAR EGKK 111620Z 20008KT 170V240 9999 BKN010 15/12 Q1030=
202404111650 METAR EGKK 111650Z 20009KT 170V230 9999 BKN008 14/12 Q1030=
202404111720 METAR EGKK 111720Z 21009KT 170V230 9999 BKN006 14/12 Q1030=
202404111750 METAR EGKK 111750Z 22008KT 9999 BKN007 14/12 Q1030=
202404111820 METAR EGKK 111820Z 22008KT 180V250 9999 BKN007 13/12 Q1030=
202404111850 METAR EGKK 111850Z 22009KT 9999 BKN006 13/12 Q1030=
202404111920 METAR EGKK 111920Z 22008KT 9999 FEW005 BKN006 13/12 Q1030=
202404111950 METAR EGKK 111950Z 21007KT 9999 BKN005 13/12 Q1031=
202404112020 METAR EGKK 112020Z 21007KT 9999 BKN004 12/12 Q1031=
202404112050 METAR EGKK 112050Z 22007KT 9999 BKN004 12/11 Q1031=
202404112120 METAR EGKK 112120Z 21008KT 190V250 9999 BKN005 12/11 Q1031=
202404112150 METAR EGKK 112150Z 21008KT 9999 BKN006 12/11 Q1031=
202404112220 METAR EGKK 112220Z 20005KT 170V240 9999 BKN007 12/11 Q1031=
202404112250 METAR EGKK 112250Z 20003KT 130V240 9999 BKN007 11/10 Q1031=
202404112320 METAR EGKK 112320Z 20004KT 160V240 9999 SCT007 11/10 Q1030=
202404112350 METAR EGKK 112350Z 21008KT 170V240 9999 SCT007 11/10 Q1030=
202404120020 METAR EGKK 120020Z 21006KT 9999 SCT007 11/10 Q1030=
202404120050 METAR EGKK 120050Z 22004KT 190V250 9999 SCT007 10/09 Q1030=
202404120120 METAR EGKK 120120Z 22007KT 9999 SCT007 10/09 Q1030=
202404120150 METAR EGKK 120150Z 21010KT 9999 FEW008 10/09 Q1030=
202404120220 METAR EGKK 120220Z 21010KT 9999 FEW008 10/09 Q1029=
202404120250 METAR EGKK 120250Z 21009KT CAVOK 10/09 Q1030=
202404120320 METAR EGKK 120320Z 22007KT CAVOK 10/08 Q1030=
202404120350 METAR EGKK 120350Z 22007KT CAVOK 10/08 Q1030=
202404120420 METAR EGKK 120420Z 21007KT CAVOK 10/08 Q1030=
202404120450 METAR EGKK 120450Z 21008KT CAVOK 10/08 Q1029=
202404120520 METAR EGKK 120520Z 21007KT CAVOK 10/08 Q1029=
202404120550 METAR EGKK 120550Z 24004KT 180V290 CAVOK 10/08 Q1030=
202404120620 METAR EGKK 120620Z 22004KT 190V250 CAVOK 11/08 Q1030=
202404120650 METAR EGKK 120650Z 22005KT 190V260 CAVOK 11/08 Q1030=
202404120720 METAR EGKK 120720Z 22006KT 180V250 CAVOK 12/09 Q1030=
202404120750 METAR EGKK 120750Z 21008KT CAVOK 13/09 Q1030=
202404120820 METAR EGKK 120820Z 21007KT 180V240 9999 FEW016 14/10 Q1030=
202404120850 METAR EGKK 120850Z 23009KT 9999 FEW016 14/10 Q1030=
202404120920 METAR EGKK 120920Z 22011KT 190V250 CAVOK 16/10 Q1030=
202404120950 METAR EGKK 120950Z 23009KT 190V260 CAVOK 16/10 Q1030=
202404121020 METAR EGKK 121020Z 22010KT 190V260 CAVOK 17/11 Q1030=
202404121050 METAR EGKK 121050Z 22010KT 190V260 CAVOK 17/11 Q1030=
202404121120 METAR EGKK 121120Z 23011KT 190V250 CAVOK 18/11 Q1030=
202404121150 METAR EGKK 121150Z 22014KT 9999 FEW028 18/11 Q1030=
202404121220 METAR EGKK 121220Z 22013KT 9999 FEW028 18/11 Q1030=
202404121250 METAR EGKK 121250Z 23013KT 9999 FEW032 19/11 Q1029=
202404121320 METAR EGKK 121320Z 24015KT 9999 FEW032 19/11 Q1029=
202404121350 METAR EGKK 121350Z 24012KT 9999 FEW032 19/11 Q1029=
202404121420 METAR EGKK 121420Z 23010KT 190V260 9999 FEW032 19/11 Q1029=
202404121450 METAR EGKK 121450Z 22011KT 9999 FEW032 19/11 Q1029=
202404121520 METAR EGKK 121520Z 22012KT 170V250 9999 FEW028 18/11 Q1029=
202404121550 METAR EGKK 121550Z 23011KT CAVOK 17/11 Q1028=
202404121620 METAR EGKK 121620Z 23011KT CAVOK 17/10 Q1028=
202404121650 METAR EGKK 121650Z 23010KT 190V250 CAVOK 17/10 Q1028=
202404121720 METAR EGKK 121720Z 21009KT CAVOK 16/10 Q1028=
202404121750 METAR EGKK 121750Z 22010KT CAVOK 16/10 Q1028=
202404121820 METAR EGKK 121820Z 21008KT 170V240 CAVOK 15/10 Q1027=
202404121850 METAR EGKK 121850Z 21007KT CAVOK 15/10 Q1027=
202404121920 METAR EGKK 121920Z 21005KT 170V230 CAVOK 14/10 Q1028=
202404121950 METAR EGKK 121950Z 19006KT CAVOK 14/10 Q1027=
202404122020 METAR EGKK 122020Z 21006KT CAVOK 14/10 Q1027=
202404122050 METAR EGKK 122050Z 21005KT CAVOK 13/10 Q1027=
202404122120 METAR EGKK 122120Z 21005KT CAVOK 13/10 Q1028=
202404122150 METAR EGKK 122150Z 21005KT CAVOK 13/10 Q1028=
202404122220 METAR EGKK 122220Z 20004KT CAVOK 13/10 Q1028=
202404122250 METAR EGKK 122250Z 21004KT 9999 SCT036 13/10 Q1027=
202404122320 METAR EGKK 122320Z 20003KT 9999 BKN036 12/10 Q1027=
202404122350 METAR EGKK 122350Z 19003KT 9999 FEW036 12/10 Q1027=
202404130020 METAR EGKK 130020Z 18004KT CAVOK 12/10 Q1027=
202404130050 METAR EGKK 130050Z 18005KT CAVOK 12/10 Q1026=
202404130120 METAR EGKK 130120Z 19003KT 160V230 CAVOK 12/10 Q1026=
202404130150 METAR EGKK 130150Z 19003KT CAVOK 12/10 Q1026=
202404130220 METAR EGKK 130220Z 20003KT CAVOK 12/10 Q1026=
202404130250 METAR EGKK 130250Z 22003KT CAVOK 12/10 Q1026=
202404130320 METAR EGKK 130320Z VRB02KT CAVOK 11/10 Q1025=
202404130350 METAR EGKK 130350Z 23003KT CAVOK 11/10 Q1025=
202404130420 METAR EGKK 130420Z 23004KT CAVOK 11/10 Q1025=
202404130450 METAR EGKK 130450Z 22004KT 9999 SCT007 11/11 Q1025=
202404130520 METAR EGKK 130520Z 21004KT 9999 BKN006 12/11 Q1025=
202404130550 METAR EGKK 130550Z 21004KT 180V240 9999 BKN005 12/11 Q1025=
202404130620 METAR EGKK 130620Z 20006KT 180V240 7000 BKN005 12/11 Q1024=
202404130650 METAR EGKK 130650Z 20005KT 7000 BKN005 12/11 Q1024=
202404130720 METAR EGKK 130720Z 22006KT 9999 BKN005 13/12 Q1024=
202404130750 METAR EGKK 130750Z 21007KT 9999 BKN005 BKN010 13/12 Q1024=
202404130820 METAR EGKK 130820Z 21007KT 9999 BKN008 13/12 Q1023=
202404130850 METAR EGKK 130850Z 21006KT 170V240 9999 BKN011 14/12 Q1023=
202404130920 METAR EGKK 130920Z 21010KT 170V230 9999 BKN011 15/12 Q1023=
202404130950 METAR EGKK 130950Z 22010KT 180V250 9999 BKN013 16/12 Q1023=
202404131020 METAR EGKK 131020Z 22012KT 180V240 9999 FEW016 16/12 Q1023=
202404131050 METAR EGKK 131050Z 21011KT 180V240 9999 FEW020 17/11 Q1023=
202404131120 METAR EGKK 131120Z 23013KT CAVOK 17/11 Q1022=
202404131150 METAR EGKK 131150Z 22014KT CAVOK 18/10 Q1022=
202404131220 METAR EGKK 131220Z 23013KT 9999 FEW032 18/11 Q1022=
202404131250 METAR EGKK 131250Z 22013KT 9999 FEW028 18/11 Q1021=
202404131320 METAR EGKK 131320Z 22012KT 190V250 9999 FEW032 19/11 Q1021=
202404131350 METAR EGKK 131350Z 22013KT CAVOK 18/11 Q1021=
202404131420 METAR EGKK 131420Z 23012KT 9999 FEW032 18/10 Q1021=
202404131450 METAR EGKK 131450Z 23011KT 190V250 CAVOK 18/10 Q1020=
202404131520 METAR EGKK 131520Z 22011KT CAVOK 18/08 Q1020=
202404131550 METAR EGKK 131550Z 21011KT CAVOK 18/07 Q1020=
202404131620 METAR EGKK 131620Z 23010KT CAVOK 17/07 Q1020=
202404131650 METAR EGKK 131650Z 23009KT CAVOK 17/06 Q1020=
202404131720 METAR EGKK 131720Z 23009KT CAVOK 17/06 Q1020=
202404131750 METAR EGKK 131750Z 23009KT CAVOK 16/07 Q1021=
202404131820 METAR EGKK 131820Z 22007KT CAVOK 15/08 Q1020=
202404131850 METAR EGKK 131850Z 24008KT 9999 FEW032 14/08 Q1021=
202404131920 METAR EGKK 131920Z 23008KT 9999 FEW031 14/09 Q1021=
202404131950 METAR EGKK 131950Z 24006KT 9999 FEW034 13/09 Q1022=
202404132020 METAR EGKK 132020Z 24007KT CAVOK 13/10 Q1022=
202404132050 METAR EGKK 132050Z 24006KT 9999 FEW028 12/10 Q1022=
202404132120 METAR EGKK 132120Z 25005KT 9999 FEW019 12/10 Q1022=
202404132150 METAR EGKK 132150Z 30014KT 9999 FEW020 12/09 Q1023=
202404132220 METAR EGKK 132220Z 28009KT CAVOK 12/08 Q1023=
202404132250 METAR EGKK 132250Z 27010KT CAVOK 12/07 Q1023=
202404132320 METAR EGKK 132320Z 25008KT CAVOK 11/07 Q1023=
202404132350 METAR EGKK 132350Z 25007KT CAVOK 10/07 Q1023=
202404140020 METAR EGKK 140020Z 25006KT CAVOK 10/07 Q1023=
202404140050 METAR EGKK 140050Z 25005KT CAVOK 10/07 Q1023=
202404140120 METAR EGKK 140120Z 25005KT CAVOK 09/07 Q1023=
202404140150 METAR EGKK 140150Z 28006KT CAVOK 09/07 Q1023=
202404140220 METAR EGKK 140220Z 29004KT CAVOK 09/07 Q1023=
202404140250 METAR EGKK 140250Z 27004KT CAVOK 08/07 Q1024=
202404140320 METAR EGKK 140320Z 27004KT 9999 FEW038 08/07 Q1024=
202404140350 METAR EGKK 140350Z 30003KT CAVOK 09/07 Q1024=
202404140420 METAR EGKK 140420Z 28003KT 250V310 CAVOK 08/07 Q1024=
202404140450 METAR EGKK 140450Z 26003KT CAVOK 08/06 Q1024=
202404140520 METAR EGKK 140520Z VRB02KT CAVOK 08/06 Q1024=
202404140550 METAR EGKK 140550Z VRB02KT CAVOK 08/06 Q1024=
202404140620 METAR EGKK 140620Z 22003KT CAVOK 08/07 Q1025=
202404140650 METAR EGKK 140650Z 27005KT CAVOK 09/06 Q1025=
202404140720 METAR EGKK 140720Z 28005KT CAVOK 10/06 Q1025=
202404140750 METAR EGKK 140750Z 30006KT CAVOK 10/05 Q1025=
202404140820 METAR EGKK 140820Z 32005KT CAVOK 10/05 Q1025=
202404140850 METAR EGKK 140850Z 30004KT 250V330 CAVOK 11/05 Q1025=
202404140920 METAR EGKK 140920Z 26003KT 210V320 9999 FEW028 11/05 Q1025=
202404140950 METAR EGKK 140950Z 31006KT 260V340 9999 FEW028 12/03 Q1025=
202404141020 METAR EGKK 141020Z 29004KT 240V350 9999 FEW036 12/03 Q1025=
202404141050 METAR EGKK 141050Z 26008KT 210V280 9999 FEW036 12/01 Q1024=
202404141120 METAR EGKK 141120Z 28007KT 240V340 9999 FEW040 13/01 Q1024=
202404141150 METAR EGKK 141150Z 26008KT 230V300 9999 FEW040 13/02 Q1024=
202404141220 METAR EGKK 141220Z 24006KT 210V300 9999 FEW036 13/02 Q1023=
202404141250 METAR EGKK 141250Z 26009KT 230V290 CAVOK 14/02 Q1023=
202404141320 METAR EGKK 141320Z 26010KT 9999 FEW048 14/02 Q1023=
202404141350 METAR EGKK 141350Z 26010KT 230V310 9999 FEW048 14/02 Q1022=
202404141420 METAR EGKK 141420Z 28010KT CAVOK 14/02 Q1022=
202404141450 METAR EGKK 141450Z 25009KT 9999 FEW049 14/02 Q1021=
202404141520 METAR EGKK 141520Z 26009KT 230V300 9999 FEW044 13/02 Q1021=
202404141550 METAR EGKK 141550Z 24008KT 9999 FEW049 13/02 Q1021=
202404141620 METAR EGKK 141620Z 24009KT 9999 FEW042 13/04 Q1021=
202404141650 METAR EGKK 141650Z 22009KT 9999 SCT043 12/04 Q1020=
202404141720 METAR EGKK 141720Z 23008KT 9999 SCT042 12/05 Q1020=
202404141750 METAR EGKK 141750Z 23009KT 9999 FEW042 SCT049 12/04 Q1020=
202404141820 METAR EGKK 141820Z 23009KT 200V260 9999 FEW047 11/04 Q1020=
202404141850 METAR EGKK 141850Z 23006KT 9999 FEW038 11/04 Q1020=
202404141920 METAR EGKK 141920Z 23007KT CAVOK 10/04 Q1019=
202404141950 METAR EGKK 141950Z 24006KT 9999 SCT047 10/05 Q1019=
202404142020 METAR EGKK 142020Z 23006KT CAVOK 09/05 Q1019=
202404142050 METAR EGKK 142050Z 23004KT CAVOK 09/05 Q1019=
202404142120 METAR EGKK 142120Z 23005KT CAVOK 08/05 Q1019=
202404142150 METAR EGKK 142150Z 22006KT CAVOK 08/05 Q1018=
202404142220 METAR EGKK 142220Z 22005KT CAVOK 08/05 Q1018=
202404142250 METAR EGKK 142250Z 23005KT CAVOK 07/05 Q1018=
202404142320 METAR EGKK 142320Z 23006KT CAVOK 07/05 Q1017=
202404142350 METAR EGKK 142350Z 24007KT CAVOK 07/04 Q1017=
202404150020 METAR EGKK 150020Z 23006KT CAVOK 07/04 Q1016=
202404150050 METAR EGKK 150050Z 23005KT CAVOK 07/04 Q1016=
202404150120 METAR EGKK 150120Z 23005KT 190V260 CAVOK 07/04 Q1016=
202404150150 METAR EGKK 150150Z 23006KT CAVOK 07/04 Q1015=
202404150220 METAR EGKK 150220Z 23009KT CAVOK 07/04 Q1014=
202404150250 METAR EGKK 150250Z 23007KT CAVOK 07/04 Q1014=
202404150320 METAR EGKK 150320Z 22008KT 9999 BKN040 07/04 Q1013=
202404150350 METAR EGKK 150350Z 21009KT 9999 FEW039 07/05 Q1012=
202404150420 METAR EGKK 150420Z 21008KT 170V230 9999 FEW030 08/05 Q1011=
202404150450 METAR EGKK 150450Z 22011KT 9999 FEW032 09/06 Q1010=
202404150520 METAR EGKK 150520Z 21013G23KT 9999 -RA SCT015 SCT030 BKN048 09/06 Q1010=
202404150550 METAR EGKK 150550Z 23012KT 9999 FEW045 09/05 Q1009=
202404150620 METAR EGKK 150620Z 22010KT CAVOK 09/06 Q1009=
202404150650 METAR EGKK 150650Z 23013KT 9999 SCT020 SCT027 10/07 Q1008=
202404150720 METAR EGKK 150720Z 23013KT 9999 SCT020 SCT025 10/07 Q1007=
202404150750 METAR EGKK 150750Z 23016KT 9999 SCT020 SCT028 10/07 Q1006=
202404150820 METAR EGKK 150820Z 23014KT 9999 -RA SCT021 BKN031 11/06 Q1005=
202404150850 METAR EGKK 150850Z 23017KT 9999 5000N -RA VCSH FEW022 BKN025 11/06 Q1004=
202404150920 METAR EGKK 150920Z 29025G38KT 7000 -RA VCSH VCTS FEW015CB BKN019 06/04 Q1006 RETS=
202404150950 METAR EGKK 150950Z 27012KT 9999 -RA FEW011 BKN046 07/04 Q1006=
202404151020 METAR EGKK 151020Z 27013KT 9999 FEW028 09/06 Q1005=
202404151050 METAR EGKK 151050Z 27016KT 9999 FEW026 SCT033 10/06 Q1005=
202404151120 METAR EGKK 151120Z 28017KT 9999 VCSH SCT030CB 09/05 Q1006=
202404151150 METAR EGKK 151150Z 28022KT 9999 VCSH SCT043CB 11/02 Q1006=
202404151220 METAR EGKK 151220Z 29023G34KT 9999 FEW046 12/00 Q1006=
202404151250 METAR EGKK 151250Z 28022KT 250V310 9999 FEW048 12/00 Q1006=
202404151320 METAR EGKK 151320Z 29019G29KT 9999 FEW049 12/M01 Q1006=
202404151350 METAR EGKK 151350Z 28025KT CAVOK 13/M01 Q1007=
202404151420 METAR EGKK 151420Z 28022G32KT CAVOK 12/M02 Q1007=
202404151450 METAR EGKK 151450Z 29021KT CAVOK 12/M01 Q1007=
202404151520 METAR EGKK 151520Z 28022G33KT CAVOK 12/M01 Q1007=
202404151550 METAR EGKK 151550Z 27024G35KT CAVOK 12/M01 Q1007=
202404151620 METAR EGKK 151620Z 30019G31KT 9999 VCSH FEW020CB 11/M01 Q1008=
202404151650 METAR EGKK 151650Z 27022G32KT 9999 FEW048CB 11/M02 Q1008=
202404151720 METAR EGKK 151720Z 30019KT 9999 FEW049CB 11/M01 Q1008=
202404151750 METAR EGKK 151750Z 27015G25KT CAVOK 10/M01 Q1008=
202404151820 METAR EGKK 151820Z 28019KT CAVOK 10/M02 Q1008=
202404151850 METAR EGKK 151850Z 29017KT CAVOK 10/M02 Q1009=
202404151920 METAR EGKK 151920Z 28016KT 9999 VCSH FEW049CB 09/M01 Q1009=
202404151950 METAR EGKK 151950Z 27013KT 9999 FEW049 08/M01 Q1009=
202404152020 METAR EGKK 152020Z 27015KT 9999 FEW049 08/M00 Q1009=
202404152050 METAR EGKK 152050Z 27014KT CAVOK 08/00 Q1009=
202404152120 METAR EGKK 152120Z 27014KT CAVOK 08/M00 Q1009=
202404152150 METAR EGKK 152150Z 25011KT CAVOK 07/01 Q1009=
202404152220 METAR EGKK 152220Z 25014G24KT 9999 FEW045 07/02 Q1009=
202404152250 METAR EGKK 152250Z 26014KT 9999 SCT048 07/02 Q1009=
202404152320 METAR EGKK 152320Z 26014KT 9999 FEW040 07/02 Q1009=
202404152350 METAR EGKK 152350Z 27015KT 9999 FEW038 07/02 Q1009=
202404160020 METAR EGKK 160020Z 27015KT 9999 FEW033 07/03 Q1009=
202404160050 METAR EGKK 160050Z 27014KT 9999 FEW034 08/02 Q1009=
202404160120 METAR EGKK 160120Z 28018G31KT 9999 SCT033 09/03 Q1009=
202404160150 METAR EGKK 160150Z 29019G30KT 9999 SCT032 BKN041 09/03 Q1008=
202404160220 METAR EGKK 160220Z 29016KT 9999 SCT031 BKN037 09/03 Q1009=
202404160250 METAR EGKK 160250Z 29014KT 9999 SCT030 09/03 Q1009=
202404160320 METAR EGKK 160320Z 29014KT 9999 SCT028 BKN043 09/04 Q1009=
202404160350 METAR EGKK 160350Z 30014KT 9999 -RA SCT026 SCT031 BKN042 08/04 Q1009=
202404160420 METAR EGKK 160420Z 30014KT 9999 FEW026 SCT032 08/04 Q1009=
202404160450 METAR EGKK 160450Z 30012KT 9999 SCT027 SCT032 BKN042 09/04 Q1010=
202404160520 METAR EGKK 160520Z 30015KT 9999 SCT027 09/04 Q1010=
202404160550 METAR EGKK 160550Z 29012KT 9999 FEW025 SCT038 09/04 Q1010=
202404160620 METAR EGKK 160620Z 30014KT 9999 SCT023 09/04 Q1011=
202404160650 METAR EGKK 160650Z 30015KT 9999 SCT024 09/04 Q1011=
202404160720 METAR EGKK 160720Z 30012KT 270V330 9999 SCT024 09/04 Q1011=
202404160750 METAR EGKK 160750Z 31013KT 9999 BKN026 10/04 Q1012=
202404160820 METAR EGKK 160820Z 31013KT 9999 SCT026 SCT034 10/04 Q1012=
202404160850 METAR EGKK 160850Z 31016KT 9999 BKN025 10/04 Q1012=
202404160920 METAR EGKK 160920Z 31014KT 9999 BKN027 10/04 Q1012=
202404160950 METAR EGKK 160950Z 31016KT 9999 BKN030 11/04 Q1013=
202404161020 METAR EGKK 161020Z 31016KT 9999 -SHRA SCT033 11/05 Q1013=
202404161050 METAR EGKK 161050Z 32009KT 9999 SCT032 10/07 Q1013=
202404161120 METAR EGKK 161120Z 31015KT 9999 SCT037 12/04 Q1013=
202404161150 METAR EGKK 161150Z 30011KT 9999 SCT037 11/05 Q1013=
202404161220 METAR EGKK 161220Z 31017KT 9999 -RA SCT040CB 11/03 Q1013=
202404161250 METAR EGKK 161250Z 30012KT 9999 VCSH FEW023CB 11/04 Q1013=
202404161320 METAR EGKK 161320Z 31015KT 9999 FEW021CB 12/03 Q1013=
202404161350 METAR EGKK 161350Z 32014KT 290V350 9999 FEW021CB 14/03 Q1013=
202404161420 METAR EGKK 161420Z 32013KT 280V010 9999 VCSH SCT047CB 14/03 Q1013=
202404161450 METAR EGKK 161450Z 35012KT 9999 VCSH FEW043CB 12/02 Q1013=
202404161520 METAR EGKK 161520Z 34015KT 300V010 9999 FEW049CB 13/03 Q1013=
202404161550 METAR EGKK 161550Z 35012KT 9999 FEW040CB 12/02 Q1014=
202404161620 METAR EGKK 161620Z 32014KT 9999 VCSH FEW040CB 12/01 Q1014=
202404161650 METAR EGKK 161650Z 29008KT 9999 VCSH FEW040CB 11/01 Q1014=
202404161720 METAR EGKK 161720Z 28007KT 9999 VCSH FEW040CB 11/02 Q1014=
202404161750 METAR EGKK 161750Z 29011KT 9999 VCSH FEW046CB 11/02 Q1014=
202404161820 METAR EGKK 161820Z 31014KT 9999 SHRA FEW013CB SCT030 08/04 Q1015 RESHRA=
202404161850 METAR EGKK 161850Z 35011KT 9999 -SHRA FEW015CB SCT027 08/04 Q1015 RESHRA=
202404161920 METAR EGKK 161920Z 34008KT 310V020 9999 -RA FEW012CB SCT042 07/04 Q1016=
202404161950 METAR EGKK 161950Z 34007KT 9999 FEW038 08/05 Q1016=
202404162020 METAR EGKK 162020Z 33006KT 9999 SCT039 07/05 Q1016=
202404162050 METAR EGKK 162050Z 33007KT 290V350 CAVOK 08/05 Q1016=
202404162120 METAR EGKK 162120Z 35005KT 290V020 9999 FEW036 SCT049 07/05 Q1016=
202404162150 METAR EGKK 162150Z 32004KT 290V360 9999 -RA FEW036 SCT047 07/05 Q1017=
202404162220 METAR EGKK 162220Z 31004KT 9999 SCT034 07/05 Q1017=
202404162250 METAR EGKK 162250Z 32004KT 9999 FEW022 SCT036 07/05 Q1017=
202404162320 METAR EGKK 162320Z 28004KT 9999 SCT048 07/05 Q1017=
202404162350 METAR EGKK 162350Z 30005KT CAVOK 07/05 Q1017=
202404170020 METAR EGKK 170020Z 30006KT CAVOK 06/04 Q1017=
202404170050 METAR EGKK 170050Z 30004KT CAVOK 05/04 Q1017=
202404170120 METAR EGKK 170120Z VRB02KT CAVOK 05/03 Q1017=
202404170150 METAR EGKK 170150Z 23003KT CAVOK 04/03 Q1016=
202404170220 METAR EGKK 170220Z 22004KT CAVOK 04/03 Q1016=
202404170250 METAR EGKK 170250Z 23003KT 9999 FEW030 04/03 Q1016=
202404170320 METAR EGKK 170320Z 28006KT 9999 FEW027 04/02 Q1016=
202404170350 METAR EGKK 170350Z 27007KT CAVOK 04/02 Q1016=
202404170420 METAR EGKK 170420Z 28007KT CAVOK 05/02 Q1016=
202404170450 METAR EGKK 170450Z 28009KT CAVOK 05/02 Q1016=
202404170520 METAR EGKK 170520Z 28008KT CAVOK 06/02 Q1016=
202404170550 METAR EGKK 170550Z 30008KT CAVOK 06/02 Q1016=
202404170620 METAR EGKK 170620Z 30008KT CAVOK 06/02 Q1016=
202404170650 METAR EGKK 170650Z 30010KT CAVOK 06/02 Q1016=
202404170720 METAR EGKK 170720Z 31013KT 9999 FEW023 07/02 Q1016=
202404170750 METAR EGKK 170750Z 31016KT 9999 SCT022 07/02 Q1016=
202404170820 METAR EGKK 170820Z 32014KT 9999 SCT021 08/03 Q1016=
202404170850 METAR EGKK 170850Z 31014KT 9999 SCT024 08/02 Q1016=
202404170920 METAR EGKK 170920Z 32013KT 9999 SCT028 08/02 Q1016=
202404170950 METAR EGKK 170950Z 32011KT 280V350 9999 SCT033 09/01 Q1015=
202404171020 METAR EGKK 171020Z 31012KT 9999 FEW033 SCT047 09/02 Q1015=
202404171050 METAR EGKK 171050Z 31012KT 270V340 9999 SCT035 10/01 Q1015=
202404171120 METAR EGKK 171120Z 33012KT 9999 SCT035 09/00 Q1015=
202404171150 METAR EGKK 171150Z 32015KT 280V350 9999 FEW044 11/M02 Q1015=
202404171220 METAR EGKK 171220Z 30012KT 270V360 9999 SCT044 10/M00 Q1015=
202404171250 METAR EGKK 171250Z 29016KT 9999 SCT042 10/00 Q1015=
202404171320 METAR EGKK 171320Z 32013KT 9999 SCT047 11/00 Q1015=
202404171350 METAR EGKK 171350Z 31013KT 9999 SCT049 11/00 Q1015=
202404171420 METAR EGKK 171420Z 32013KT 9999 FEW049 11/M02 Q1015=
202404171450 METAR EGKK 171450Z 33009KT 300V010 9999 VCSH NSC 11/M02 Q1014=
202404171520 METAR EGKK 171520Z 34012KT 9999 VCSH SCT055CB 11/M02 Q1014=
202404171550 METAR EGKK 171550Z 31014KT 9999 VCSH NSC 11/M01 Q1014=
202404171620 METAR EGKK 171620Z 32013KT 9999 VCSH FEW030 11/M01 Q1014=
202404171650 METAR EGKK 171650Z 31010KT 9999 VCSH FEW049 11/M01 Q1014=
202404171720 METAR EGKK 171720Z 32012KT CAVOK 11/M01 Q1014=
202404171750 METAR EGKK 171750Z 33009KT 290V010 CAVOK 11/M01 Q1014=
202404171820 METAR EGKK 171820Z 34004KT 300V010 9999 VCSH NSC 10/00 Q1014=
202404171850 METAR EGKK 171850Z 01012KT 340V040 9999 VCSH FEW020 10/M00 Q1015=
202404171920 METAR EGKK 171920Z 36009KT 290V020 CAVOK 09/00 Q1015=
202404171950 METAR EGKK 171950Z 34009KT 310V010 CAVOK 09/00 Q1015=
202404172020 METAR EGKK 172020Z 34010KT 300V360 CAVOK 08/01 Q1016=
202404172050 METAR EGKK 172050Z 32010KT 9999 FEW035 08/01 Q1016=
202404172120 METAR EGKK 172120Z 32009KT CAVOK 07/00 Q1016=
202404172150 METAR EGKK 172150Z 34012KT 9999 FEW049 07/01 Q1017=
202404172220 METAR EGKK 172220Z 32010KT 9999 FEW033 07/01 Q1017=
202404172250 METAR EGKK 172250Z 34011KT 9999 SCT033 07/01 Q1017=
202404172320 METAR EGKK 172320Z 34011KT 9999 SCT028 07/02 Q1017=
202404172350 METAR EGKK 172350Z 34011KT 310V020 9999 -RA FEW026 SCT039 07/02 Q1017=
202404180020 METAR EGKK 180020Z 34011KT 9999 -RA SCT019 BKN027 06/03 Q1018=
202404180050 METAR EGKK 180050Z 34010KT 9999 SCT018 BKN030 06/03 Q1018=
202404180120 METAR EGKK 180120Z 35012KT 9999 SCT019 BKN027 06/03 Q1018=
202404180150 METAR EGKK 180150Z 02011KT 9999 SCT018 BKN030 06/03 Q1018=
202404180220 METAR EGKK 180220Z 03010KT 9999 BKN019 06/03 Q1019=
202404180250 METAR EGKK 180250Z 02013KT 9999 BKN016 06/03 Q1019=
202404180320 METAR EGKK 180320Z 01013KT 9999 BKN017 06/03 Q1019=
202404180350 METAR EGKK 180350Z 01009KT CAVOK 05/03 Q1020=
202404180420 METAR EGKK 180420Z 02005KT 9999 FEW015 05/03 Q1020=
202404180450 METAR EGKK 180450Z 36006KT 9999 FEW015 05/03 Q1021=
202404180520 METAR EGKK 180520Z 36006KT 260V030 CAVOK 05/02 Q1021=
202404180550 METAR EGKK 180550Z 34007KT 300V360 CAVOK 05/03 Q1022=
202404180620 METAR EGKK 180620Z 33006KT 300V040 CAVOK 05/03 Q1022=
202404180650 METAR EGKK 180650Z VRB05KT 9999 FEW014 06/03 Q1022=
202404180720 METAR EGKK 180720Z 36006KT 330V040 9999 FEW014 07/03 Q1023=
202404180750 METAR EGKK 180750Z 01007KT 340V050 9999 SCT016 07/03 Q1023=
202404180820 METAR EGKK 180820Z 36009KT 350V100 9999 SCT023 08/03 Q1023=
202404180850 METAR EGKK 180850Z 36007KT 320V030 9999 SCT028 08/03 Q1023=
202404180920 METAR EGKK 180920Z VRB06G16KT 9999 SCT027 09/02 Q1024=
202404180950 METAR EGKK 180950Z VRB04KT 9999 SCT028 10/02 Q1024=
202404181020 METAR EGKK 181020Z 33006KT 300V100 9999 SCT032 11/02 Q1024=
202404181050 METAR EGKK 181050Z 31006G16KT 280V340 9999 SCT033 10/02 Q1024=
202404181120 METAR EGKK 181120Z 29006KT 220V320 9999 SCT035 11/02 Q1024=
202404181150 METAR EGKK 181150Z VRB02KT 9999 SCT038 12/02 Q1023=
202404181220 METAR EGKK 181220Z 27005KT 210V310 9999 FEW040 12/02 Q1023=
202404181250 METAR EGKK 181250Z 25007KT 180V300 9999 FEW042 13/02 Q1023=
202404181320 METAR EGKK 181320Z 26008KT 230V300 9999 FEW045 13/01 Q1023=
202404181350 METAR EGKK 181350Z 24008KT 210V280 9999 FEW048 13/01 Q1022=
202404181420 METAR EGKK 181420Z 26009KT 220V290 9999 FEW048 14/02 Q1022=
202404181450 METAR EGKK 181450Z 25009KT CAVOK 14/02 Q1022=
202404181520 METAR EGKK 181520Z 23010KT 9999 FEW043 13/03 Q1022=
202404181550 METAR EGKK 181550Z 22010KT 180V250 CAVOK 13/04 Q1021=
202404181620 METAR EGKK 181620Z 23014KT 9999 FEW045 12/04 Q1021=
202404181650 METAR EGKK 181650Z 24012KT 9999 FEW035 11/04 Q1021=
202404181720 METAR EGKK 181720Z 23011KT CAVOK 11/04 Q1021=
202404181750 METAR EGKK 181750Z 22010KT CAVOK 11/04 Q1021=
202404181820 METAR EGKK 181820Z 23008KT CAVOK 11/04 Q1021=
202404181850 METAR EGKK 181850Z 24009KT CAVOK 10/04 Q1021=
202404181920 METAR EGKK 181920Z 24006KT 9999 -RA SCT048 10/04 Q1021=
202404181950 METAR EGKK 181950Z 24009KT 9999 SCT043 10/04 Q1021=
202404182020 METAR EGKK 182020Z 24010KT 210V290 9999 FEW040 10/04 Q1021=
202404182050 METAR EGKK 182050Z 27013KT 9999 FEW038 10/01 Q1021=
202404182120 METAR COR EGKK 182120Z 27011KT 9999 -RA BKN047 10/01 Q1020=
202404182150 METAR EGKK 182150Z 25011KT 9999 -DZRA BKN045 09/03 Q1020=
202404182220 METAR EGKK 182220Z 25008KT 9999 -RA BKN037 08/04 Q1020=
202404182250 METAR EGKK 182250Z 25008KT 9999 -DZRA BKN032 08/04 Q1020=
202404182320 METAR EGKK 182320Z 24008KT 9999 -DZRA SCT029 BKN042 08/05 Q1019=
202404182350 METAR EGKK 182350Z 23006KT 9999 -RA SCT029 BKN036 07/05 Q1019=
202404190020 METAR EGKK 190020Z 24006KT 200V270 9999 -DZ FEW016 BKN037 07/06 Q1018=
202404190050 METAR EGKK 190050Z 23007KT 200V260 9999 FEW015 BKN034 08/06 Q1018=
202404190120 METAR EGKK 190120Z 24005KT 9999 FEW015 08/06 Q1018=
202404190150 METAR EGKK 190150Z 24004KT 9999 FEW015 SCT022 08/06 Q1017=
202404190220 METAR EGKK 190220Z 24007KT 9999 BKN018 08/07 Q1017=
202404190250 METAR EGKK 190250Z 24007KT 9999 BKN017 09/07 Q1017=
202404190320 METAR EGKK 190320Z 24006KT 210V270 9999 BKN017 09/07 Q1017=
202404190350 METAR EGKK 190350Z 26007KT 9999 BKN017 09/08 Q1016=
202404190420 METAR EGKK 190420Z 26008KT 9999 BKN022 09/08 Q1016=
202404190450 METAR EGKK 190450Z 28009KT 9999 BKN020 10/08 Q1016=
202404190520 METAR EGKK 190520Z 27010KT 9999 BKN017 10/07 Q1016=
202404190550 METAR EGKK 190550Z 27011KT 9999 BKN018 10/08 Q1016=
202404190620 METAR EGKK 190620Z 28011KT 9999 SCT016 10/07 Q1016=
202404190650 METAR EGKK 190650Z 28012KT 9999 SCT017 11/08 Q1016=
202404190720 METAR EGKK 190720Z 28012KT 9999 BKN022 11/08 Q1016=
202404190750 METAR EGKK 190750Z 29012KT 9999 FEW021 BKN028 11/07 Q1016=
202404190820 METAR EGKK 190820Z 30012KT 9999 FEW025 BKN030 12/07 Q1016=
202404190850 METAR EGKK 190850Z 29013KT 9999 SCT024 BKN031 12/07 Q1016=
202404190920 METAR EGKK 190920Z 30011KT 9999 SCT025 BKN036 12/07 Q1016=
202404190950 METAR EGKK 190950Z 29014KT 9999 BKN028 BKN038 12/07 Q1016=
202404191020 METAR EGKK 191020Z 29015KT 9999 SCT027 BKN036 13/07 Q1016=
202404191050 METAR EGKK 191050Z 29014KT 9999 SCT028 BKN036 13/07 Q1016=
202404191120 METAR EGKK 191120Z 31012KT 280V350 9999 FEW020 BKN028 13/07 Q1016=
202404191150 METAR EGKK 191150Z 30014KT 8000 -SHRA BKN021 BKN033 12/08 Q1016=
202404191220 METAR EGKK 191220Z 32012KT 9999 SCT012 SCT029 12/10 Q1017=
202404191250 METAR EGKK 191250Z 31016KT 9999 FEW011 FEW021TCU 13/09 Q1016=
202404191320 METAR EGKK 191320Z 31018G28KT 9999 FEW025 14/07 Q1016=
202404191350 METAR EGKK 191350Z 33016G26KT 9999 -SHRA FEW033 14/06 Q1016=
202404191420 METAR EGKK 191420Z 03019KT 350V050 9999 FEW043 14/06 Q1016=
202404191450 METAR EGKK 191450Z 02013KT 9999 FEW043 13/06 Q1017=
202404191520 METAR EGKK 191520Z 36012KT 9999 FEW030 13/06 Q1017=
202404191550 METAR EGKK 191550Z 02014KT 330V050 9999 SCT035 13/05 Q1017=
202404191620 METAR EGKK 191620Z 02014KT 9999 SCT037 12/05 Q1018=
202404191650 METAR EGKK 191650Z 02010KT CAVOK 11/05 Q1018=
202404191720 METAR EGKK 191720Z 03010KT 9999 FEW027 11/06 Q1019=
202404191750 METAR EGKK 191750Z 04013KT 9999 SCT025 10/04 Q1020=
202404191820 METAR EGKK 191820Z 04007KT 9999 FEW033 09/04 Q1020=
202404191850 METAR EGKK 191850Z 02007KT 9999 FEW044 09/04 Q1020=
202404191920 METAR EGKK 191920Z 05008KT CAVOK 09/02 Q1021=
202404191950 METAR EGKK 191950Z 07006KT CAVOK 08/01 Q1021=
202404192020 METAR EGKK 192020Z 05006KT CAVOK 08/01 Q1022=
202404192050 METAR EGKK 192050Z 04003KT CAVOK 08/00 Q1022=
202404192120 METAR EGKK 192120Z 03004KT CAVOK 08/01 Q1022=
202404192150 METAR EGKK 192150Z 04006KT 010V090 CAVOK 07/01 Q1023=
202404192220 METAR EGKK 192220Z 03007KT CAVOK 07/01 Q1023=
202404192250 METAR EGKK 192250Z 01007KT 9999 SCT043 08/01 Q1024=
202404192320 METAR EGKK 192320Z 01006KT 9999 BKN042 08/01 Q1024=
202404192350 METAR EGKK 192350Z 01009KT 9999 FEW034 BKN043 08/01 Q1024=
202404200020 METAR EGKK 200020Z 36007KT 9999 BKN031 07/01 Q1024=
202404200050 METAR EGKK 200050Z 35010KT 9999 SCT030 07/M01 Q1024=
202404200120 METAR EGKK 200120Z 34006KT 320V020 CAVOK 06/M02 Q1025=
202404200150 METAR EGKK 200150Z 34006KT CAVOK 05/M02 Q1025=
202404200220 METAR EGKK 200220Z 34007KT CAVOK 05/M02 Q1025=
202404200250 METAR EGKK 200250Z 34007KT CAVOK 05/M02 Q1025=
202404200320 METAR EGKK 200320Z 34007KT CAVOK 04/M02 Q1025=
202404200350 METAR EGKK 200350Z 34008KT CAVOK 04/M02 Q1025=
202404200420 METAR EGKK 200420Z 33007KT CAVOK 04/M02 Q1026=
202404200450 METAR EGKK 200450Z 33006KT CAVOK 03/M02 Q1026=
202404200520 METAR EGKK 200520Z 32006KT 200V350 9999 FEW048 04/M01 Q1026=
202404200550 METAR EGKK 200550Z 33006KT 290V350 9999 FEW049 04/M01 Q1027=
202404200620 METAR EGKK 200620Z 34007KT 310V020 CAVOK 05/M01 Q1027=
202404200650 METAR EGKK 200650Z 35008KT CAVOK 05/M01 Q1027=
202404200720 METAR EGKK 200720Z 35009KT CAVOK 06/M00 Q1027=
202404200750 METAR EGKK 200750Z 01011KT 9999 FEW030 07/M00 Q1028=
202404200820 METAR EGKK 200820Z 01012KT 9999 FEW032 08/M00 Q1028=
202404200850 METAR EGKK 200850Z 01010KT 340V040 9999 FEW035 SCT040 08/M00 Q1028=
202404200920 METAR EGKK 200920Z 36012G24KT 230V030 9999 FEW036 SCT048 08/M01 Q1028=
202404200950 METAR EGKK 200950Z 03013KT 9999 SCT037 10/00 Q1028=
202404201020 METAR EGKK 201020Z 35011KT 9999 SCT040 09/M00 Q1028=
202404201050 METAR EGKK 201050Z 35011G23KT 250V020 9999 SCT038 09/M01 Q1028=
202404201120 METAR EGKK 201120Z 01011KT 9999 SCT045 10/M00 Q1029=
202404201150 METAR EGKK 201150Z 01009KT 330V050 9999 SCT043 10/M00 Q1029=
202404201220 METAR EGKK 201220Z VRB12G26KT 9999 SCT042 10/M00 Q1029=
202404201250 METAR EGKK 201250Z 03012KT 9999 SCT045 10/M01 Q1029=
202404201320 METAR EGKK 201320Z 02012KT 9999 SCT047 11/M01 Q1029=
202404201350 METAR EGKK 201350Z 36011KT 340V080 9999 SCT046 11/00 Q1029=
202404201420 METAR EGKK 201420Z 02012KT 9999 SCT048 10/M01 Q1029=
202404201450 METAR EGKK 201450Z 02012KT 9999 SCT049 11/M00 Q1028=
202404201520 METAR EGKK 201520Z 01010KT 330V100 9999 SCT048 11/M01 Q1028=
202404201550 METAR EGKK 201550Z 35012KT 320V040 9999 SCT049 11/M01 Q1028=
202404201620 METAR EGKK 201620Z 01010KT 9999 FEW046 10/00 Q1028=
202404201650 METAR EGKK 201650Z 36011KT 9999 FEW048 10/M00 Q1028=
202404201720 METAR EGKK 201720Z 01011KT CAVOK 10/M00 Q1028=
202404201750 METAR EGKK 201750Z 02009KT 9999 FEW045 10/M00 Q1028=
202404201820 METAR EGKK 201820Z 01009KT 340V050 CAVOK 10/M01 Q1028=
202404201850 METAR EGKK 201850Z 02008KT 9999 SCT049 09/M01 Q1028=
202404201920 METAR EGKK 201920Z 01007KT 320V040 CAVOK 09/M01 Q1028=
202404201950 METAR EGKK 201950Z 02005KT 350V100 CAVOK 08/M01 Q1029=
202404202020 METAR EGKK 202020Z 01005KT CAVOK 08/M00 Q1029=
202404202050 METAR EGKK 202050Z 01003KT CAVOK 08/00 Q1029=
202404202120 METAR EGKK 202120Z 03004KT CAVOK 07/01 Q1029=
202404202150 METAR EGKK 202150Z 03003KT CAVOK 07/01 Q1029=
202404202220 METAR EGKK 202220Z 04004KT CAVOK 06/01 Q1029=
202404202250 METAR EGKK 202250Z 02004KT CAVOK 06/01 Q1029=
202404202320 METAR EGKK 202320Z VRB01KT CAVOK 05/01 Q1029=
202404202350 METAR EGKK 202350Z 26003KT CAVOK 05/02 Q1029=
202404210020 METAR EGKK 210020Z 29004KT CAVOK 06/02 Q1028=
202404210050 METAR EGKK 210050Z 30004KT 9999 FEW042 06/02 Q1028=
202404210120 METAR EGKK 210120Z 31004KT 270V340 9999 SCT042 BKN049 06/02 Q1028=
202404210150 METAR EGKK 210150Z 32006KT 9999 BKN039 06/02 Q1028=
202404210220 METAR EGKK 210220Z 33005KT 9999 BKN040 06/02 Q1028=
202404210250 METAR EGKK 210250Z 35007KT 9999 BKN041 07/01 Q1028=
202404210320 METAR EGKK 210320Z 01009KT 9999 BKN046 07/01 Q1028=
202404210350 METAR EGKK 210350Z 36009KT 9999 SCT027 06/01 Q1028=
202404210420 METAR EGKK 210420Z 01010KT 9999 FEW027 06/01 Q1028=
202404210450 METAR EGKK 210450Z 36009KT 9999 FEW027 05/01 Q1028=
202404210520 METAR EGKK 210520Z 36007KT 310V060 CAVOK 05/01 Q1028=
202404210550 METAR EGKK 210550Z 36008KT 9999 FEW037 05/01 Q1029=
202404210620 METAR EGKK 210620Z 35010KT 330V030 9999 FEW039 06/01 Q1029=
202404210650 METAR EGKK 210650Z 01011KT 320V040 9999 FEW027 06/01 Q1029=
202404210720 METAR EGKK 210720Z 01012G22KT 9999 FEW024 07/01 Q1029=
202404210750 METAR EGKK 210750Z 36013KT 9999 FEW028 07/01 Q1029=
202404210820 METAR EGKK 210820Z 01012KT 340V040 9999 SCT029 08/01 Q1029=
202404210850 METAR EGKK 210850Z 02016KT 9999 SCT034 08/M00 Q1029=
202404210920 METAR EGKK 210920Z 01015KT 340V050 9999 SCT034 08/M00 Q1029=
202404210950 METAR EGKK 210950Z 02014KT 340V050 9999 SCT036 09/00 Q1029=
202404211020 METAR EGKK 211020Z 02012G22KT 350V060 9999 SCT037 09/00 Q1029=
202404211050 METAR EGKK 211050Z 01013KT 9999 BKN039 09/M00 Q1029=
202404211120 METAR EGKK 211120Z 01014KT 350V050 9999 BKN038 10/00 Q1029=
202404211150 METAR EGKK 211150Z 03012KT 9999 SCT041 10/00 Q1029=
202404211220 METAR EGKK 211220Z 02012KT 360V100 9999 SCT043 10/00 Q1029=
202404211250 METAR EGKK 211250Z 01010KT 330V030 9999 FEW038 10/01 Q1029=
202404211320 METAR EGKK 211320Z 01014KT 340V050 9999 FEW032 SCT043 10/01 Q1029=
202404211350 METAR EGKK 211350Z 03010KT 9999 FEW034 SCT044 11/01 Q1029=
202404211420 METAR EGKK 211420Z 36010KT 9999 FEW032 SCT045 11/01 Q1029=
202404211450 METAR EGKK 211450Z 01010KT 9999 FEW045 11/01 Q1029=
202404211520 METAR EGKK 211520Z 01013KT 9999 FEW046 11/01 Q1029=
202404211550 METAR EGKK 211550Z 01011KT 340V050 9999 FEW048 11/00 Q1029=
202404211620 METAR EGKK 211620Z 36009KT 330V030 9999 FEW048 11/00 Q1029=
202404211650 METAR EGKK 211650Z 36011KT 9999 FEW048 11/M00 Q1029=
202404211720 METAR EGKK 211720Z 02011KT 9999 FEW049 11/M00 Q1029=
202404211750 METAR EGKK 211750Z 02010KT CAVOK 10/00 Q1029=
202404211820 METAR EGKK 211820Z 02010KT CAVOK 10/M00 Q1029=
202404211850 METAR EGKK 211850Z 01009KT 320V060 9999 FEW048 09/M01 Q1029=
202404211920 METAR EGKK 211920Z 01009KT 310V050 9999 FEW047 09/M00 Q1029=
202404211950 METAR EGKK 211950Z 01011KT 9999 FEW042 09/M00 Q1030=
202404212020 METAR EGKK 212020Z 03008KT 010V080 9999 FEW039 09/00 Q1030=
202404212050 METAR EGKK 212050Z 04009KT 9999 FEW040 07/01 Q1030=
202404212120 METAR EGKK 212120Z 03007KT CAVOK 07/01 Q1030=
202404212150 METAR EGKK 212150Z 04006KT 9999 FEW040 06/01 Q1030=
202404212220 METAR EGKK 212220Z 04005KT 9999 FEW032 06/01 Q1030=
202404212250 METAR EGKK 212250Z 01007KT CAVOK 05/01 Q1030=
202404212320 METAR EGKK 212320Z 02006KT CAVOK 05/01 Q1030=
202404212350 METAR EGKK 212350Z 01007KT CAVOK 05/01 Q1030=
202404220020 METAR EGKK 220020Z 02006KT CAVOK 05/01 Q1030=
202404220050 METAR EGKK 220050Z 01007KT CAVOK 05/02 Q1030=
202404220120 METAR EGKK 220120Z 01006KT CAVOK 05/02 Q1030=
202404220150 METAR EGKK 220150Z 02004KT CAVOK 05/02 Q1030=
202404220220 METAR EGKK 220220Z 02004KT CAVOK 04/02 Q1029=
202404220250 METAR EGKK 220250Z 01005KT CAVOK 04/02 Q1029=
202404220320 METAR EGKK 220320Z 34003KT 300V030 CAVOK 04/02 Q1029=
202404220350 METAR EGKK 220350Z 22002KT CAVOK 03/01 Q1029=
202404220420 METAR EGKK 220420Z VRB01KT CAVOK 02/01 Q1029=
202404220450 METAR EGKK 220450Z 22002KT CAVOK 02/01 Q1029=
202404220520 METAR EGKK 220520Z 29004KT 250V320 CAVOK 03/02 Q1030=
202404220550 METAR EGKK 220550Z 29003KT 230V340 CAVOK 04/02 Q1029=
202404220620 METAR EGKK 220620Z 28003KT 240V360 CAVOK 04/03 Q1029=
202404220650 METAR EGKK 220650Z VRB02KT CAVOK 06/03 Q1029=
202404220720 METAR EGKK 220720Z VRB03KT 9999 FEW016 07/03 Q1029=
202404220750 METAR EGKK 220750Z 02006KT 350V060 9999 SCT016 08/04 Q1029=
202404220820 METAR EGKK 220820Z 03006KT 350V060 9999 SCT020 07/03 Q1029=
202404220850 METAR EGKK 220850Z 01008KT 330V130 9999 FEW022 09/03 Q1029=
202404220920 METAR EGKK 220920Z 02006KT 350V140 9999 FEW027 09/01 Q1028=
202404220950 METAR EGKK 220950Z 33006KT 280V040 9999 FEW031 SCT038 09/02 Q1028=
202404221020 METAR EGKK 221020Z VRB08G22KT 9999 SCT032 09/01 Q1028=
202404221050 METAR EGKK 221050Z 33006G18KT 260V030 9999 FEW032 SCT047 09/01 Q1028=
202404221120 METAR EGKK 221120Z 32007KT 280V010 9999 FEW034 SCT042 09/01 Q1028=
202404221150 METAR EGKK 221150Z 34008KT 300V020 9999 FEW035 09/01 Q1027=
202404221220 METAR EGKK 221220Z 30009KT 270V350 9999 SCT036 10/01 Q1027=
202404221250 METAR EGKK 221250Z 31009KT 250V360 9999 SCT036 10/01 Q1027=
202404221320 METAR EGKK 221320Z 32008KT 270V020 9999 FEW034 SCT046 10/01 Q1027=
202404221350 METAR EGKK 221350Z 33005KT 300V360 9999 SCT036 10/02 Q1026=
202404221420 METAR EGKK 221420Z 34007KT 280V030 9999 FEW029 SCT047 09/02 Q1026=
202404221450 METAR EGKK 221450Z 31008KT 9999 FEW025 09/03 Q1026=
202404221520 METAR EGKK 221520Z 34009KT 310V020 9999 -RA FEW024 SCT043 09/04 Q1026=
202404221550 METAR EGKK 221550Z 32008KT 9999 FEW027 BKN035 08/03 Q1026=
202404221620 METAR EGKK 221620Z 31007KT 280V360 9999 FEW027 09/02 Q1025=
202404221650 METAR EGKK 221650Z 33007KT 300V030 9999 FEW039 09/02 Q1025=
202404221720 METAR EGKK 221720Z 32007KT 9999 FEW026 09/02 Q1025=
202404221750 METAR EGKK 221750Z 31007KT 9999 FEW024 09/03 Q1025=
202404221820 METAR EGKK 221820Z 31007KT 9999 FEW024 08/03 Q1025=
202404221850 METAR EGKK 221850Z 32006KT CAVOK 08/03 Q1025=
202404221920 METAR EGKK 221920Z 32006KT 260V340 CAVOK 08/03 Q1025=
202404221950 METAR EGKK 221950Z 32005KT 9999 BKN049 08/03 Q1025=
202404222020 METAR EGKK 222020Z 32005KT 9999 FEW031 BKN046 08/03 Q1025=
202404222050 METAR EGKK 222050Z 02004KT 350V080 9999 SCT028 BKN042 08/03 Q1025=
202404222120 METAR EGKK 222120Z 04005KT 9999 BKN031 07/03 Q1025=
202404222150 METAR EGKK 222150Z 04005KT 9999 BKN027 07/03 Q1025=
202404222220 METAR EGKK 222220Z 06005KT 9999 BKN032 07/03 Q1025=
202404222250 METAR EGKK 222250Z 04004KT 9999 SCT032 07/02 Q1025=
202404222320 METAR EGKK 222320Z 08003KT CAVOK 06/03 Q1025=
202404222350 METAR EGKK 222350Z 07003KT CAVOK 06/03 Q1025=
202404230020 METAR EGKK 230020Z 07003KT 9999 FEW037 06/03 Q1025=
202404230050 METAR EGKK 230050Z 07003KT CAVOK 06/02 Q1024=
202404230120 METAR EGKK 230120Z 07002KT CAVOK 06/02 Q1024=
202404230150 METAR EGKK 230150Z 09001KT CAVOK 06/02 Q1024=
202404230220 METAR EGKK 230220Z 26002KT CAVOK 06/04 Q1024=
202404230250 METAR EGKK 230250Z 27003KT CAVOK 06/04 Q1024=
202404230320 METAR EGKK 230320Z 32003KT 280V360 CAVOK 06/04 Q1023=
202404230350 METAR EGKK 230350Z 32003KT CAVOK 06/03 Q1023=
202404230420 METAR EGKK 230420Z 33005KT 9999 -RA FEW030 BKN042 06/04 Q1023=
202404230450 METAR EGKK 230450Z 31005KT 9999 -RA BKN028 06/04 Q1023=
202404230520 METAR EGKK 230520Z 32006KT 220V350 9999 -RA BKN025 06/05 Q1024=
202404230550 METAR EGKK 230550Z 31005KT 230V350 9999 SCT025 BKN031 06/05 Q1024=
202404230620 METAR EGKK 230620Z 29005KT 9999 FEW016 BKN020 06/04 Q1024=
202404230650 METAR EGKK 230650Z 29004KT 250V340 9999 FEW008 BKN017 06/04 Q1023=
202404230720 METAR EGKK 230720Z 27004KT 240V310 9999 FEW009 BKN020 06/04 Q1023=
202404230750 METAR EGKK 230750Z 26004KT 220V310 9999 BKN010 07/05 Q1023=
202404230820 METAR EGKK 230820Z 28006KT 9999 BKN012 07/05 Q1023=
202404230850 METAR EGKK 230850Z 28005KT 250V320 9000 VCSH BKN010 07/05 Q1023=
202404230920 METAR EGKK 230920Z 29006KT 250V340 9999 SCT010 BKN031 08/05 Q1022=
202404230950 METAR EGKK 230950Z 32006KT 9999 SCT013 BKN029 08/05 Q1022=
202404231020 METAR EGKK 231020Z 35009KT 290V020 9999 SCT019 BKN026 09/04 Q1022=
202404231050 METAR EGKK 231050Z 35008KT 310V020 9999 SCT020 BKN030 09/04 Q1022=
202404231120 METAR EGKK 231120Z 34007KT 290V020 9999 FEW020 BKN033 09/04 Q1022=
202404231150 METAR EGKK 231150Z 34010KT 290V360 9999 SCT021 BKN033 08/05 Q1022=
202404231220 METAR EGKK 231220Z 35009KT 320V020 9000 -SHRA SCT014 BKN030 09/05 Q1022=
202404231250 METAR EGKK 231250Z 33010KT 290V360 9999 -RA SCT013 BKN029 08/06 Q1022=
202404231320 METAR EGKK 231320Z 33008KT 290V360 9999 FEW015 SCT046 09/05 Q1022=
202404231350 METAR EGKK 231350Z 32008KT 280V350 9999 SCT026 10/04 Q1021=
202404231420 METAR EGKK 231420Z 33008KT 9999 FEW027 SCT037 10/03 Q1021=
202404231450 METAR EGKK 231450Z 34006KT 300V030 9999 FEW032 11/03 Q1021=
202404231520 METAR EGKK 231520Z 32011KT 280V360 9999 FEW035 SCT042 11/02 Q1021=
202404231550 METAR EGKK 231550Z 33011KT 9999 SCT042 11/03 Q1020=
202404231620 METAR EGKK 231620Z 02011KT 9999 SCT028 BKN036 10/04 Q1020=
202404231650 METAR EGKK 231650Z 01010KT 9999 FEW027 SCT032 09/04 Q1020=
202404231720 METAR EGKK 231720Z 35009KT 320V020 9999 FEW023 SCT045 10/04 Q1020=
202404231750 METAR EGKK 231750Z 36011KT 320V030 9999 SCT025 SCT048 10/04 Q1020=
202404231820 METAR EGKK 231820Z 36009KT 9999 FEW028 SCT033 09/03 Q1020=
202404231850 METAR EGKK 231850Z 35011KT 9999 FEW029 SCT043 09/01 Q1020=
202404231920 METAR EGKK 231920Z 35008KT 310V020 9999 FEW037 09/02 Q1021=
202404231950 METAR EGKK 231950Z 36010KT 9999 FEW031 09/01 Q1021=
202404232020 METAR EGKK 232020Z 02011KT CAVOK 08/02 Q1021=
202404232050 METAR EGKK 232050Z 35008KT 300V010 CAVOK 08/01 Q1021=
202404232120 METAR EGKK 232120Z 35007KT 320V030 CAVOK 07/02 Q1021=
202404232150 METAR EGKK 232150Z 32005KT 270V350 9999 FEW029 07/02 Q1021=
202404232220 METAR EGKK 232220Z 33005KT CAVOK 07/02 Q1021=
202404232250 METAR EGKK 232250Z 31004KT 270V330 CAVOK 07/02 Q1020=
202404232320 METAR EGKK 232320Z 33003KT 9999 FEW027 06/02 Q1020=
202404232350 METAR EGKK 232350Z 33003KT 240V360 9999 FEW028 06/02 Q1020=
202404240020 METAR EGKK 240020Z 32004KT 9999 FEW028 05/02 Q1020=
202404240050 METAR EGKK 240050Z 30004KT 9999 FEW027 05/02 Q1020=
202404240120 METAR EGKK 240120Z 31003KT 280V350 CAVOK 05/02 Q1019=
202404240150 METAR EGKK 240150Z 30004KT CAVOK 05/02 Q1019=
202404240220 METAR EGKK 240220Z 29004KT 9999 FEW044 05/02 Q1019=
202404240250 METAR EGKK 240250Z 31005KT 9999 BKN042 06/02 Q1019=
202404240320 METAR EGKK 240320Z 32005KT 9999 BKN041 06/02 Q1018=
202404240350 METAR EGKK 240350Z 31004KT 9999 BKN040 06/02 Q1018=
202404240420 METAR EGKK 240420Z 33006KT 290V350 9999 BKN039 06/02 Q1018=
202404240450 METAR EGKK 240450Z 33006KT 9999 BKN039 06/02 Q1018=
202404240520 METAR EGKK 240520Z 34006KT 300V010 9999 BKN039 06/01 Q1018=
202404240550 METAR EGKK 240550Z 31006KT 9999 FEW021 BKN038 06/01 Q1018=
202404240620 METAR EGKK 240620Z 32009KT 9999 -RA BKN038 06/01 Q1018=
202404240650 METAR EGKK 240650Z 32008KT 280V350 9999 BKN039 06/00 Q1018=
202404240720 METAR EGKK 240720Z 31008KT 9999 BKN041 06/01 Q1017=
202404240750 METAR EGKK 240750Z 31008KT 9999 BKN041 06/01 Q1017=
202404240820 METAR EGKK 240820Z 31008KT 9999 BKN042 07/02 Q1017=
202404240850 METAR EGKK 240850Z 32009KT 270V350 9999 SCT031 08/01 Q1017=
202404240920 METAR EGKK 240920Z 33010KT 290V360 9999 SCT031 09/M00 Q1017=
202404240950 METAR EGKK 240950Z 35009G19KT 9999 BKN039 09/M01 Q1017=
202404241020 METAR EGKK 241020Z 35011KT 290V020 9999 BKN039 09/M01 Q1017=
202404241050 METAR EGKK 241050Z 33012KT 290V010 9999 SCT043 09/M01 Q1016=
202404241120 METAR EGKK 241120Z 32011KT 9999 SCT047 09/M02 Q1016=
202404241150 METAR EGKK 241150Z 33012KT 300V360 9999 SCT048 10/M02 Q1016=
202404241220 METAR EGKK 241220Z 33011KT 9999 BKN049 10/M02 Q1016=
202404241250 METAR EGKK 241250Z 33011KT 9999 BKN049 09/M02 Q1015=
202404241320 METAR EGKK 241320Z 34010KT 300V020 CAVOK 10/M02 Q1015=
202404241350 METAR EGKK 241350Z 36009KT 320V030 CAVOK 10/M02 Q1015=
202404241420 METAR EGKK 241420Z 33010KT 300V020 CAVOK 09/M03 Q1015=
202404241450 METAR EGKK 241450Z 35010KT 290V030 CAVOK 10/M02 Q1015=
202404241520 METAR EGKK 241520Z 34008KT 300V040 CAVOK 09/M02 Q1015=
202404241550 METAR EGKK 241550Z 33010KT 9999 BKN049 09/M02 Q1014=
202404241620 METAR EGKK 241620Z 34010KT 310V010 CAVOK 09/M02 Q1014=
202404241650 METAR EGKK 241650Z 33010KT CAVOK 09/M02 Q1014=
202404241720 METAR EGKK 241720Z 33008KT 290V010 CAVOK 09/M03 Q1014=
202404241750 METAR EGKK 241750Z 34008KT 300V010 CAVOK 09/M03 Q1014=
202404241820 METAR EGKK 241820Z 34009KT CAVOK 09/M02 Q1014=
202404241850 METAR EGKK 241850Z 33007KT CAVOK 08/M02 Q1014=
202404241920 METAR EGKK 241920Z 32005KT 290V020 CAVOK 08/M02 Q1014=
202404241950 METAR EGKK 241950Z 31005KT CAVOK 07/M02 Q1014=
202404242020 METAR EGKK 242020Z 31004KT CAVOK 07/M02 Q1014=
202404242050 METAR EGKK 242050Z VRB02KT CAVOK 05/M01 Q1014=
202404242120 METAR EGKK 242120Z VRB01KT CAVOK 04/M00 Q1013=
202404242150 METAR EGKK 242150Z 17001KT CAVOK 03/M01 Q1013=
202404242220 METAR EGKK 242220Z VRB01KT CAVOK 03/M01 Q1013=
202404242250 METAR EGKK 242250Z 21001KT CAVOK 03/M00 Q1013=
202404242320 METAR EGKK 242320Z 25001KT CAVOK 02/M01 Q1012=
202404242350 METAR EGKK 242350Z 19001KT CAVOK 02/M00 Q1012=
202404250020 METAR EGKK 250020Z VRB01KT CAVOK 01/M01 Q1011=
202404250050 METAR EGKK 250050Z VRB01KT CAVOK 02/M00 Q1011=
202404250120 METAR EGKK 250120Z 29001KT CAVOK 02/M00 Q1011=
202404250150 METAR EGKK 250150Z 21001KT CAVOK 03/00 Q1010=
202404250220 METAR EGKK 250220Z VRB02KT CAVOK 02/00 Q1010=
202404250250 METAR EGKK 250250Z VRB01KT CAVOK 02/M00 Q1010=
202404250320 METAR EGKK 250320Z VRB01KT CAVOK 02/01 Q1009=
202404250350 METAR EGKK 250350Z 10002KT CAVOK 02/00 Q1009=
202404250420 METAR EGKK 250420Z 12001KT CAVOK 02/00 Q1008=
202404250450 METAR EGKK 250450Z 00000KT 9999 FEW049 02/01 Q1008=
202404250520 METAR EGKK 250520Z VRB01KT CAVOK 03/01 Q1007=
202404250550 METAR EGKK 250550Z 16002KT 9999 SCT030 SCT042 03/01 Q1007=
202404250620 METAR EGKK 250620Z 17003KT 130V210 9999 SCT029 06/01 Q1007=
202404250650 METAR EGKK 250650Z 18005KT 9999 SCT026 07/01 Q1006=
202404250720 METAR EGKK 250720Z 19003KT 140V240 9999 SCT016 BKN025 07/03 Q1006=
202404250750 METAR EGKK 250750Z 22006KT 9999 FEW028 SCT032 08/04 Q1005=
202404250820 METAR EGKK 250820Z 24006KT 9999 FEW027 08/05 Q1005=
202404250850 METAR EGKK 250850Z 26007KT 220V290 CAVOK 09/04 Q1005=
202404250920 METAR EGKK 250920Z 27007KT 240V300 9999 FEW026 10/04 Q1004=
202404250950 METAR EGKK 250950Z 28007KT 240V340 9999 SCT031 11/04 Q1004=
202404251020 METAR EGKK 251020Z 30008KT 260V350 9999 FEW039 11/02 Q1004=
202404251050 METAR EGKK 251050Z 30011KT 9999 FEW038 12/01 Q1004=
202404251120 METAR EGKK 251120Z 30012KT 9999 FEW044 11/01 Q1004=
202404251150 METAR EGKK 251150Z 27013KT 240V310 9999 FEW046 12/01 Q1003=
202404251220 METAR EGKK 251220Z 25012KT CAVOK 12/02 Q1003=
202404251250 METAR EGKK 251250Z 24010KT 9999 BKN043 11/02 Q1003=
202404251320 METAR EGKK 251320Z 24008KT 210V290 9999 FEW044 12/02 Q1003=
202404251350 METAR EGKK 251350Z 26009KT 240V300 9999 SCT045 12/02 Q1002=
202404251420 METAR EGKK 251420Z 24011KT 9999 BKN041 11/02 Q1002=
202404251450 METAR EGKK 251450Z 24011KT 9999 BKN038 10/04 Q1002=
202404251520 METAR EGKK 251520Z 24011KT 9000 -RA SCT013 BKN030 09/06 Q1002=
202404251550 METAR EGKK 251550Z 23007KT 9999 -RA BKN046 09/06 Q1002=
202404251620 METAR EGKK 251620Z 22008KT 9999 -RA SCT048 09/06 Q1002=
202404251650 METAR EGKK 251650Z 22008KT 9999 -RA SCT042 09/07 Q1002=
202404251720 METAR EGKK 251720Z 22006KT 190V260 9999 VCSH BKN035 09/07 Q1001=
202404251750 METAR EGKK 251750Z 29007KT 240V340 9999 -SHRA FEW011 BKN031 09/07 Q1001=
202404251820 METAR EGKK 251820Z 30005KT 270V340 5000 -SHRA FEW016 BKN020 08/06 Q1002=
202404251850 METAR EGKK 251850Z 25003KT 220V310 7000 -RA FEW017 SCT025 07/06 Q1002=
202404251920 METAR EGKK 251920Z VRB01KT 9999 -RA BKN043 07/07 Q1002=
202404251950 METAR EGKK 251950Z 20002KT 9999 FEW008 SCT040 07/07 Q1001=
202404252020 METAR EGKK 252020Z VRB02KT CAVOK 07/06 Q1002=
202404252050 METAR EGKK 252050Z 31004KT CAVOK 08/06 Q1002=
202404252120 METAR EGKK 252120Z 30003KT 260V340 CAVOK 07/06 Q1002=
202404252150 METAR EGKK 252150Z 35004KT 270V020 CAVOK 07/06 Q1002=
202404252220 METAR EGKK 252220Z VRB02KT CAVOK 07/06 Q1002=
202404252250 METAR EGKK 252250Z VRB02KT CAVOK 07/06 Q1002=
202404252320 METAR EGKK 252320Z 26003KT 9999 SCT008 SCT014 07/06 Q1002=
202404252350 METAR EGKK 252350Z 35003KT 310V070 9999 SCT006 SCT015 07/06 Q1002=
202404260020 METAR EGKK 260020Z 05004KT 9999 BKN010 06/06 Q1002=
202404260050 METAR EGKK 260050Z 04004KT 010V080 CAVOK 06/05 Q1002=
202404260120 METAR EGKK 260120Z 07003KT 9000 FEW012 05/05 Q1002=
202404260150 METAR EGKK 260150Z 02003KT 9000 SCT010 06/06 Q1002=
202404260220 METAR EGKK 260220Z 04004KT 9000 FEW010 06/05 Q1002=
202404260250 METAR EGKK 260250Z 03005KT 9000 NSC 06/05 Q1002=
202404260320 METAR EGKK 260320Z 04004KT 010V070 9000 NSC 06/05 Q1002=
202404260350 METAR EGKK 260350Z 06005KT 9000 NSC 05/04 Q1002=
202404260420 METAR EGKK 260420Z 06003KT 8000 NSC 05/04 Q1002=
202404260450 METAR EGKK 260450Z 07005KT 8000 NSC 05/04 Q1002=
202404260520 METAR EGKK 260520Z 08004KT CAVOK 04/04 Q1002=
202404260550 METAR EGKK 260550Z 06004KT 010V100 CAVOK 05/04 Q1003=
202404260620 METAR EGKK 260620Z 07004KT 9000 NSC 05/05 Q1003=
202404260650 METAR EGKK 260650Z 07005KT 9000 FEW008 06/05 Q1003=
202404260720 METAR EGKK 260720Z 06006KT CAVOK 06/04 Q1003=
202404260750 METAR EGKK 260750Z 07005KT 040V100 9999 FEW020 07/05 Q1003=
202404260820 METAR EGKK 260820Z 07006KT 030V100 9999 FEW020 07/04 Q1003=
202404260850 METAR EGKK 260850Z 06007KT 9999 FEW016 SCT049 08/05 Q1004=
202404260920 METAR EGKK 260920Z 05008KT 360V080 CAVOK 08/04 Q1004=
202404260950 METAR EGKK 260950Z 06006KT 030V100 9999 FEW020 09/05 Q1004=
202404261020 METAR EGKK 261020Z 05006KT 020V110 9999 SCT020 09/04 Q1004=
202404261050 METAR EGKK 261050Z 05007KT 9999 SCT025 10/03 Q1004=
202404261120 METAR EGKK 261120Z 07007KT 020V100 9999 FEW035 10/02 Q1004=
202404261150 METAR EGKK 261150Z 03006KT 340V060 9999 SCT033 10/03 Q1004=
202404261220 METAR EGKK 261220Z 06007KT 030V110 9999 SCT034 10/03 Q1004=
202404261250 METAR EGKK 261250Z 08006KT 060V150 9999 SCT048 10/03 Q1004=
202404261320 METAR EGKK 261320Z 08007KT 030V140 9999 BKN046 11/03 Q1004=
202404261350 METAR EGKK 261350Z 11006KT 070V150 9999 BKN038 11/03 Q1004=
202404261420 METAR EGKK 261420Z 11007KT 080V140 9999 FEW032 BKN041 11/03 Q1004=
202404261450 METAR EGKK 261450Z 11007KT 9999 BKN042 11/03 Q1003=
202404261520 METAR EGKK 261520Z 10007KT 070V140 9999 BKN046 10/04 Q1003=
202404261550 METAR EGKK 261550Z 10007KT 9999 SCT046 11/04 Q1003=
202404261620 METAR EGKK 261620Z 10008KT 060V140 9999 FEW030 BKN047 10/04 Q1003=
202404261650 METAR EGKK 261650Z 12007KT 080V140 9999 FEW031 SCT046 10/04 Q1003=
202404261720 METAR EGKK 261720Z 09007KT 9999 FEW028 SCT046 10/04 Q1003=
202404261750 METAR EGKK 261750Z 09007KT 9999 BKN047 10/04 Q1003=
202404261820 METAR EGKK 261820Z 10009KT 9999 BKN047 10/04 Q1003=
202404261850 METAR EGKK 261850Z 09007KT 9999 BKN046 09/04 Q1003=
202404261920 METAR EGKK 261920Z 09006KT 9999 BKN049 09/04 Q1003=
202404261950 METAR EGKK 261950Z 09007KT 9999 BKN046 09/04 Q1003=
202404262020 METAR EGKK 262020Z 09006KT 9999 BKN047 09/04 Q1003=
202404262050 METAR EGKK 262050Z 09006KT 9999 BKN042 08/04 Q1003=
202404262120 METAR EGKK 262120Z 07006KT 9999 SCT041 08/03 Q1003=
202404262150 METAR EGKK 262150Z 08006KT 9999 -RA FEW041 SCT048 08/03 Q1003=
202404262220 METAR EGKK 262220Z 06006KT 9999 -RA SCT040 08/03 Q1003=
202404262250 METAR EGKK 262250Z 07006KT 9999 -RA FEW018 BKN037 07/04 Q1003=
202404262320 METAR EGKK 262320Z 07006KT 9999 -RA SCT017 BKN037 07/05 Q1003=
202404262350 METAR EGKK 262350Z 07005KT 9000 -RA SCT015 BKN020 07/05 Q1003=
202404270020 METAR EGKK 270020Z 05008KT 9999 -RA BKN014 07/06 Q1003=
202404270050 METAR EGKK 270050Z 05009KT 9999 -RA BKN013 07/06 Q1002=
202404270120 METAR EGKK 270120Z 05008KT 8000 -RA BKN011 07/06 Q1002=
202404270150 METAR EGKK 270150Z 06007KT 8000 -RA FEW007 BKN009 07/06 Q1002=
202404270220 METAR EGKK 270220Z 06008KT 6000 -RA BKN007 07/06 Q1002=
202404270250 METAR EGKK 270250Z 06009KT 9999 -RA SCT007 SCT013 07/06 Q1002=
202404270320 METAR EGKK 270320Z 06010KT 9999 -RA FEW012 BKN033 06/06 Q1002=
202404270350 METAR EGKK 270350Z 06009KT 9999 -RA BKN008 BKN032 06/06 Q1002=
202404270420 METAR EGKK 270420Z 06011KT 9999 -RA FEW008 BKN031 06/05 Q1002=
202404270450 METAR EGKK 270450Z 07009KT 9999 VCSH FEW008 BKN030 06/05 Q1002=
202404270520 METAR EGKK 270520Z 06008KT 9999 SCT006 BKN031 06/06 Q1002=
202404270550 METAR EGKK 270550Z 06008KT 9999 SCT007 BKN022 06/06 Q1002=
202404270620 METAR EGKK 270620Z 05008KT 9999 BKN007 07/06 Q1002=
202404270650 METAR EGKK 270650Z 06009KT 9999 BKN007 07/06 Q1002=
202404270720 METAR EGKK 270720Z 06008KT 9999 BKN007 07/06 Q1002=
202404270750 METAR EGKK 270750Z 07009KT 9999 BKN008 08/07 Q1003=
202404270820 METAR EGKK 270820Z 06009KT 9999 BKN008 08/07 Q1003=
202404270850 METAR EGKK 270850Z 06010KT 9999 BKN009 08/07 Q1003=
202404270920 METAR EGKK 270920Z 07009KT 9999 BKN009 09/07 Q1003=
202404270950 METAR EGKK 270950Z 08008KT 9999 BKN010 09/08 Q1003=
202404271020 METAR EGKK 271020Z 07007KT 9999 BKN012 10/08 Q1003=
202404271050 METAR EGKK 271050Z 05007KT 010V110 9999 BKN013 10/08 Q1003=
202404271120 METAR EGKK 271120Z 06006KT 020V090 9999 SCT013 BKN023 11/08 Q1003=
202404271150 METAR EGKK 271150Z 05007KT 9999 SCT014 BKN030 11/08 Q1003=
202404271220 METAR EGKK 271220Z 06008KT 020V090 9999 SCT014 12/08 Q1002=
202404271250 METAR EGKK 271250Z 04007KT 360V080 9999 BKN018 12/08 Q1002=
202404271320 METAR EGKK 271320Z 05009KT 9999 SCT018 BKN029 12/08 Q1002=
202404271350 METAR EGKK 271350Z 04009KT 010V090 9999 SCT018 BKN025 12/08 Q1002=
202404271420 METAR EGKK 271420Z 05010KT 9999 SCT018 BKN023 12/08 Q1002=
202404271450 METAR EGKK 271450Z 04009KT 9999 SCT017 BKN020 12/08 Q1002=
202404271520 METAR EGKK 271520Z 06011KT 9999 -RA SCT017 BKN030 11/08 Q1002=
202404271550 METAR EGKK 271550Z 04009KT 9000 -RA BKN014 10/09 Q1002=
202404271620 METAR EGKK 271620Z 05008KT 8000 -RA BKN018 10/09 Q1002=
202404271650 METAR EGKK 271650Z 05009KT 7000 -RA FEW009 BKN015 10/09 Q1001=
202404271720 METAR EGKK 271720Z 08007KT 7000 -RA BKN007 09/09 Q1001=
202404271750 METAR EGKK 271750Z 06006KT 8000 -RA BKN006 09/09 Q1001=
202404271820 METAR EGKK 271820Z 04010KT 8000 -RA BKN008 09/09 Q1001=
202404271850 METAR EGKK 271850Z 04009KT 7000 -RA BKN010 09/08 Q1001=
202404271920 METAR EGKK 271920Z 03009KT 7000 -RA BKN008 09/08 Q1001=
202404271950 METAR EGKK 271950Z 04007KT 8000 -RA BKN008 09/08 Q1001=
202404272020 METAR EGKK 272020Z 04010KT 7000 -RA BKN009 09/08 Q1000=
202404272050 METAR EGKK 272050Z 04010KT 9999 -RA BKN007 09/08 Q1000=
202404272120 METAR EGKK 272120Z 05010KT 5000 RA BKN006 09/08 Q1000=
202404272150 METAR EGKK 272150Z 06008KT 6000 -RA BKN006 09/08 Q1000 RERA=
202404272220 METAR EGKK 272220Z 04009KT 9999 -RA BKN006 09/08 Q0999=
202404272250 METAR EGKK 272250Z 07006KT 9999 -RA BKN007 09/08 Q0999=
202404272320 METAR EGKK 272320Z 06007KT 9999 -RA BKN007 09/08 Q0999=
202404272350 METAR EGKK 272350Z 04007KT 9999 BKN007 09/08 Q0998=
202404280020 METAR EGKK 280020Z 04008KT 020V110 8000 -RA BKN006 09/08 Q0998=
202404280050 METAR EGKK 280050Z 02003KT 8000 -RA BKN005 09/09 Q0997=
202404280120 METAR EGKK 280120Z 03005KT 5000 RA BKN005 09/08 Q0997=
202404280150 METAR EGKK 280150Z 03004KT 5000 RA BKN005 09/08 Q0997=
202404280220 METAR EGKK 280220Z 02004KT 9999 -RA BKN006 09/08 Q0997 RERA=
202404280250 METAR EGKK 280250Z 01003KT 340V040 5000 RA BKN006 09/08 Q0996=
202404280320 METAR EGKK 280320Z VRB02KT 6000 -RA BKN005 08/08 Q0996 RERA=
202404280350 METAR EGKK 280350Z 34003KT 3000 RA BKN005 08/08 Q0996=
202404280420 METAR EGKK 280420Z 29003KT 200V320 5000 -RA BKN006 08/08 Q0997 RERA=
202404280450 METAR EGKK 280450Z 31003KT 280V350 9999 -RA SCT006 BKN010 08/08 Q0996=
202404280520 METAR EGKK 280520Z 29006KT 260V320 9000 -RA FEW003 BKN007 08/08 Q0996 RERA=
202404280550 METAR EGKK 280550Z 28006KT 250V320 9999 -RA FEW004 BKN008 08/08 Q0997=
202404280620 METAR EGKK 280620Z 31009KT 6000 -RA SCT006 BKN013 08/08 Q0997=
202404280650 METAR EGKK 280650Z 30008KT 9999 -RA SCT007 BKN013 08/08 Q0998=
202404280720 METAR EGKK 280720Z 31010KT 9999 -RA SCT006 BKN014 08/07 Q0998=
202404280750 METAR EGKK 280750Z 31012KT 8000 -RA BKN007 08/07 Q0999=
202404280820 METAR EGKK 280820Z 31012KT 5000 -RA BKN007 07/06 Q1000=
202404280850 METAR EGKK 280850Z 31014KT 9999 BKN011 07/06 Q1001=
202404280920 METAR EGKK 280920Z 30014KT 9999 BKN010 07/06 Q1002=
202404280950 METAR EGKK 280950Z 30016KT 9999 BKN013 07/05 Q1003=
202404281020 METAR EGKK 281020Z 28012KT 9999 BKN014 07/05 Q1004=
202404281050 METAR EGKK 281050Z 28012KT 9999 -RA BKN015 07/05 Q1005=
202404281120 METAR EGKK 281120Z 28012KT 9999 BKN013 07/05 Q1005=
202404281150 METAR EGKK 281150Z 27011KT 9999 BKN014 08/06 Q1006=
202404281220 METAR EGKK 281220Z 27013KT 9999 BKN019 09/06 Q1007=
202404281250 METAR EGKK 281250Z 28012KT 9999 BKN017 09/05 Q1007=
202404281320 METAR EGKK 281320Z 27011KT 9999 BKN020 09/05 Q1008=
202404281350 METAR EGKK 281350Z 26011KT 9999 SCT022 SCT025 10/06 Q1008=
202404281420 METAR EGKK 281420Z 26011KT 9999 SCT027 11/04 Q1009=
202404281450 METAR EGKK 281450Z 23007KT 200V270 9999 FEW031 SCT040 11/05 Q1009=
202404281520 METAR EGKK 281520Z 23008KT 200V260 9999 FEW031 SCT045 11/05 Q1009=
202404281550 METAR EGKK 281550Z 23008KT 190V260 9999 SCT031 12/05 Q1009=
202404281620 METAR EGKK 281620Z 22008KT 190V250 9999 FEW038 SCT046 12/04 Q1010=
202404281650 METAR EGKK 281650Z 20006KT 170V230 9999 FEW033 SCT040 12/05 Q1010=
202404281720 METAR EGKK 281720Z 21007KT 9999 SCT030 11/06 Q1010=
202404281750 METAR EGKK 281750Z 23010KT 190V250 9999 FEW030 11/05 Q1011=
202404281820 METAR EGKK 281820Z 25009KT 9999 FEW032 10/05 Q1011=
202404281850 METAR EGKK 281850Z 23005KT 9999 FEW030 10/04 Q1011=
202404281920 METAR EGKK 281920Z 20003KT CAVOK 09/05 Q1012=
202404281950 METAR EGKK 281950Z 21007KT CAVOK 09/06 Q1012=
202404282020 METAR EGKK 282020Z 20006KT CAVOK 09/06 Q1013=
202404282050 METAR EGKK 282050Z 20005KT CAVOK 08/06 Q1013=
202404282120 METAR EGKK 282120Z 20005KT CAVOK 08/06 Q1013=
202404282150 METAR EGKK 282150Z 21004KT 180V240 CAVOK 08/06 Q1014=
202404282220 METAR EGKK 282220Z 18003KT 150V220 CAVOK 07/06 Q1014=
202404282250 METAR EGKK 282250Z 19002KT CAVOK 07/06 Q1014=
202404282320 METAR EGKK 282320Z 20004KT CAVOK 07/05 Q1014=
202404282350 METAR EGKK 282350Z 19004KT CAVOK 07/05 Q1014=
202404290020 METAR EGKK 290020Z 19004KT CAVOK 07/06 Q1014=
202404290050 METAR EGKK 290050Z 16003KT 130V200 CAVOK 07/05 Q1014=
202404290120 METAR EGKK 290120Z 17003KT 9999 FEW016 07/06 Q1014=
202404290150 METAR EGKK 290150Z 16004KT 9999 FEW017 07/06 Q1014=
202404290220 METAR EGKK 290220Z 15003KT 9999 FEW021 07/06 Q1015=
202404290250 METAR EGKK 290250Z 17003KT 9999 FEW022 06/06 Q1015=
202404290320 METAR EGKK 290320Z VRB01KT CAVOK 06/05 Q1015=
202404290350 METAR EGKK 290350Z 17003KT 9999 MIFG FEW015 06/05 Q1014=
202404290420 METAR EGKK 290420Z 18003KT 9999 VCFG FEW016 06/05 Q1015=
202404290450 METAR EGKK 290450Z 15004KT 9999 FEW022 07/06 Q1015=
202404290520 METAR EGKK 290520Z 16003KT 120V200 CAVOK 07/06 Q1015=
202404290550 METAR EGKK 290550Z 17004KT CAVOK 08/06 Q1015=
202404290620 METAR EGKK 290620Z 17005KT 140V200 9999 FEW021 09/07 Q1015=
202404290650 METAR EGKK 290650Z 17005KT 140V200 CAVOK 10/08 Q1016=
202404290720 METAR EGKK 290720Z 18007KT 140V210 9999 FEW015 11/08 Q1016=
202404290750 METAR EGKK 290750Z 18009KT 140V230 9999 SCT018 11/07 Q1016=
202404290820 METAR EGKK 290820Z 18010KT 9999 SCT018 12/06 Q1016=
202404290850 METAR EGKK 290850Z 18010KT 140V220 9999 SCT025 13/06 Q1016=
202404290920 METAR EGKK 290920Z 19011KT 150V220 9999 SCT025 13/06 Q1016=
202404290950 METAR EGKK 290950Z 19012KT 9999 FEW024 SCT033 13/06 Q1016=
202404291020 METAR EGKK 291020Z 19010KT 150V220 9999 SCT027 13/06 Q1016=
202404291050 METAR EGKK 291050Z 18012KT 140V220 9999 SCT030 14/05 Q1016=
202404291120 METAR EGKK 291120Z 19011KT 150V210 9999 FEW032 14/06 Q1016=
202404291150 METAR EGKK 291150Z 20012KT 160V230 9999 FEW032 14/06 Q1016=
202404291220 METAR EGKK 291220Z 21013KT 170V240 9999 SCT029 14/06 Q1016=
202404291250 METAR EGKK 291250Z 20012KT 160V240 9999 SCT028 15/06 Q1016=
202404291320 METAR EGKK 291320Z 20012KT 170V240 9999 SCT028 14/07 Q1015=
202404291350 METAR EGKK 291350Z 21011KT 9999 FEW031 15/06 Q1015=
202404291420 METAR EGKK 291420Z 21013KT 170V230 9999 FEW036 14/04 Q1015=
202404291450 METAR EGKK 291450Z 19012KT 160V230 9999 FEW040 15/04 Q1015=
202404291520 METAR EGKK 291520Z 19011KT 160V220 9999 FEW040 15/05 Q1015=
202404291550 METAR EGKK 291550Z 20011G21KT 160V220 9999 FEW035 14/05 Q1015=
202404291620 METAR EGKK 291620Z 21015KT 160V230 9999 FEW036 14/04 Q1015=
202404291650 METAR EGKK 291650Z 20010KT 150V230 9999 FEW040 14/05 Q1015=
202404291720 METAR EGKK 291720Z 18009KT 140V210 9999 FEW038 14/05 Q1015=
202404291750 METAR EGKK 291750Z 19010KT 9999 FEW040 14/04 Q1015=
202404291820 METAR EGKK 291820Z 18007KT 140V210 9999 FEW040 13/04 Q1015=
202404291850 METAR EGKK 291850Z 17006KT 130V210 CAVOK 13/04 Q1015=
202404291920 METAR EGKK 291920Z 17003KT 140V210 CAVOK 12/04 Q1015=
202404291950 METAR EGKK 291950Z 16003KT 130V200 CAVOK 11/04 Q1015=
202404292020 METAR EGKK 292020Z 14003KT 110V180 CAVOK 11/04 Q1015=
202404292050 METAR EGKK 292050Z 12004KT CAVOK 10/04 Q1015=
202404292120 METAR EGKK 292120Z 14004KT CAVOK 10/04 Q1015=
202404292150 METAR EGKK 292150Z 14004KT CAVOK 10/04 Q1015=
202404292220 METAR EGKK 292220Z 15005KT CAVOK 10/05 Q1015=
202404292250 METAR EGKK 292250Z 15006KT CAVOK 10/06 Q1015=
202404292320 METAR EGKK 292320Z 14006KT CAVOK 10/07 Q1015=
202404292350 METAR EGKK 292350Z 15006KT CAVOK 10/07 Q1015=
202404300020 METAR EGKK 300020Z 14006KT CAVOK 10/07 Q1014=
202404300050 METAR EGKK 300050Z 15004KT CAVOK 09/07 Q1014=
202404300120 METAR EGKK 300120Z 14003KT CAVOK 09/07 Q1014=
202404300150 METAR EGKK 300150Z 13005KT CAVOK 09/07 Q1014=
202404300220 METAR EGKK 300220Z 07004KT CAVOK 06/04 Q1014=
202404300250 METAR EGKK 300250Z 08004KT CAVOK 05/04 Q1013=
202404300320 METAR EGKK 300320Z 07004KT 9999 SCT049 05/04 Q1013=
202404300350 METAR EGKK 300350Z 07004KT 9999 FEW048 04/04 Q1013=
202404300420 METAR EGKK 300420Z 08003KT 9999 FEW047 04/04 Q1013=
202404300450 METAR EGKK 300450Z 10004KT 9999 FEW047 04/04 Q1013=
202404300520 METAR EGKK 300520Z VRB01KT 9999 VCFG NSC 05/04 Q1012=
202404300550 METAR EGKK 300550Z 10002KT 9999 VCFG NSC 07/06 Q1013=
202404300620 METAR EGKK 300620Z 09002KT 9999 VCFG NSC 08/07 Q1013=
202404300650 METAR EGKK 300650Z 15005KT 120V180 CAVOK 11/08 Q1012=
202404300720 METAR EGKK 300720Z 15007KT CAVOK 12/07 Q1012=
202404300750 METAR EGKK 300750Z 16008KT 120V200 CAVOK 13/07 Q1012=
202404300820 METAR EGKK 300820Z 18008KT 130V210 9999 FEW028 14/07 Q1012=
202404300850 METAR EGKK 300850Z 14008KT 100V180 9999 FEW024 14/08 Q1012=
202404300920 METAR EGKK 300920Z 15008KT 110V190 9999 FEW032 15/07 Q1012=
202404300950 METAR EGKK 300950Z 16010KT 110V200 9999 FEW035 16/07 Q1012=
202404301020 METAR EGKK 301020Z 16007KT 120V200 9999 FEW034 16/08 Q1012=
202404301050 METAR EGKK 301050Z 16011KT 130V210 9999 FEW035 16/07 Q1011=
202404301120 METAR EGKK 301120Z 16011KT 130V210 9999 FEW039 17/07 Q1011=
202404301150 METAR EGKK 301150Z 16012KT 130V210 9999 FEW041 17/07 Q1011=
202404301220 METAR EGKK 301220Z 16011KT 130V200 9999 FEW039 18/07 Q1011=
202404301250 METAR EGKK 301250Z 15010KT 120V190 9999 FEW039 17/07 Q1010=
202404301320 METAR EGKK 301320Z 14010KT 9999 FEW036 17/08 Q1010=
202404301350 METAR EGKK 301350Z 15009KT 090V180 9999 SCT035 17/09 Q1010=
202404301420 METAR EGKK 301420Z 13009KT 100V170 9999 FEW033 17/09 Q1009=
202404301450 METAR EGKK 301450Z 15009KT 120V200 9999 FEW040 17/08 Q1009=
202404301520 METAR EGKK 301520Z 14009KT 110V190 9999 FEW036 17/08 Q1009=
202404301550 METAR EGKK 301550Z 13010KT 100V170 9999 FEW040 17/09 Q1009=
202404301620 METAR EGKK 301620Z 13010KT 080V170 9999 FEW032 16/09 Q1009=
202404301650 METAR EGKK 301650Z 13009KT 100V160 9999 FEW030 17/09 Q1009=
202404301720 METAR EGKK 301720Z 13012KT 9999 FEW030 16/10 Q1009=
202404301750 METAR EGKK 301750Z 14007G17KT 090V170 9999 FEW020 15/10 Q1009=
202404301820 METAR EGKK 301820Z 13010KT 100V170 9999 FEW020 15/10 Q1009=
202404301850 METAR EGKK 301850Z 13009KT 9999 FEW020 14/11 Q1009=
202404301920 METAR EGKK 301920Z 13005KT 090V170 9999 FEW018 13/11 Q1009=
202404301950 METAR EGKK 301950Z 12005KT CAVOK 13/11 Q1009=
202404302020 METAR EGKK 302020Z 10004KT CAVOK 12/10 Q1009=
202404302050 METAR EGKK 302050Z 12003KT CAVOK 12/11 Q1009=
202404302120 METAR EGKK 302120Z 08004KT CAVOK 10/09 Q1009=
202404302150 METAR EGKK 302150Z 08005KT CAVOK 10/09 Q1009=
202404302220 METAR EGKK 302220Z 08005KT CAVOK 09/09 Q1009=
202404302250 METAR EGKK 302250Z 07005KT 4500 1500E BR NSC 09/09 Q1009=
202404302320 METAR EGKK 302320Z 07005KT 0700 R08R/1400U FG BKN001 10/09 Q1009=
202404302350 METAR EGKK 302350Z 08005KT 0600 FG OVC001 10/10 Q1009=
202405010020 METAR EGKK 010020Z 08003KT 0400 R08R/P1500N FG OVC001 10/09 Q1009=
202405010050 METAR EGKK 010050Z 07004KT 0200 R08R/1200D FG VV/// 10/10 Q1009=
202405010120 METAR EGKK 010120Z 07004KT 0150 R08R/0550N FG VV/// 10/10 Q1008=
202405010150 METAR EGKK 010150Z 08003KT 0150 R08R/0450N FG VV/// 10/10 Q1008=
202405010220 METAR EGKK 010220Z 08003KT 0150 R08R/0500N FG VV/// 10/10 Q1009=
202405010250 METAR EGKK 010250Z 08005KT 0150 R08R/0600N FG VV/// 10/10 Q1008=
202405010320 METAR EGKK 010320Z NIL=
202405010350 METAR EGKK 010350Z 08005KT 0150 R08R/0450N FG VV/// 10/10 Q1008=
202405010420 METAR EGKK 010420Z 23003KT 0150 R08R/0550N FG VV/// 10/10 Q1008=
202405010450 METAR EGKK 010450Z VRB02KT 0200 R08R/0650N FG OVC002 10/10 Q1008=
202405010520 METAR EGKK 010520Z 09003KT 0300 R08R/1200N FG VV/// 10/10 Q1008=
202405010550 METAR EGKK 010550Z 07004KT 040V110 0300 R08R/0700N FG VV/// 10/10 Q1008=
202405010620 METAR EGKK 010620Z 07005KT 0900 R08R/1200N FG VV/// 11/11 Q1008=
202405010650 METAR EGKK 010650Z 12003KT 080V160 2000 BR BKN002 11/11 Q1009=
202405010720 METAR EGKK 010720Z 10003KT 030V140 2000 BR BKN002 11/11 Q1009=
202405010750 METAR EGKK 010750Z VRB01KT 4000 BR BKN003 11/11 Q1009=
202405010820 METAR EGKK 010820Z VRB01KT 4000 BR BKN003 12/12 Q1009=
202405010850 METAR EGKK 010850Z 34004KT 290V020 4500 BR BKN003 12/12 Q1009=
202405010920 METAR EGKK 010920Z 32003KT 270V010 7000 BKN008 13/12 Q1009=
202405010950 METAR EGKK 010950Z 32005KT 270V350 9000 BKN008 13/12 Q1008=
202405011020 METAR EGKK 011020Z 02004KT 330V070 9999 FEW007 SCT011 14/12 Q1008=
202405011050 METAR EGKK 011050Z 05004KT 310V100 9999 SCT011 15/12 Q1008=
202405011120 METAR EGKK 011120Z 33005KT 260V070 9999 BKN016 17/12 Q1007=
202405011150 METAR EGKK 011150Z VRB05KT 9999 FEW017 BKN021 16/12 Q1007=
202405011220 METAR EGKK 011220Z 29005KT 250V340 9999 SCT024 SCT036 16/12 Q1007=
202405011250 METAR EGKK 011250Z 29006KT 230V340 9999 FEW024 17/12 Q1007=
202405011320 METAR EGKK 011320Z 35006KT 240V030 9999 -SHRA FEW023 SCT030 16/13 Q1007=
202405011350 METAR EGKK 011350Z 32006G17KT 9999 VCSH SCT023 BKN030 16/13 Q1007=
202405011420 METAR EGKK 011420Z 31006KT 220V340 9999 -SHRA FEW023 SCT030 BKN042 16/13 Q1006=
202405011450 METAR EGKK 011450Z 30005KT 210V340 9999 VCSH SCT026 BKN033 16/13 Q1006=
202405011520 METAR EGKK 011520Z 28006KT 9999 VCSH BKN028 16/13 Q1006=
202405011550 METAR EGKK 011550Z VRB05KT 9999 VCSH SCT028 17/13 Q1006=
202405011620 METAR EGKK 011620Z 29005KT 160V330 9999 FEW028 SCT032 17/13 Q1006=
202405011650 METAR EGKK 011650Z 31007KT 280V340 9999 FEW034 SCT047 18/13 Q1005=
202405011720 METAR EGKK 011720Z 32006KT 9999 SCT046 18/13 Q1005=
202405011750 METAR EGKK 011750Z 31005KT 280V340 CAVOK 17/13 Q1005=
202405011820 METAR EGKK 011820Z 32007KT CAVOK 17/13 Q1005=
202405011850 METAR EGKK 011850Z 32005KT CAVOK 16/13 Q1005=
202405011920 METAR EGKK 011920Z 03004KT 340V070 CAVOK 17/13 Q1005=
202405011950 METAR EGKK 011950Z 02004KT 320V050 CAVOK 15/11 Q1005=
202405012020 METAR EGKK 012020Z 33005KT CAVOK 15/13 Q1005=
202405012050 METAR EGKK 012050Z 32005KT 9000 -SHRA FEW027 15/13 Q1004=
202405012120 METAR EGKK 012120Z 29005KT 270V330 9000 -SHRA FEW024 14/13 Q1004=
202405012150 METAR EGKK 012150Z 31004KT 9000 FEW025 14/13 Q1003=
202405012220 METAR EGKK 012220Z 31005KT 280V350 9000 FEW025 13/13 Q1003=
202405012250 METAR EGKK 012250Z 32007KT 9000 NSC 13/12 Q1002=
202405012320 METAR EGKK 012320Z 32006KT 9000 NSC 13/12 Q1001=
202405012350 METAR EGKK 012350Z 32004KT 9000 NSC 13/12 Q1001=
202405020020 METAR EGKK 020020Z 36006KT 320V020 CAVOK 14/12 Q1000=
202405020050 METAR EGKK 020050Z 36009KT 9999 FEW045CB 14/12 Q0999=
202405020120 METAR EGKK 020120Z 01010KT 9999 -TSRA FEW014 SCT046CB 13/12 Q0999 RETSRA=
202405020150 METAR EGKK 020150Z 35007KT 9999 FEW015 SCT060CB 13/12 Q0999 RETSRA=
202405020220 METAR EGKK 020220Z 14005KT 070V200 5000 RA BKN015CB 13/12 Q1001 RETSRA=
202405020250 METAR EGKK 020250Z 01003KT 320V040 6000 BKN015 13/12 Q1000 RERA=
202405020320 METAR EGKK 020320Z 35008KT 5000 BR FEW004 BKN012 12/12 Q0999=
202405020350 METAR EGKK 020350Z 36008KT 5000 BR BKN014 12/12 Q0999=
202405020420 METAR EGKK 020420Z 01009KT 5000 BR BKN016 12/11 Q0999=
202405020450 METAR EGKK 020450Z 01008KT 5000 BR BKN007 12/11 Q0999=
202405020520 METAR EGKK 020520Z 02005KT 5000 BR BKN007 12/11 Q0999=
202405020550 METAR EGKK 020550Z 04005KT 360V130 5000 BR BKN006 12/11 Q0999=
202405020620 METAR EGKK 020620Z VRB02KT 4500 BR BKN006 12/11 Q1000=
202405020650 METAR EGKK 020650Z VRB02KT 6000 BKN007 12/11 Q1000=
202405020720 METAR EGKK 020720Z 04003KT 6000 BKN006 12/11 Q1000=
202405020750 METAR EGKK 020750Z 03004KT 320V060 6000 BKN006 12/11 Q1000=
202405020820 METAR EGKK 020820Z VRB02KT 5000 BR BKN007 12/11 Q1000=
202405020850 METAR EGKK 020850Z VRB02KT 4800 BR BKN006 13/12 Q1000=
202405020920 METAR EGKK 020920Z 31005KT 210V350 3500 BR BKN004 12/12 Q1000=
202405020950 METAR EGKK 020950Z 33004KT 270V010 3500 BR BKN004 13/12 Q1001=
202405021020 METAR EGKK 021020Z 32003KT 270V360 4200 BR BKN005 13/12 Q1001=
202405021050 METAR EGKK 021050Z 28004KT 260V320 4500 BR BKN005 13/12 Q1001=
202405021120 METAR EGKK 021120Z 28004KT 240V310 3500 BR BKN004 13/12 Q1001=
202405021150 METAR EGKK 021150Z 28004KT 230V320 4800 HZ BKN005 14/13 Q1001=
202405021220 METAR EGKK 021220Z 24006KT 180V270 6000 BKN012 15/13 Q1001=
202405021250 METAR EGKK 021250Z 23006KT 9999 BKN013 15/13 Q1002=
202405021320 METAR EGKK 021320Z 25008KT 220V280 9999 SCT012 BKN030 16/13 Q1002=
202405021350 METAR EGKK 021350Z 24008KT 9999 SCT013 BKN029 16/13 Q1002=
202405021420 METAR EGKK 021420Z 25008KT 9999 SCT014 BKN031 16/13 Q1002=
202405021450 METAR EGKK 021450Z 25008KT 9999 SCT015 BKN032 16/13 Q1002=
202405021520 METAR EGKK 021520Z 23008KT 9999 FEW014 BKN028 16/13 Q1002=
202405021550 METAR EGKK 021550Z 24009KT 9999 FEW018 BKN024 15/12 Q1003=
202405021620 METAR EGKK 021620Z 25010KT 9999 FEW012 BKN016 14/12 Q1003=
202405021650 METAR EGKK 021650Z 26010KT 9999 SCT012 BKN019 14/12 Q1003=
202405021720 METAR EGKK 021720Z 26013KT 9999 FEW009 BKN013 13/12 Q1003=
202405021750 METAR EGKK 021750Z 26013KT 7000 -DZ FEW006 BKN010 12/12 Q1004=
202405021820 METAR EGKK 021820Z 25010KT 9999 SCT005 BKN012 12/12 Q1004=
202405021850 METAR EGKK 021850Z 25011KT 9999 FEW006 BKN011 12/11 Q1004=
202405021920 METAR EGKK 021920Z 25011KT 9999 BKN009 12/10 Q1005=
202405021950 METAR EGKK 021950Z 25009KT 9999 BKN008 11/10 Q1005=
202405022020 METAR EGKK 022020Z 25010KT 9999 FEW009 BKN011 11/10 Q1005=
202405022050 METAR EGKK 022050Z 25009KT 9999 BKN010 11/09 Q1006=
202405022120 METAR EGKK 022120Z 25009KT 9999 BKN011 11/09 Q1006=
202405022150 METAR EGKK 022150Z 25012KT 9999 BKN013 11/09 Q1006=
202405022220 METAR EGKK 022220Z 26012KT 9999 BKN014 10/08 Q1006=
202405022250 METAR EGKK 022250Z 25010KT 9999 BKN016 10/08 Q1006=
202405022320 METAR EGKK 022320Z 26011KT 9999 BKN017 10/08 Q1006=
202405022350 METAR EGKK 022350Z 26010KT 9999 BKN016 10/08 Q1006=
202405030020 METAR EGKK 030020Z 25009KT 9999 BKN017 10/08 Q1006=
202405030050 METAR EGKK 030050Z 25009KT 9999 BKN016 10/07 Q1006=
202405030120 METAR EGKK 030120Z 25009KT 190V270 9999 BKN016 10/07 Q1006=
202405030150 METAR EGKK 030150Z 25008KT 9999 BKN016 10/07 Q1006=
202405030220 METAR EGKK 030220Z 25010KT 9999 BKN017 10/07 Q1007=
202405030250 METAR EGKK 030250Z 24009KT 9999 BKN016 10/07 Q1007=
202405030320 METAR EGKK 030320Z 24008KT 9999 -RA BKN016 09/07 Q1007=
202405030350 METAR EGKK 030350Z 25010KT 9999 -RA BKN015 09/08 Q1007=
202405030420 METAR EGKK 030420Z 23006KT 9999 -RA BKN014 09/08 Q1007=
202405030450 METAR EGKK 030450Z 24007KT 9999 -RA BKN013 09/08 Q1007=
202405030520 METAR EGKK 030520Z 23007KT 9999 BKN014 09/08 Q1007=
202405030550 METAR EGKK 030550Z 24008KT 9999 BKN015 09/08 Q1007=
202405030620 METAR EGKK 030620Z 24008KT 9999 BKN015 09/08 Q1008=
202405030650 METAR EGKK 030650Z 24008KT 9999 -RA BKN015 09/08 Q1008=
202405030720 METAR EGKK 030720Z 24007KT 9999 -RA BKN016 09/08 Q1008=
202405030750 METAR EGKK 030750Z 24008KT 9999 -RA BKN017 09/08 Q1008=
202405030820 METAR EGKK 030820Z 23007KT 9999 -RA SCT014 10/09 Q1008=
202405030850 METAR EGKK 030850Z 24010KT 9999 SCT012 10/09 Q1009=
202405030920 METAR EGKK 030920Z 23008KT 9999 BKN016 10/08 Q1009=
202405030950 METAR EGKK 030950Z 24009KT 9999 SCT017 10/08 Q1009=
202405031020 METAR EGKK 031020Z 24009KT 210V270 9999 BKN017 11/08 Q1010=
202405031050 METAR EGKK 031050Z 25009KT 9999 FEW018 11/08 Q1010=
202405031120 METAR EGKK 031120Z 25009KT 9999 SCT023 12/08 Q1010=
202405031150 METAR EGKK 031150Z 25008KT 9999 FEW020 SCT031 12/08 Q1010=
202405031220 METAR EGKK 031220Z 26011KT 9999 SCT029 13/08 Q1010=
202405031250 METAR EGKK 031250Z 26008KT 9999 FEW034 13/08 Q1009=
202405031320 METAR EGKK 031320Z 26009KT 9999 SCT029 13/08 Q1009=
202405031350 METAR EGKK 031350Z 24009KT 9999 SCT031 13/07 Q1010=
202405031420 METAR EGKK 031420Z 23010KT 9999 FEW032 SCT040 14/07 Q1010=
202405031450 METAR EGKK 031450Z 24010KT 9999 SCT029 SCT035 14/07 Q1010=
202405031520 METAR EGKK 031520Z 24012KT 9999 SCT035 14/07 Q1010=
202405031550 METAR EGKK 031550Z 22007KT 180V260 9999 SCT033 14/08 Q1010=
202405031620 METAR EGKK 031620Z 22009KT 9999 SCT032 SCT046 14/08 Q1010=
202405031650 METAR EGKK 031650Z 22009KT 180V250 9999 FEW031 SCT046 14/08 Q1010=
202405031720 METAR EGKK 031720Z 21011KT 9999 SCT027 14/08 Q1010=
202405031750 METAR EGKK 031750Z 22010KT 180V240 9999 FEW026 14/08 Q1010=
202405031820 METAR EGKK 031820Z 21009KT 9999 FEW032 13/08 Q1011=
202405031850 METAR EGKK 031850Z 20008KT 170V230 9999 FEW016 12/08 Q1011=
202405031920 METAR EGKK 031920Z 21007KT 180V240 9999 FEW038 12/08 Q1011=
202405031950 METAR EGKK 031950Z 20006KT CAVOK 11/08 Q1011=
202405032020 METAR EGKK 032020Z 21006KT CAVOK 11/08 Q1011=
202405032050 METAR EGKK 032050Z 20005KT CAVOK 10/08 Q1012=
202405032120 METAR EGKK 032120Z 20006KT CAVOK 10/08 Q1012=
202405032150 METAR EGKK 032150Z 20006KT CAVOK 09/08 Q1012=
202405032220 METAR EGKK 032220Z 20005KT CAVOK 09/08 Q1012=
202405032250 METAR EGKK 032250Z 21006KT 9999 FEW012 09/08 Q1012=
202405032320 METAR EGKK 032320Z 21006KT 9999 FEW006 09/09 Q1012=
202405032350 METAR EGKK 032350Z 21005KT 9999 FEW006 09/08 Q1012=
202405040020 METAR EGKK 040020Z 21003KT 180V250 9000 NSC 09/08 Q1012=
202405040050 METAR EGKK 040050Z 20003KT 8000 NSC 08/08 Q1012=
202405040120 METAR EGKK 040120Z 20004KT 2500 BR SCT002 BKN009 09/08 Q1012=
202405040150 METAR EGKK 040150Z VRB02KT 8000 SCT010 09/09 Q1012=
202405040220 METAR EGKK 040220Z 24002KT 7000 FEW007 BKN010 08/08 Q1012=
202405040250 METAR EGKK 040250Z 22003KT 9999 BKN010 09/08 Q1012=
202405040320 METAR EGKK 040320Z 21001KT 9999 SCT011 09/08 Q1011=
202405040350 METAR EGKK 040350Z 15002KT 9999 FEW014 08/08 Q1011=
202405040420 METAR EGKK 040420Z 15002KT 2500 BCFG NSC 07/07 Q1011=
202405040450 METAR EGKK 040450Z 15003KT 0100 R26L/0550U FG VV/// 07/07 Q1012=
202405040520 METAR EGKK 040520Z 13004KT 7000 1500W BR FEW011 07/07 Q1012=
202405040550 METAR EGKK 040550Z 15002KT 6000 2000W PRFG FEW001 SCT009 08/08 Q1012=
202405040620 METAR EGKK 040620Z VRB01KT 6000 2500W VCFG FEW014 09/09 Q1012=
202405040650 METAR COR EGKK 040650Z VRB01KT 7000 VCFG FEW008 11/09 Q1012=
202405040720 METAR EGKK 040720Z 17004KT 130V210 9999 SCT010 11/09 Q1012=
202405040750 METAR EGKK 040750Z 13005KT 090V160 9999 SCT011 12/09 Q1012=
202405040820 METAR EGKK 040820Z 18003KT 120V240 9999 SCT017 13/08 Q1012=
202405040850 METAR EGKK 040850Z 19005KT 150V220 9999 SCT020 13/08 Q1012=
202405040920 METAR EGKK 040920Z 20003KT 150V250 9999 SCT021 14/08 Q1012=
202405040950 METAR EGKK 040950Z 15004KT 090V240 9999 SCT027 15/08 Q1011=
202405041020 METAR EGKK 041020Z 15005KT 100V220 9999 SCT032 15/07 Q1011=
202405041050 METAR EGKK 041050Z 07006KT 040V110 9999 SCT034 14/09 Q1011=
202405041120 METAR EGKK 041120Z 06007KT 350V080 9999 SCT037 14/09 Q1011=
202405041150 METAR EGKK 041150Z 07006KT 9999 SCT035 14/09 Q1011=
202405041220 METAR EGKK 041220Z 08005KT 9999 SCT035 14/09 Q1010=
202405041250 METAR EGKK 041250Z 14006KT 100V180 9999 SCT034 15/07 Q1010=
202405041320 METAR EGKK 041320Z 15003KT 100V200 9999 FEW028 15/07 Q1010=
202405041350 METAR EGKK 041350Z 05003KT 340V150 9999 FEW035 15/07 Q1010=
202405041420 METAR EGKK 041420Z VRB04KT 9999 FEW035 15/07 Q1010=
202405041450 METAR EGKK 041450Z 19003KT 160V230 9999 FEW035 15/07 Q1009=
202405041520 METAR EGKK 041520Z VRB02KT 9999 FEW042 15/07 Q1009=
202405041550 METAR EGKK 041550Z 21007KT 9999 VCSH FEW037 14/09 Q1009=
202405041620 METAR EGKK 041620Z 21006KT 9999 VCSH FEW037CB 15/09 Q1009=
202405041650 METAR EGKK 041650Z 11006KT 080V220 9999 -SHRA FEW040CB 14/08 Q1009=
202405041720 METAR EGKK 041720Z VRB02KT 9999 -RA FEW029 SCT037CB 12/09 Q1009=
202405041750 METAR EGKK 041750Z VRB02KT 9999 -RA FEW016 13/09 Q1009=
202405041820 METAR EGKK 041820Z VRB01KT 9999 -RA FEW016 12/10 Q1009=
202405041850 METAR EGKK 041850Z VRB02KT CAVOK 12/10 Q1009=
202405041920 METAR EGKK 041920Z 16003KT CAVOK 12/10 Q1009=
202405041950 METAR EGKK 041950Z 11002KT CAVOK 11/10 Q1009=
202405042020 METAR EGKK 042020Z 09002KT CAVOK 09/09 Q1009=
202405042050 METAR EGKK 042050Z 16002KT CAVOK 10/09 Q1009=
202405042120 METAR EGKK 042120Z 10002KT CAVOK 09/09 Q1009=
202405042150 METAR EGKK 042150Z VRB01KT CAVOK 09/09 Q1009=
202405042220 METAR EGKK 042220Z VRB01KT CAVOK 08/08 Q1009=
202405042250 METAR EGKK 042250Z 21003KT 9999 2000N PRFG NSC 08/08 Q1009=
202405042320 METAR EGKK 042320Z 18003KT 8000 NSC 07/07 Q1009=
202405042350 METAR EGKK 042350Z 27002KT 7000 NSC 07/07 Q1009=
202405050020 METAR EGKK 050020Z 06001KT 8000 3000N VCFG NSC 07/07 Q1009=
202405050050 METAR EGKK 050050Z 09003KT 5000 VCFG NSC 06/06 Q1009=
202405050120 METAR EGKK 050120Z 16003KT 090V230 1300 R08R/P1500N BCFG SCT001 06/06 Q1009=
202405050150 METAR EGKK 050150Z 09001KT 0600 R08R/P1500N FG BKN001 06/06 Q1009=
202405050220 METAR EGKK 050220Z 22001KT 1700 0600N R08R/P1500N BCFG SCT001 05/05 Q1009=
202405050250 METAR EGKK 050250Z 29001KT 4000 1500N BCFG FEW001 05/05 Q1009=
202405050320 METAR EGKK 050320Z VRB01KT 1800 0900N R08R/P1500N BCFG FEW001 05/05 Q1009=
202405050350 METAR EGKK 050350Z 07003KT 1400 R08R/1400D BCFG FEW001 04/04 Q1009=
202405050420 METAR EGKK 050420Z 07003KT 1000 R08R/1200U BCFG SCT001 03/03 Q1008=
202405050450 METAR EGKK 050450Z 09001KT 0900 R08R/P1500N FG SCT001 04/04 Q1008=
202405050520 METAR EGKK 050520Z 06003KT 1300 R08R/1000N BCFG SCT001 04/04 Q1008=
202405050550 METAR EGKK 050550Z 06002KT 1200 R08R/P1500N BCFG SCT001 05/05 Q1008=
202405050620 METAR EGKK 050620Z VRB02KT 1600 VCFG NSC 06/06 Q1008=
202405050650 METAR EGKK 050650Z 06003KT 9999 4000NW VCFG NSC 08/08 Q1008=
202405050720 METAR EGKK 050720Z 06003KT CAVOK 10/10 Q1008=
202405050750 METAR EGKK 050750Z 04003KT 340V100 CAVOK 12/10 Q1008=
202405050820 METAR EGKK 050820Z VRB02KT CAVOK 14/10 Q1008=
202405050850 METAR EGKK 050850Z 13006KT 100V170 CAVOK 15/07 Q1008=
202405050920 METAR EGKK 050920Z 17006KT 140V210 CAVOK 16/08 Q1008=
202405050950 METAR EGKK 050950Z 14006KT 110V180 CAVOK 16/08 Q1008=
202405051020 METAR EGKK 051020Z 14007KT 110V190 9999 SCT034 16/08 Q1008=
202405051050 METAR EGKK 051050Z 15008KT 110V200 9999 BKN035 16/08 Q1008=
202405051120 METAR EGKK 051120Z 14009KT 100V180 9999 FEW033 BKN040 16/08 Q1008=
202405051150 METAR EGKK 051150Z 15009KT 110V200 9999 SCT031 15/09 Q1008=
202405051220 METAR EGKK 051220Z 16008KT 110V210 9999 SCT029 15/08 Q1008=
202405051250 METAR EGKK 051250Z 14007KT 110V180 9999 VCSH SCT022 14/10 Q1008=
202405051320 METAR EGKK 051320Z 18005KT 130V210 9999 VCSH FEW017 SCT024 BKN034 14/10 Q1008=
202405051350 METAR EGKK 051350Z 17007KT 140V220 9999 VCSH SCT015 SCT021 BKN036 14/11 Q1008=
202405051420 METAR EGKK 051420Z 16005KT 140V210 9999 SCT017 BKN034 14/10 Q1007=
202405051450 METAR EGKK 051450Z 17004KT 130V210 9999 SCT018 BKN025 14/10 Q1007=
202405051520 METAR EGKK 051520Z 18006KT 130V220 9999 SCT019 SCT027 15/10 Q1007=
202405051550 METAR EGKK 051550Z 20005KT 160V230 9999 FEW018 SCT043 14/10 Q1007=
202405051620 METAR EGKK 051620Z 17006KT 130V220 9999 FEW019 15/10 Q1007=
202405051650 METAR EGKK 051650Z 19006KT 150V230 9999 SCT021 15/10 Q1007=
202405051720 METAR EGKK 051720Z 21007KT 170V240 9999 FEW022 15/09 Q1006=
202405051750 METAR EGKK 051750Z 19006KT 9999 FEW023 15/09 Q1006=
202405051820 METAR EGKK 051820Z 22006KT 9999 FEW034 14/10 Q1006=
202405051850 METAR EGKK 051850Z 19005KT 9999 FEW032 14/09 Q1007=
202405051920 METAR EGKK 051920Z 18004KT 9999 FEW030 13/09 Q1007=
202405051950 METAR EGKK 051950Z 20002KT 9999 FEW031 13/09 Q1007=
202405052020 METAR EGKK 052020Z 18001KT 9999 FEW029 12/09 Q1007=
202405052050 METAR EGKK 052050Z 16003KT 9999 SCT029 12/10 Q1007=
202405052120 METAR EGKK 052120Z 18002KT 9999 FEW029 12/10 Q1007=
202405052150 METAR EGKK 052150Z VRB02KT CAVOK 11/10 Q1007=
202405052220 METAR EGKK 052220Z 15002KT CAVOK 11/10 Q1007=
202405052250 METAR EGKK 052250Z 18003KT 120V220 CAVOK 10/10 Q1007=
202405052320 METAR EGKK 052320Z 06004KT 9999 FEW023 10/10 Q1007=
202405052350 METAR EGKK 052350Z 02004KT 9000 FEW023 10/09 Q1006=
202405060020 METAR EGKK 060020Z 06004KT 9000 NSC 10/09 Q1006=
202405060050 METAR EGKK 060050Z 10004KT 080V140 9000 VCFG SCT003 10/09 Q1006=
202405060120 METAR EGKK 060120Z VRB01KT 9999 FEW003 09/09 Q1006=
202405060150 METAR EGKK 060150Z 04003KT CAVOK 10/10 Q1006=
202405060220 METAR EGKK 060220Z 02003KT 9999 SCT045 10/09 Q1006=
202405060250 METAR EGKK 060250Z 03003KT 6000 -RA BKN025 10/10 Q1006=
202405060320 METAR EGKK 060320Z 36003KT 7000 -RA FEW028 10/10 Q1006=
202405060350 METAR EGKK 060350Z VRB02KT 8000 -RA FEW028 10/10 Q1006=
202405060420 METAR EGKK 060420Z VRB02KT 8000 -RA SCT031 10/10 Q1006=
202405060450 METAR EGKK 060450Z VRB01KT 9000 FEW031 10/10 Q1005=
202405060520 METAR EGKK 060520Z 32003KT 270V040 9999 FEW020 SCT034 10/10 Q1006=
202405060550 METAR EGKK 060550Z 01004KT 330V090 9999 -RA FEW018 BKN034 11/10 Q1006=
202405060620 METAR EGKK 060620Z 36004KT 290V090 6000 -RA FEW020 BKN023 11/10 Q1006=
202405060650 METAR EGKK 060650Z 01004KT 350V080 6000 -RA FEW026 BKN042 11/10 Q1006=
202405060720 METAR COR EGKK 060720Z 01006KT 350V090 5000 -RA FEW020 BKN040 11/10 Q1006=
202405060750 METAR EGKK 060750Z 02006KT 5000 -RA FEW028 BKN043 11/11 Q1006=
202405060820 METAR EGKK 060820Z 02006KT 5000 -RA SCT028 BKN033 11/11 Q1006=
202405060850 METAR EGKK 060850Z VRB05KT 7000 -RA FEW028 BKN042 12/11 Q1006=
202405060920 METAR EGKK 060920Z 02005KT 320V100 9999 5000S -RA FEW006 BKN023 12/11 Q1007=
202405060950 METAR EGKK 060950Z 02006KT 350V130 4000 -RA BKN009 12/11 Q1007=
202405061020 METAR EGKK 061020Z 36007KT 310V040 6000 -RA FEW022 SCT027 BKN032 12/11 Q1007=
202405061050 METAR EGKK 061050Z 34005KT 290V030 6000 -RA SCT007 BKN013 12/11 Q1007=
202405061120 METAR EGKK 061120Z 03005KT 340V080 2500 -RA SCT005 BKN010 12/11 Q1007=
202405061150 METAR EGKK 061150Z 36005KT 6000 -RA SCT006 BKN024 12/12 Q1007=
202405061220 METAR EGKK 061220Z 01006G18KT 320V140 3500 RA SCT006 BKN032 12/12 Q1008=
202405061250 METAR EGKK 061250Z VRB06KT 6000 -RA FEW015 SCT026 BKN036 12/11 Q1008 RERA=
202405061320 METAR EGKK 061320Z 34007KT 9999 -RA FEW023 BKN028 BKN048 12/12 Q1007=
202405061350 METAR EGKK 061350Z 33006KT 220V360 9999 -RA FEW008 SCT020 BKN025 12/12 Q1007=
202405061420 METAR EGKK 061420Z 33007KT 9999 SCT012 BKN020 13/12 Q1008=
202405061450 METAR EGKK 061450Z VRB07KT 9999 -RA SCT011 BKN020 13/12 Q1008=
202405061520 METAR EGKK 061520Z 33007KT 9999 SCT010 BKN038 14/13 Q1008=
202405061550 METAR EGKK 061550Z 34008KT 9999 4000SE VCSH FEW010 SCT016 BKN027 14/13 Q1008=
202405061620 METAR EGKK 061620Z 33007KT 9999 4000SE -RA SCT014 BKN022CB 14/13 Q1008=
202405061650 METAR COR EGKK 061650Z 02008KT 9999 4000SE -SHRA BKN012 BKN022CB 14/12 Q1009=
202405061720 METAR EGKK 061720Z 36007KT 340V090 9999 -RA FEW013 BKN029CB 14/13 Q1009=
202405061750 METAR EGKK 061750Z 04006KT 9999 SCT015 BKN036 14/12 Q1009=
202405061820 METAR EGKK 061820Z 02008KT 9999 -RA SCT017 BKN037 14/12 Q1010=
202405061850 METAR EGKK 061850Z 03006KT 360V070 9999 BKN020 14/12 Q1010=
202405061920 METAR EGKK 061920Z 04006KT 9999 SCT014 BKN021 13/12 Q1010=
202405061950 METAR EGKK 061950Z 04008KT 8000 VCSH SCT013 SCT029 13/12 Q1011=
202405062020 METAR EGKK 062020Z 04008KT 9000 VCSH SCT014 BKN020 13/12 Q1011=
202405062050 METAR EGKK 062050Z 02008KT 7000 VCSH BKN009 13/12 Q1012=
202405062120 METAR EGKK 062120Z 36007KT 5000 BR SCT006 BKN014 13/12 Q1012=
202405062150 METAR EGKK 062150Z 02006KT 6000 SCT007 BKN011 13/12 Q1012=
202405062220 METAR EGKK 062220Z 03008KT 7000 SCT007 BKN011 13/12 Q1013=
202405062250 METAR EGKK 062250Z 04007KT 4500 BR SCT006 BKN009 12/12 Q1013=
202405062320 METAR EGKK 062320Z 04007KT 4000 BR BKN004 12/12 Q1013=
202405062350 METAR EGKK 062350Z 03006KT 5000 BR SCT006 BKN013 12/12 Q1014=
202405070020 METAR EGKK 070020Z 03006KT 5000 BR SCT008 BKN011 12/12 Q1014=
202405070050 METAR EGKK 070050Z 01005KT 4700 BR BKN008 12/12 Q1014=
202405070120 METAR EGKK 070120Z 01006KT 6000 BKN010 12/12 Q1015=
202405070150 METAR EGKK 070150Z 01005KT 5000 BR BKN012 12/11 Q1015=
202405070220 METAR EGKK 070220Z 03005KT 6000 BKN048 12/11 Q1015=
202405070250 METAR EGKK 070250Z 02005KT 340V040 6000 SCT011 BKN046 12/11 Q1016=
202405070320 METAR EGKK 070320Z 01005KT 6000 -RA BKN011 12/11 Q1016=
202405070350 METAR EGKK 070350Z 36004KT 6000 BKN048 12/11 Q1016=
202405070420 METAR EGKK 070420Z 02004KT 8000 NSC 11/10 Q1017=
202405070450 METAR EGKK 070450Z VRB04KT 8000 NSC 11/10 Q1017=
202405070520 METAR EGKK 070520Z 32004KT 260V350 8000 NSC 11/10 Q1018=
202405070550 METAR EGKK 070550Z 01005G15KT 320V050 9000 NSC 12/10 Q1018=
202405070620 METAR EGKK 070620Z 36006KT 330V030 CAVOK 12/10 Q1018=
202405070650 METAR EGKK 070650Z 36007KT CAVOK 13/10 Q1019=
202405070720 METAR EGKK 070720Z 01006G17KT 330V070 CAVOK 14/09 Q1019=
202405070750 METAR EGKK 070750Z 02007KT 360V060 CAVOK 14/09 Q1020=
202405070820 METAR EGKK 070820Z 01007KT 350V060 CAVOK 15/09 Q1020=
202405070850 METAR EGKK 070850Z 04010KT CAVOK 16/08 Q1020=
202405070920 METAR EGKK 070920Z 04008KT 360V060 CAVOK 16/09 Q1020=
202405070950 METAR EGKK 070950Z 05008KT 350V110 9999 FEW042 16/09 Q1021=
202405071020 METAR EGKK 071020Z 05008KT 010V090 9999 FEW041 18/09 Q1021=
202405071050 METAR EGKK 071050Z 05008KT 9999 FEW040 18/09 Q1021=
202405071120 METAR EGKK 071120Z 05009KT 020V110 9999 FEW043 18/08 Q1021=
202405071150 METAR EGKK 071150Z 02007KT 330V070 9999 FEW045 19/08 Q1022=
202405071220 METAR EGKK 071220Z 04007KT 010V080 9999 FEW048 19/08 Q1022=
202405071250 METAR EGKK 071250Z 06008KT 030V100 CAVOK 19/08 Q1022=
202405071320 METAR EGKK 071320Z 03008KT 350V100 CAVOK 19/07 Q1023=
202405071350 METAR EGKK 071350Z 04006KT 350V080 CAVOK 19/08 Q1023=
202405071420 METAR EGKK 071420Z 01009KT 340V060 CAVOK 19/08 Q1023=
202405071450 METAR EGKK 071450Z 01008KT 350V080 CAVOK 19/08 Q1023=
202405071520 METAR EGKK 071520Z 35005KT 300V040 CAVOK 19/09 Q1023=
202405071550 METAR EGKK 071550Z 03007KT 360V080 9999 FEW047 18/08 Q1023=
202405071620 METAR EGKK 071620Z 02004KT 330V050 CAVOK 19/08 Q1024=
202405071650 METAR COR EGKK 071650Z 03007KT 350V100 9999 FEW044 18/09 Q1024=
202405071720 METAR EGKK 071720Z 02007KT CAVOK 18/09 Q1024=
202405071750 METAR EGKK 071750Z 03003KT 350V090 CAVOK 18/10 Q1024=
202405071820 METAR EGKK 071820Z 04007KT 9999 SCT038 18/10 Q1025=
202405071850 METAR EGKK 071850Z 04009KT 9999 SCT038 18/10 Q1025=
202405071920 METAR EGKK 071920Z 04007KT 9999 SCT036 17/10 Q1025=
202405071950 METAR EGKK 071950Z 05006KT 010V110 9999 FEW045 16/10 Q1026=
202405072020 METAR EGKK 072020Z 04007KT CAVOK 15/10 Q1026=
202405072050 METAR EGKK 072050Z 04006KT CAVOK 15/10 Q1026=
202405072120 METAR EGKK 072120Z 04006KT CAVOK 14/10 Q1027=
202405072150 METAR EGKK 072150Z 07005KT CAVOK 11/09 Q1027=
202405072220 METAR EGKK 072220Z 09004KT CAVOK 11/09 Q1027=
202405072250 METAR EGKK 072250Z 08003KT CAVOK 11/09 Q1027=
202405072320 METAR EGKK 072320Z 08003KT CAVOK 10/09 Q1027=
202405072350 METAR EGKK 072350Z 07003KT CAVOK 09/08 Q1028=
202405080020 METAR EGKK 080020Z 08003KT CAVOK 10/09 Q1028=
202405080050 METAR EGKK 080050Z VRB01KT 9000 NSC 09/09 Q1028=
202405080120 METAR EGKK 080120Z 08002KT 9000 NSC 09/09 Q1028=
202405080150 METAR COR EGKK 080150Z 09003KT 8000 FEW003 09/09 Q1028=
202405080220 METAR EGKK 080220Z 08003KT 1300 R08R/P1500N BR BKN003 09/09 Q1028=
202405080250 METAR EGKK 080250Z 08003KT 2000 BR OVC004 09/09 Q1028=
202405080320 METAR EGKK 080320Z 07004KT 2000 BR OVC003 10/09 Q1028=
202405080350 METAR EGKK 080350Z 06004KT 1400 BR OVC002 10/10 Q1028=
202405080420 METAR EGKK 080420Z 04002KT 1400 R08R/P1500N BR OVC002 10/10 Q1028=
202405080450 METAR EGKK 080450Z 06004KT 030V090 1400 R08R/P1500N BR OVC002 10/10 Q1028=
202405080520 METAR EGKK 080520Z 03003KT 350V090 2000 BR OVC003 10/10 Q1029=
202405080550 METAR EGKK 080550Z 08004KT 2000 BR BKN002 10/10 Q1029=
202405080620 METAR EGKK 080620Z 09003KT 2800 BR OVC003 10/10 Q1029=
202405080650 METAR EGKK 080650Z 09004KT 4000 BR BKN004 10/10 Q1029=
202405080720 METAR EGKK 080720Z 09005KT 050V120 8000 BKN007 11/10 Q1029=
202405080750 METAR EGKK 080750Z VRB01KT 9999 SCT009 12/09 Q1029=
202405080820 METAR EGKK 080820Z VRB02KT 9999 FEW012 13/10 Q1029=
202405080850 METAR EGKK 080850Z 05003KT 350V100 9999 FEW016 14/10 Q1029=
202405080920 METAR EGKK 080920Z VRB03KT 9999 FEW020 15/10 Q1029=
202405080950 METAR EGKK 080950Z VRB02KT 9999 FEW024 16/10 Q1029=
202405081020 METAR EGKK 081020Z VRB03KT 9999 FEW027 16/10 Q1029=
202405081050 METAR EGKK 081050Z VRB02KT 9999 FEW030 16/10 Q1029=
202405081120 METAR EGKK 081120Z 02005KT 290V080 9999 FEW032 17/10 Q1029=
202405081150 METAR EGKK 081150Z 02005G15KT 300V100 9999 FEW034 18/09 Q1029=
202405081220 METAR EGKK 081220Z 11005KT 050V160 9999 FEW040 18/09 Q1029=
202405081250 METAR EGKK 081250Z VRB06KT 9999 FEW036 19/09 Q1029=
202405081320 METAR EGKK 081320Z 04006G19KT 340V110 9999 FEW040 19/09 Q1029=
202405081350 METAR EGKK 081350Z 09006KT 030V180 9999 FEW044 19/09 Q1028=
202405081420 METAR EGKK 081420Z 07007KT 350V120 9999 FEW044 19/09 Q1028=
202405081450 METAR EGKK 081450Z 11006KT 070V170 9999 FEW044 19/09 Q1028=
202405081520 METAR EGKK 081520Z VRB06KT 9999 FEW048 20/09 Q1028=
202405081550 METAR EGKK 081550Z 04004KT 360V100 9999 SCT048 19/08 Q1028=
202405081620 METAR EGKK 081620Z 17006KT 130V200 9999 FEW028 18/11 Q1028=
202405081650 METAR EGKK 081650Z 17006KT 130V220 9999 FEW028 17/11 Q1028=
202405081720 METAR EGKK 081720Z 18007KT 150V210 9999 FEW030 17/11 Q1028=
202405081750 METAR EGKK 081750Z 19006KT 140V230 CAVOK 16/11 Q1028=
202405081820 METAR EGKK 081820Z 18007KT 130V200 CAVOK 15/11 Q1028=
202405081850 METAR EGKK 081850Z 18005KT CAVOK 14/10 Q1028=
202405081920 METAR EGKK 081920Z 19004KT CAVOK 13/10 Q1029=
202405081950 METAR EGKK 081950Z 19004KT 150V220 CAVOK 12/10 Q1029=
202405082020 METAR EGKK 082020Z 22003KT 9999 FEW011 12/10 Q1029=
202405082050 METAR EGKK 082050Z 24003KT 9000 FEW011 11/10 Q1030=
202405082120 METAR EGKK 082120Z 22003KT 180V240 9000 NSC 11/10 Q1030=
202405082150 METAR EGKK 082150Z 21003KT 9000 NSC 10/09 Q1030=
202405082220 METAR EGKK 082220Z VRB02KT 9000 NSC 10/09 Q1030=
202405082250 METAR EGKK 082250Z VRB01KT 8000 NSC 10/09 Q1029=
202405082320 METAR EGKK 082320Z 24002KT 7000 NSC 09/09 Q1029=
202405082350 METAR EGKK 082350Z 25003KT 7000 NSC 09/08 Q1029=
202405090020 METAR EGKK 090020Z 22001KT 6000 NSC 09/09 Q1029=
202405090050 METAR EGKK 090050Z 22001KT 6000 NSC 09/09 Q1029=
202405090120 METAR EGKK 090120Z 00000KT 6000 NSC 09/09 Q1029=
202405090150 METAR EGKK 090150Z 00000KT 6000 NSC 09/09 Q1028=
202405090220 METAR EGKK 090220Z 25002KT 6000 NSC 08/08 Q1028=
202405090250 METAR EGKK 090250Z VRB02KT 5000 BR NSC 08/08 Q1029=
202405090320 METAR EGKK 090320Z 10001KT 5000 BR NSC 08/08 Q1028=
202405090350 METAR EGKK 090350Z 23002KT 4500 BR NSC 08/08 Q1028=
202405090420 METAR COR EGKK 090420Z VRB02KT 5000 2000W PRFG BR FEW022 08/08 Q1028=
202405090450 METAR EGKK 090450Z VRB02G18KT 5000 2000W BCFG BR FEW022 08/07 Q1028=
202405090520 METAR EGKK 090520Z 18002KT 5000 2400W BR VCFG FEW030 08/08 Q1028=
202405090550 METAR EGKK 090550Z 17001KT 4500 BR NSC 09/08 Q1028=
202405090620 METAR EGKK 090620Z VRB01KT CAVOK 10/09 Q1028=
202405090650 METAR EGKK 090650Z VRB01KT 8000 NSC 12/09 Q1028=
202405090720 METAR EGKK 090720Z VRB02KT CAVOK 12/09 Q1028=
202405090750 METAR EGKK 090750Z 24003KT 210V270 CAVOK 13/10 Q1028=
202405090820 METAR EGKK 090820Z 27004KT 210V330 CAVOK 15/10 Q1028=
202405090850 METAR EGKK 090850Z 26004KT 210V300 CAVOK 16/10 Q1028=
202405090920 METAR EGKK 090920Z 24004KT 200V290 CAVOK 16/10 Q1028=
202405090950 METAR EGKK 090950Z 26006KT 220V300 CAVOK 17/11 Q1027=
202405091020 METAR EGKK 091020Z 24004KT 180V300 CAVOK 17/11 Q1027=
202405091050 METAR EGKK 091050Z 24004KT 140V310 CAVOK 18/11 Q1027=
202405091120 METAR EGKK 091120Z VRB05KT CAVOK 19/11 Q1027=
202405091150 METAR COR EGKK 091150Z 24004KT 180V290 9999 FEW032 19/11 Q1027=
202405091220 METAR EGKK 091220Z VRB03KT 9999 FEW036 20/11 Q1026=
202405091250 METAR EGKK 091250Z 25004KT 200V290 9999 FEW036 20/11 Q1026=
202405091320 METAR EGKK 091320Z VRB03KT 9999 FEW043 21/12 Q1026=
202405091350 METAR EGKK 091350Z 21003KT 140V290 9999 FEW045 21/11 Q1026=
202405091420 METAR EGKK 091420Z VRB04KT 9999 FEW045 22/11 Q1025=
202405091450 METAR EGKK 091450Z 30003KT 200V340 9999 FEW047 22/11 Q1025=
202405091520 METAR EGKK 091520Z 12005KT 9999 FEW048 21/11 Q1025=
202405091550 METAR EGKK 091550Z 16003KT 070V210 9999 FEW049 22/11 Q1024=
202405091620 METAR EGKK 091620Z VRB02KT 9999 FEW044 22/10 Q1024=
202405091650 METAR EGKK 091650Z VRB05KT 9999 FEW049 22/12 Q1024=
202405091720 METAR EGKK 091720Z 15007KT 120V200 9999 FEW048 21/13 Q1024=
202405091750 METAR EGKK 091750Z 18007KT 150V220 9999 FEW042 20/13 Q1024=
202405091820 METAR EGKK 091820Z 18006KT CAVOK 19/13 Q1024=
202405091850 METAR EGKK 091850Z 17004KT 150V210 CAVOK 18/13 Q1024=
202405091920 METAR EGKK 091920Z 19004KT CAVOK 17/12 Q1024=
202405091950 METAR EGKK 091950Z 23005KT CAVOK 16/12 Q1025=
202405092020 METAR EGKK 092020Z 25004KT CAVOK 14/11 Q1025=
202405092050 METAR EGKK 092050Z VRB02KT CAVOK 14/11 Q1025=
202405092120 METAR EGKK 092120Z 25002KT CAVOK 13/10 Q1025=
202405092150 METAR EGKK 092150Z 23002KT CAVOK 13/09 Q1025=
202405092220 METAR EGKK 092220Z 21001KT CAVOK 13/10 Q1025=
202405092250 METAR EGKK 092250Z 20001KT CAVOK 13/10 Q1025=
202405092320 METAR EGKK 092320Z VRB01KT CAVOK 12/10 Q1025=
202405092350 METAR EGKK 092350Z 21001KT CAVOK 12/10 Q1024=
202405100020 METAR EGKK 100020Z 24001KT CAVOK 11/10 Q1024=
202405100050 METAR EGKK 100050Z 26001KT CAVOK 10/09 Q1024=
202405100120 METAR EGKK 100120Z 18001KT CAVOK 11/10 Q1024=
202405100150 METAR EGKK 100150Z VRB02KT CAVOK 10/10 Q1024=
202405100220 METAR EGKK 100220Z VRB01KT CAVOK 10/09 Q1024=
202405100250 METAR EGKK 100250Z 20001KT CAVOK 10/09 Q1024=
202405100320 METAR EGKK 100320Z 23001KT CAVOK 09/08 Q1024=
202405100350 METAR EGKK 100350Z 23001KT 8000 VCFG NSC 09/09 Q1024=
202405100420 METAR EGKK 100420Z VRB02KT 8000 VCFG NSC 09/09 Q1024=
202405100450 METAR EGKK 100450Z VRB01KT 8000 VCFG NSC 09/09 Q1024=
202405100520 METAR EGKK 100520Z 09003KT 8000 VCFG NSC 10/09 Q1024=
202405100550 METAR EGKK 100550Z 10003KT CAVOK 11/10 Q1024=
202405100620 METAR EGKK 100620Z 09003KT 060V120 CAVOK 12/10 Q1024=
202405100650 METAR EGKK 100650Z VRB01KT CAVOK 13/11 Q1024=
202405100720 METAR EGKK 100720Z VRB02KT CAVOK 15/11 Q1024=
202405100750 METAR EGKK 100750Z 08004KT CAVOK 16/11 Q1024=
202405100820 METAR EGKK 100820Z 07004KT 040V110 CAVOK 17/09 Q1024=
202405100850 METAR EGKK 100850Z 07005KT 030V120 CAVOK 18/09 Q1024=
202405100920 METAR EGKK 100920Z 05006KT 020V090 CAVOK 19/07 Q1024=
202405100950 METAR EGKK 100950Z 05006KT 360V110 CAVOK 20/08 Q1024=
202405101020 METAR EGKK 101020Z 05006KT CAVOK 20/08 Q1024=
202405101050 METAR EGKK 101050Z 07004KT 020V130 CAVOK 21/08 Q1024=
202405101120 METAR EGKK 101120Z 06006KT 330V100 CAVOK 21/09 Q1024=
202405101150 METAR EGKK 101150Z 04008KT 020V080 9999 FEW048 22/10 Q1023=
202405101220 METAR EGKK 101220Z 06006KT 010V140 9999 FEW048 22/10 Q1023=
202405101250 METAR EGKK 101250Z 06005KT 010V100 9999 FEW044 22/11 Q1023=
202405101320 METAR EGKK 101320Z 06007KT 360V120 9999 FEW049 22/11 Q1023=
202405101350 METAR EGKK 101350Z 07005KT 010V110 9999 FEW044 22/11 Q1023=
202405101420 METAR EGKK 101420Z 11007KT 060V190 CAVOK 22/11 Q1022=
202405101450 METAR EGKK 101450Z 08005KT 020V110 CAVOK 22/11 Q1022=
202405101520 METAR EGKK 101520Z 06008KT 020V080 9999 FEW049 21/12 Q1022=
202405101550 METAR EGKK 101550Z 08007KT 030V110 9999 FEW048 22/12 Q1022=
202405101620 METAR EGKK 101620Z 08008KT CAVOK 22/12 Q1022=
202405101650 METAR EGKK 101650Z 08009KT CAVOK 21/12 Q1022=
202405101720 METAR EGKK 101720Z 07011KT CAVOK 20/12 Q1022=
202405101750 METAR EGKK 101750Z 07010KT CAVOK 20/11 Q1022=
202405101820 METAR EGKK 101820Z 08007KT CAVOK 19/11 Q1022=
202405101850 METAR EGKK 101850Z 08007KT CAVOK 18/11 Q1022=
202405101920 METAR EGKK 101920Z 07008KT CAVOK 17/10 Q1022=
202405101950 METAR EGKK 101950Z 08007KT CAVOK 16/10 Q1022=
202405102020 METAR EGKK 102020Z 07008KT CAVOK 15/10 Q1022=
202405102050 METAR EGKK 102050Z 07007KT CAVOK 14/10 Q1022=
202405102120 METAR EGKK 102120Z 06010KT CAVOK 14/10 Q1022=
202405102150 METAR EGKK 102150Z 07006KT CAVOK 13/10 Q1022=
202405102220 METAR EGKK 102220Z 06006KT CAVOK 12/09 Q1022=
202405102250 METAR EGKK 102250Z 07005KT CAVOK 12/09 Q1022=
202405102320 METAR EGKK 102320Z 08004KT CAVOK 11/08 Q1022=
202405102350 METAR EGKK 102350Z 07003KT CAVOK 11/08 Q1022=
202405110020 METAR EGKK 110020Z 07004KT CAVOK 10/08 Q1022=
202405110050 METAR EGKK 110050Z 07005KT CAVOK 10/08 Q1022=
202405110120 METAR EGKK 110120Z 09003KT 050V120 CAVOK 10/08 Q1022=
202405110150 METAR EGKK 110150Z 06004KT CAVOK 09/08 Q1022=
202405110220 METAR EGKK 110220Z 03003KT CAVOK 10/08 Q1022=
202405110250 METAR EGKK 110250Z 04003KT 020V090 CAVOK 10/08 Q1022=
202405110320 METAR EGKK 110320Z 08003KT 9000 NSC 09/08 Q1022=
202405110350 METAR EGKK 110350Z 07004KT 9000 NSC 09/08 Q1022=
202405110420 METAR EGKK 110420Z 08004KT 9000 NSC 08/08 Q1021=
202405110450 METAR EGKK 110450Z 07003KT 8000 NSC 09/08 Q1021=
202405110520 METAR EGKK 110520Z 07003KT 7000 NSC 09/09 Q1021=
202405110550 METAR EGKK 110550Z 08003KT 7000 NSC 11/10 Q1021=
202405110620 METAR EGKK 110620Z 06005KT 320V090 6000 NSC 12/11 Q1021=
202405110650 METAR EGKK 110650Z 07006KT 6000 NSC 12/12 Q1021=
202405110720 METAR EGKK 110720Z 07006KT 030V090 6000 NSC 13/12 Q1021=
202405110750 METAR EGKK 110750Z 05006KT 010V090 8000 NSC 14/12 Q1022=
202405110820 METAR EGKK 110820Z 07007KT 9000 NSC 15/12 Q1022=
202405110850 METAR EGKK 110850Z 06006KT CAVOK 16/13 Q1022=
202405110920 METAR EGKK 110920Z 07007KT 010V100 CAVOK 18/13 Q1021=
202405110950 METAR EGKK 110950Z 07009KT CAVOK 18/12 Q1021=
202405111020 METAR EGKK 111020Z 08011KT CAVOK 19/13 Q1021=
202405111050 METAR EGKK 111050Z 08010KT 050V110 CAVOK 20/13 Q1021=
202405111120 METAR EGKK 111120Z 06012KT 040V100 CAVOK 20/14 Q1020=
202405111150 METAR EGKK 111150Z 07011KT CAVOK 20/14 Q1020=
202405111220 METAR EGKK 111220Z 07011KT 020V110 CAVOK 21/14 Q1020=
202405111250 METAR EGKK 111250Z 05011KT CAVOK 22/14 Q1019=
202405111320 METAR EGKK 111320Z 06011KT 9999 FEW036 22/14 Q1019=
202405111350 METAR EGKK 111350Z 07009KT 9999 FEW040 22/14 Q1019=
202405111420 METAR EGKK 111420Z 06010KT 9999 FEW042 22/14 Q1019=
202405111450 METAR EGKK 111450Z 06010KT 9999 FEW040 22/14 Q1019=
202405111520 METAR EGKK 111520Z 07009KT 030V100 9999 FEW042 22/14 Q1019=
202405111550 METAR EGKK 111550Z 07011KT 9999 FEW042 22/14 Q1018=
202405111620 METAR EGKK 111620Z 07011KT 9999 FEW040 22/14 Q1018=
202405111650 METAR EGKK 111650Z 07012KT 9999 FEW038 21/14 Q1018=
202405111720 METAR EGKK 111720Z 08011KT CAVOK 21/13 Q1018=
202405111750 METAR EGKK 111750Z 07009KT CAVOK 20/13 Q1018=
202405111820 METAR EGKK 111820Z 07010KT CAVOK 19/13 Q1018=
202405111850 METAR EGKK 111850Z 06009KT CAVOK 18/12 Q1018=
202405111920 METAR EGKK 111920Z 07009KT CAVOK 17/11 Q1018=
202405111950 METAR EGKK 111950Z 07010KT CAVOK 16/11 Q1018=
202405112020 METAR EGKK 112020Z 07008KT CAVOK 15/11 Q1018=
202405112050 METAR EGKK 112050Z 07007KT CAVOK 14/11 Q1018=
202405112120 METAR EGKK 112120Z 07007G17KT CAVOK 14/11 Q1018=
202405112150 METAR EGKK 112150Z 08006KT CAVOK 13/11 Q1018=
202405112220 METAR EGKK 112220Z 07006KT CAVOK 13/11 Q1017=
202405112250 METAR EGKK 112250Z 08004KT 9000 NSC 12/11 Q1017=
202405112320 METAR EGKK 112320Z 07004KT 9000 NSC 12/11 Q1017=
202405112350 METAR EGKK 112350Z 07004KT 9000 NSC 11/11 Q1017=
202405120020 METAR EGKK 120020Z 07003KT 050V110 9000 NSC 12/11 Q1017=
202405120050 METAR EGKK 120050Z 07004KT 9000 NSC 11/10 Q1016=
202405120120 METAR EGKK 120120Z 08004KT 9000 NSC 12/10 Q1016=
202405120150 METAR EGKK 120150Z 08005KT CAVOK 12/11 Q1016=
202405120220 METAR EGKK 120220Z 09005KT CAVOK 12/11 Q1015=
202405120250 METAR EGKK 120250Z 08004KT 9000 NSC 12/11 Q1015=
202405120320 METAR EGKK 120320Z 08004KT 9000 NSC 11/10 Q1015=
202405120350 METAR EGKK 120350Z 07003KT 8000 NSC 11/11 Q1014=
202405120420 METAR EGKK 120420Z 07004KT 7000 NSC 11/10 Q1014=
202405120450 METAR EGKK 120450Z 08003KT 7000 NSC 11/10 Q1014=
202405120520 METAR EGKK 120520Z 07003KT 8000 NSC 12/11 Q1014=
202405120550 METAR EGKK 120550Z 07002KT 8000 NSC 12/11 Q1014=
202405120620 METAR EGKK 120620Z 07003KT CAVOK 14/12 Q1014=
202405120650 METAR EGKK 120650Z 07004KT CAVOK 15/13 Q1014=
202405120720 METAR EGKK 120720Z 07003KT 020V120 CAVOK 16/13 Q1014=
202405120750 METAR EGKK 120750Z 07005KT CAVOK 18/14 Q1014=
202405120820 METAR EGKK 120820Z 05004KT 010V080 CAVOK 19/14 Q1013=
202405120850 METAR EGKK 120850Z 10004KT CAVOK 21/14 Q1013=
202405120920 METAR EGKK 120920Z 11005KT 060V230 CAVOK 23/12 Q1013=
202405120950 METAR EGKK 120950Z VRB05KT CAVOK 24/12 Q1013=
202405121020 METAR EGKK 121020Z 15008KT 120V180 CAVOK 24/10 Q1013=
202405121050 METAR EGKK 121050Z 14006KT 070V180 CAVOK 24/10 Q1013=
202405121120 METAR EGKK 121120Z 14007KT CAVOK 25/08 Q1013=
202405121150 METAR EGKK 121150Z 13007KT 090V180 CAVOK 25/10 Q1012=
202405121220 METAR EGKK 121220Z 12006KT 070V180 CAVOK 25/09 Q1012=
202405121250 METAR EGKK 121250Z 13005KT 070V200 CAVOK 26/09 Q1012=
202405121320 METAR EGKK 121320Z VRB04KT CAVOK 25/09 Q1011=
202405121350 METAR EGKK 121350Z 14005KT 080V190 CAVOK 26/10 Q1011=
202405121420 METAR EGKK 121420Z 13005KT 080V190 CAVOK 26/09 Q1011=
202405121450 METAR EGKK 121450Z VRB04KT CAVOK 26/10 Q1010=
202405121520 METAR EGKK 121520Z 15006KT 090V210 CAVOK 26/09 Q1010=
202405121550 METAR EGKK 121550Z 20006KT 160V240 CAVOK 25/10 Q1010=
202405121620 METAR EGKK 121620Z 13007KT 110V170 CAVOK 25/10 Q1010=
202405121650 METAR EGKK 121650Z 18007KT 150V220 CAVOK 25/11 Q1010=
202405121720 METAR EGKK 121720Z 18008KT 140V210 CAVOK 24/10 Q1010=
202405121750 METAR EGKK 121750Z 19008KT CAVOK 24/09 Q1010=
202405121820 METAR EGKK 121820Z 22008KT CAVOK 22/11 Q1010=
202405121850 METAR EGKK 121850Z 22008KT CAVOK 20/09 Q1010=
202405121920 METAR EGKK 121920Z 21006KT CAVOK 18/09 Q1010=
202405121950 METAR EGKK 121950Z 18003KT 140V230 CAVOK 18/10 Q1010=
202405122020 METAR EGKK 122020Z 17003KT CAVOK 17/10 Q1010=
202405122050 METAR EGKK 122050Z 17004KT 140V200 CAVOK 17/10 Q1010=
202405122120 METAR EGKK 122120Z 19005KT CAVOK 16/11 Q1010=
202405122150 METAR EGKK 122150Z 20004KT CAVOK 16/12 Q1010=
202405122220 METAR EGKK 122220Z 21003KT 170V240 9000 NSC 15/12 Q1010=
202405122250 METAR EGKK 122250Z 20003KT 160V250 8000 NSC 15/12 Q1010=
202405122320 METAR EGKK 122320Z 21005KT 180V240 6000 NSC 14/12 Q1010=
202405122350 METAR EGKK 122350Z 22005KT 180V250 5000 HZ NSC 14/12 Q1010=
202405130020 METAR EGKK 130020Z 22006KT 5000 HZ FEW005 13/12 Q1010=
202405130050 METAR EGKK 130050Z 22007KT 8000 BKN007 12/12 Q1010=
202405130120 METAR EGKK 130120Z 22004KT 9000 BKN006 12/11 Q1010=
202405130150 METAR EGKK 130150Z 22007KT 180V240 9999 BKN007 13/11 Q1010=
202405130220 METAR EGKK 130220Z 20007KT 9999 BKN006 12/11 Q1010=
202405130250 METAR EGKK 130250Z 21009KT 9999 BKN007 12/11 Q1010=
202405130320 METAR EGKK 130320Z 21007KT 9999 BKN009 12/10 Q1010=
202405130350 METAR EGKK 130350Z 24004KT 9999 BKN010 12/10 Q1009=
202405130420 METAR EGKK 130420Z 20007KT 170V230 9999 BKN010 12/10 Q1009=
202405130450 METAR EGKK 130450Z 21006KT 160V240 9999 BKN011 12/10 Q1010=
202405130520 METAR EGKK 130520Z 21006KT 190V250 9999 BKN011 12/10 Q1010=
202405130550 METAR EGKK 130550Z 22005KT 180V250 9999 BKN013 13/10 Q1010=
202405130620 METAR EGKK 130620Z 21007KT 140V240 9999 BKN013 13/10 Q1010=
202405130650 METAR EGKK 130650Z 22009KT 9999 BKN013 13/10 Q1010=
202405130720 METAR EGKK 130720Z 19006KT 100V230 9999 BKN013 13/10 Q1010=
202405130750 METAR EGKK 130750Z 21006KT 160V240 9999 BKN016 14/11 Q1009=
202405130820 METAR EGKK 130820Z 20006KT 170V240 9999 BKN011 14/11 Q1009=
202405130850 METAR EGKK 130850Z 18008KT 130V210 9999 BKN011 14/12 Q1009=
202405130920 METAR EGKK 130920Z 17008KT 140V210 9999 BKN009 14/12 Q1009=
202405130950 METAR EGKK 130950Z 16007KT 120V200 9000 BKN009 14/12 Q1008=
202405131020 METAR EGKK 131020Z 16007KT 130V200 9000 BKN008 14/12 Q1008=
202405131050 METAR EGKK 131050Z 16007KT 130V200 9000 BKN009 14/12 Q1008=
202405131120 METAR EGKK 131120Z 16006KT 3000 1200W R26L/P1500N -DZ BKN005 14/13 Q1008=
202405131150 METAR EGKK 131150Z 16008KT 120V190 9999 VCSH BKN010 14/13 Q1008=
202405131220 METAR EGKK 131220Z 15008KT 120V190 9999 BKN010 15/13 Q1007=
202405131250 METAR EGKK 131250Z 17009KT 130V210 9999 SCT010 SCT017 16/12 Q1007=
202405131320 METAR EGKK 131320Z 16010KT 130V200 9999 BKN016 17/12 Q1007=
202405131350 METAR EGKK 131350Z 19011KT 150V220 9999 BKN023 17/11 Q1007=
202405131420 METAR EGKK 131420Z 16009KT 130V200 9999 SCT024 BKN029 17/11 Q1006=
202405131450 METAR EGKK 131450Z 17010KT 140V200 9999 BKN025 17/11 Q1006=
202405131520 METAR EGKK 131520Z 15011KT 110V200 9999 BKN024 17/11 Q1006=
202405131550 METAR EGKK 131550Z 15010KT 120V190 9999 BKN028 17/11 Q1005=
202405131620 METAR EGKK 131620Z 15010KT 110V190 9999 SCT029 17/11 Q1005=
202405131650 METAR EGKK 131650Z 15009KT 120V190 9999 SCT035 17/11 Q1005=
202405131720 METAR EGKK 131720Z 15009KT 130V190 9999 BKN037 17/11 Q1005=
202405131750 METAR EGKK 131750Z 15009KT 9999 SCT037 17/12 Q1004=
202405131820 METAR EGKK 131820Z 14008KT 110V180 9999 FEW037 17/12 Q1004=
202405131850 METAR EGKK 131850Z 14007KT 9999 SCT040 17/12 Q1004=
202405131920 METAR EGKK 131920Z 14006KT 100V180 9999 SCT039 16/12 Q1004=
202405131950 METAR EGKK 131950Z 13006KT 9999 BKN040 16/12 Q1004=
202405132020 METAR EGKK 132020Z 13006KT CAVOK 16/12 Q1004=
202405132050 METAR EGKK 132050Z 13006KT 110V170 9999 SCT046 16/12 Q1004=
202405132120 METAR EGKK 132120Z 13005KT 9999 FEW046 16/12 Q1003=
202405132150 METAR EGKK 132150Z 13004KT 9999 BKN045 16/12 Q1003=
202405132220 METAR EGKK 132220Z 13004KT 9999 BKN038 16/12 Q1003=
202405132250 METAR EGKK 132250Z 14003KT 110V170 9999 BKN040 16/12 Q1003=
202405132320 METAR EGKK 132320Z 19003KT 130V240 9999 SCT035 16/12 Q1002=
202405132350 METAR EGKK 132350Z 17003KT 140V210 9999 BKN031 15/12 Q1002=
202405140020 METAR EGKK 140020Z 14003KT 9999 -DZ BKN030 15/13 Q1002=
202405140050 METAR EGKK 140050Z 09004KT 9999 SCT030 14/13 Q1001=
202405140120 METAR EGKK 140120Z 11003KT 9999 -RA FEW030 14/13 Q1001=
202405140150 METAR EGKK 140150Z VRB02KT 9999 -RA NSC 14/13 Q1000=
202405140220 METAR EGKK 140220Z 11003KT 9999 -RA FEW038 14/13 Q1000=
202405140250 METAR EGKK 140250Z 14004KT 100V170 8000 -RA SCT010 14/13 Q1000=
202405140320 METAR EGKK 140320Z 13004KT 8000 -RA BKN007 14/13 Q1000=
202405140350 METAR EGKK 140350Z 15004KT 110V190 7000 -RA FEW006 BKN008 14/14 Q1000=
202405140420 METAR EGKK 140420Z 16005KT 130V200 8000 -RA SCT007 BKN014 14/13 Q1000=
202405140450 METAR EGKK 140450Z 19008KT 160V220 7000 -RA FEW005 BKN007 BKN018 14/13 Q1000=
202405140520 METAR EGKK 140520Z 18004KT 140V220 9999 -RA SCT006 BKN040 13/13 Q1000=
202405140550 METAR EGKK 140550Z 15004KT 110V190 9000 -RA SCT006 BKN038 13/13 Q1000=
202405140620 METAR EGKK 140620Z 18004KT 140V210 9999 SCT007 BKN010 13/13 Q1000=
202405140650 METAR EGKK 140650Z 21007KT 9000 -RA BKN008 13/13 Q1000=
202405140720 METAR EGKK 140720Z 17005KT 140V200 9999 -RA BKN010 13/12 Q1001=
202405140750 METAR EGKK 140750Z 16006KT 130V200 9999 -RA SCT008 BKN045 13/13 Q1001=
202405140820 METAR EGKK 140820Z 16005KT 130V200 9999 BKN011 14/13 Q1001=
202405140850 METAR EGKK 140850Z 17006KT 140V210 9999 BKN012 14/12 Q1001=
202405140920 METAR EGKK 140920Z 17007KT 130V200 9999 BKN012 14/12 Q1001=
202405140950 METAR EGKK 140950Z 16008KT 130V200 9999 SCT014 BKN020 14/12 Q1001=
202405141020 METAR EGKK 141020Z 16006KT 110V200 9999 BKN012 15/12 Q1001=
202405141050 METAR EGKK 141050Z 16010KT 120V210 9999 SCT015 15/11 Q1001=
202405141120 METAR EGKK 141120Z 17008KT 9999 SCT018 15/11 Q1001=
202405141150 METAR EGKK 141150Z 15010KT 9999 BKN018 15/11 Q1001=
202405141220 METAR EGKK 141220Z 17009KT 150V210 9999 SCT018 SCT028 15/11 Q1001=
202405141250 METAR EGKK 141250Z 17010KT 120V210 9999 SCT020 15/11 Q1002=
202405141320 METAR EGKK 141320Z 17008KT 140V220 9999 SCT021 BKN039 16/11 Q1002=
202405141350 METAR EGKK 141350Z 18011KT 140V210 9999 FEW024 BKN034 16/11 Q1002=
202405141420 METAR EGKK 141420Z 17009KT 140V220 9999 FEW024 SCT029 16/10 Q1002=
202405141450 METAR EGKK 141450Z 16008KT 130V220 9999 FEW024 SCT033 16/10 Q1002=
202405141520 METAR EGKK 141520Z 15007KT 120V180 9999 SCT024 SCT030 16/11 Q1002=
202405141550 METAR EGKK 141550Z 16007KT 110V210 9999 SCT021 SCT030 16/11 Q1002=
202405141620 METAR EGKK 141620Z 15007KT 110V180 9999 FEW025 17/11 Q1002=
202405141650 METAR EGKK 141650Z 13009KT 9999 FEW022 SCT026 16/11 Q1002=
202405141720 METAR EGKK 141720Z 13010KT 100V170 9999 SCT020 16/11 Q1002=
202405141750 METAR EGKK 141750Z 13008KT 9999 FEW020 16/12 Q1002=
202405141820 METAR EGKK 141820Z 12008KT 9999 FEW021 SCT040 15/12 Q1002=
202405141850 METAR EGKK 141850Z 13008KT 9999 FEW018 SCT045 15/12 Q1002=
202405141920 METAR EGKK 141920Z 12008KT 9999 FEW017 15/12 Q1002=
202405141950 METAR EGKK 141950Z 11008KT 9999 -RA FEW027 14/12 Q1002=
202405142020 METAR EGKK 142020Z 12007KT 9999 VCSH SCT013 BKN029 14/13 Q1002=
202405142050 METAR EGKK 142050Z 12007KT 9999 -SHRA SCT011 BKN023 14/13 Q1003=
202405142120 METAR EGKK 142120Z 12008KT 090V150 9999 -SHRA FEW009 14/13 Q1003=
202405142150 METAR EGKK 142150Z 12007KT 9999 -SHRA FEW014 14/13 Q1003=
202405142220 METAR EGKK 142220Z 10006KT 9999 -SHRA FEW009 SCT024 BKN036 14/13 Q1003=
202405142250 METAR EGKK 142250Z 11006KT 9999 FEW008 SCT021 BKN030 14/13 Q1003=
202405142320 METAR EGKK 142320Z 12005KT 9999 FEW007 SCT025 14/13 Q1003=
202405142350 METAR EGKK 142350Z 11005KT 9999 FEW008 SCT022 BKN032 13/13 Q1003=
202405150020 METAR EGKK 150020Z 11004KT 9999 BKN007 BKN018 13/13 Q1003=
202405150050 METAR EGKK 150050Z 11004KT 9999 BKN006 BKN018 13/13 Q1002=
202405150120 METAR EGKK 150120Z 13006KT 110V170 9999 FEW007 SCT014 BKN040 13/13 Q1002=
202405150150 METAR EGKK 150150Z 13006KT 9999 FEW007 13/13 Q1002=
202405150220 METAR EGKK 150220Z 14005KT 100V160 9999 SCT035 13/12 Q1002=
202405150250 METAR EGKK 150250Z 16005KT 9999 FEW010 SCT032 13/12 Q1003=
202405150320 METAR EGKK 150320Z 16004KT 130V200 CAVOK 13/12 Q1003=
202405150350 METAR EGKK 150350Z VRB02KT CAVOK 13/12 Q1003=
202405150420 METAR EGKK 150420Z 12003KT CAVOK 12/12 Q1003=
202405150450 METAR EGKK 150450Z 07003KT CAVOK 11/10 Q1003=
202405150520 METAR EGKK 150520Z 12003KT 9999 SCT007 11/11 Q1003=
202405150550 METAR EGKK 150550Z VRB02KT 9999 FEW007 SCT018 12/12 Q1004=
202405150620 METAR EGKK 150620Z 13004KT 090V160 9999 FEW007 13/12 Q1004=
202405150650 METAR EGKK 150650Z 12005KT 9999 FEW009 13/12 Q1004=
202405150720 METAR EGKK 150720Z 13006KT 100V160 9999 SCT014 14/11 Q1004=
202405150750 METAR EGKK 150750Z 15006KT 110V200 9999 FEW016 14/10 Q1004=
202405150820 METAR EGKK 150820Z 16006KT 120V200 9999 FEW020 15/10 Q1005=
202405150850 METAR EGKK 150850Z 13007KT 100V180 9999 SCT022 15/11 Q1005=
202405150920 METAR EGKK 150920Z 13008KT 100V160 9999 SCT025 16/10 Q1005=
202405150950 METAR EGKK 150950Z 13008KT 100V170 9999 SCT027 17/10 Q1005=
202405151020 METAR EGKK 151020Z 13008KT 110V180 9999 SCT031 17/09 Q1005=
202405151050 METAR EGKK 151050Z 13007KT 090V190 9999 SCT034 17/09 Q1005=
202405151120 METAR EGKK 151120Z 14008KT 110V200 9999 SCT036 18/09 Q1005=
202405151150 METAR EGKK 151150Z 14008KT 100V180 9999 SCT038 18/08 Q1005=
202405151220 METAR EGKK 151220Z 17009KT 130V210 9999 FEW042 18/08 Q1005=
202405151250 METAR EGKK 151250Z 14007KT 090V210 9999 SCT042 18/08 Q1005=
202405151320 METAR EGKK 151320Z 15008KT 070V200 9999 SCT043 19/08 Q1005=
202405151350 METAR EGKK 151350Z 20009KT 160V220 9999 FEW043 18/08 Q1005=
202405151420 METAR EGKK 151420Z 18008KT 120V230 9999 FEW042 19/08 Q1005=
202405151450 METAR EGKK 151450Z 18007KT 120V220 9999 FEW042 19/08 Q1005=
202405151520 METAR EGKK 151520Z 16005KT 120V220 9999 FEW045 19/08 Q1005=
202405151550 METAR EGKK 151550Z 12008KT 090V160 9999 FEW045 19/08 Q1005=
202405151620 METAR EGKK 151620Z 15006KT 9999 FEW045 18/07 Q1005=
202405151650 METAR EGKK 151650Z 14007KT 100V160 9999 FEW045 18/07 Q1005=
202405151720 METAR EGKK 151720Z 13006KT 110V180 9999 FEW046 18/08 Q1005=
202405151750 METAR EGKK 151750Z 20005KT 160V230 9999 FEW046 18/07 Q1005=
202405151820 METAR EGKK 151820Z 18005KT 130V220 CAVOK 18/08 Q1005=
202405151850 METAR EGKK 151850Z 15004KT 110V180 CAVOK 18/07 Q1005=
202405151920 METAR EGKK 151920Z 13004KT CAVOK 17/08 Q1005=
202405151950 METAR EGKK 151950Z 14003KT CAVOK 17/08 Q1006=
202405152020 METAR EGKK 152020Z 10002KT CAVOK 14/09 Q1006=
202405152050 METAR EGKK 152050Z 10003KT CAVOK 14/09 Q1006=
202405152120 METAR EGKK 152120Z 14002KT CAVOK 13/09 Q1006=
202405152150 METAR EGKK 152150Z 12003KT CAVOK 13/09 Q1006=
202405152220 METAR EGKK 152220Z 07003KT CAVOK 11/09 Q1006=
202405152250 METAR EGKK 152250Z 07003KT CAVOK 12/09 Q1006=
202405152320 METAR EGKK 152320Z 09003KT CAVOK 11/09 Q1006=
202405152350 METAR EGKK 152350Z 10003KT 060V140 CAVOK 11/09 Q1006=
202405160020 METAR EGKK 160020Z 10003KT CAVOK 11/09 Q1006=
202405160050 METAR EGKK 160050Z VRB02KT CAVOK 11/09 Q1005=
202405160120 METAR EGKK 160120Z 10001KT CAVOK 10/09 Q1005=
202405160150 METAR EGKK 160150Z 08002KT CAVOK 10/10 Q1005=
202405160220 METAR EGKK 160220Z 08002KT CAVOK 10/09 Q1005=
202405160250 METAR EGKK 160250Z 07001KT CAVOK 10/09 Q1005=
202405160320 METAR EGKK 160320Z 11001KT CAVOK 10/10 Q1005=
202405160350 METAR EGKK 160350Z 06002KT CAVOK 10/09 Q1005=
202405160420 METAR EGKK 160420Z VRB01KT CAVOK 09/09 Q1005=
202405160450 METAR EGKK 160450Z 26002KT CAVOK 10/09 Q1005=
202405160520 METAR EGKK 160520Z VRB02KT CAVOK 11/10 Q1004=
202405160550 METAR EGKK 160550Z 34003KT 260V040 CAVOK 12/10 Q1004=
202405160620 METAR EGKK 160620Z VRB02KT 9999 VCFG NSC 12/10 Q1005=
202405160650 METAR EGKK 160650Z 36004KT 310V030 CAVOK 13/11 Q1005=
202405160720 METAR EGKK 160720Z 09003KT 9999 VCFG NSC 13/11 Q1005=
202405160750 METAR EGKK 160750Z VRB02KT 9999 BKN014 13/11 Q1005=
202405160820 METAR EGKK 160820Z VRB01KT 9000 FEW008 BKN018 14/12 Q1005=
202405160850 METAR EGKK 160850Z 10002KT 8000 -RA FEW009 13/12 Q1005=
202405160920 METAR EGKK 160920Z VRB02KT 7000 -RA FEW009 BKN014 14/13 Q1005=
202405160950 METAR EGKK 160950Z VRB01KT 8000 VCSH FEW008 BKN022 15/13 Q1005=
202405161020 METAR EGKK 161020Z 13003KT 070V170 9000 -RA FEW012 SCT037 15/13 Q1005=
202405161050 METAR EGKK 161050Z 03004KT 310V120 9000 -RA SCT032 BKN044 15/12 Q1005=
202405161120 METAR EGKK 161120Z 14005KT 6000 -RA VCSH SCT011CB BKN017 14/12 Q1005=
202405161150 METAR EGKK 161150Z 24006KT 210V270 9999 4000W -RA VCSH SCT025CB BKN032 14/13 Q1005=
202405161220 METAR EGKK 161220Z 23003KT 9999 -RA SCT036 14/13 Q1005=
202405161250 METAR EGKK 161250Z 23003KT 200V260 9999 -RA FEW006 SCT030 14/13 Q1005=
202405161320 METAR EGKK 161320Z 21003KT 170V250 9999 -RA SCT008 SCT013 15/13 Q1005=
202405161350 METAR EGKK 161350Z 20003KT 150V270 9999 FEW008 SCT013 16/13 Q1005=
202405161420 METAR EGKK 161420Z 21004KT 160V260 9999 FEW017 16/13 Q1005=
202405161450 METAR EGKK 161450Z 22004KT 140V260 9999 FEW016 16/12 Q1005=
202405161520 METAR EGKK 161520Z 22005KT 170V280 9999 FEW018 SCT025 17/12 Q1004=
202405161550 METAR EGKK 161550Z 24006KT 200V260 9999 FEW016 SCT025 17/12 Q1004=
202405161620 METAR EGKK 161620Z 24007KT 210V270 9999 FEW025 17/12 Q1004=
202405161650 METAR EGKK 161650Z 24007KT 200V270 9999 FEW026 17/11 Q1004=
202405161720 METAR EGKK 161720Z 21005KT 170V250 9999 SCT025 17/11 Q1005=
202405161750 METAR EGKK 161750Z 22006KT 9999 SCT038 16/10 Q1005=
202405161820 METAR EGKK 161820Z 20006KT 170V230 9999 FEW030 16/10 Q1005=
202405161850 METAR EGKK 161850Z 21004KT 170V240 CAVOK 15/11 Q1005=
202405161920 METAR EGKK 161920Z 20003KT 160V250 CAVOK 15/10 Q1005=
202405161950 METAR EGKK 161950Z 20002KT CAVOK 15/10 Q1006=
202405162020 METAR EGKK 162020Z VRB02KT CAVOK 14/11 Q1006=
202405162050 METAR EGKK 162050Z 22003KT CAVOK 14/11 Q1006=
202405162120 METAR EGKK 162120Z 18002KT CAVOK 13/11 Q1006=
202405162150 METAR EGKK 162150Z 19004KT CAVOK 13/11 Q1006=
202405162220 METAR EGKK 162220Z VRB01KT CAVOK 13/11 Q1007=
202405162250 METAR EGKK 162250Z 19004KT CAVOK 13/11 Q1007=
202405162320 METAR EGKK 162320Z 17003KT CAVOK 13/11 Q1007=
202405162350 METAR EGKK 162350Z 16003KT CAVOK 12/11 Q1007=
202405170020 METAR EGKK 170020Z 16002KT CAVOK 12/11 Q1007=
202405170050 METAR EGKK 170050Z VRB02KT CAVOK 11/11 Q1007=
202405170120 METAR EGKK 170120Z 18002KT CAVOK 11/10 Q1007=
202405170150 METAR EGKK 170150Z VRB02KT 2000 0900E R26L/P1500N BCFG BKN001 11/10 Q1007=
202405170220 METAR EGKK 170220Z VRB01KT 0800 R26L/P1500N FG OVC001 11/11 Q1007=
202405170250 METAR EGKK 170250Z VRB02KT 0900 R26L/P1500N FG OVC001 11/10 Q1007=
202405170320 METAR EGKK 170320Z 08002KT 1200 R26L/P1500N BCFG BKN002 10/10 Q1008=
202405170350 METAR EGKK 170350Z VRB02KT 0200 R26L/0600D FG OVC001 10/10 Q1008=
202405170420 METAR EGKK 170420Z VRB02KT 0150 R26L/0550N FG OVC001 10/10 Q1008=
202405170450 METAR EGKK 170450Z VRB01KT 0150 R26L/0550N FG OVC001 10/10 Q1008=
202405170520 METAR EGKK 170520Z 05003KT 310V100 0200 R26L/1200U FG VV/// 10/10 Q1008=
202405170550 METAR EGKK 170550Z 09003KT 020V140 1000 R26L/P1500N BR SCT001 10/10 Q1008=
202405170620 METAR EGKK 170620Z 11003KT 1700 0800SE R26L/P1500N PRFG SCT001 10/10 Q1008=
202405170650 METAR EGKK 170650Z VRB02KT 1200 R26L/P1500U BR SCT002 11/11 Q1009=
202405170720 METAR EGKK 170720Z 11003KT 080V140 5000 2300W BR FEW002 11/11 Q1009=
202405170750 METAR EGKK 170750Z VRB01KT 9999 FEW002 14/11 Q1009=
202405170820 METAR EGKK 170820Z VRB02KT 9999 FEW012 15/11 Q1009=
202405170850 METAR EGKK 170850Z VRB02KT 9999 FEW016 16/11 Q1009=
202405170920 METAR EGKK 170920Z VRB02KT 9999 FEW024 17/11 Q1010=
202405170950 METAR EGKK 170950Z 11003KT 360V180 9999 FEW025 17/11 Q1010=
202405171020 METAR EGKK 171020Z VRB03KT 9999 SCT032 18/10 Q1010=
202405171050 METAR EGKK 171050Z 28004KT 210V360 9999 SCT033 18/11 Q1010=
202405171120 METAR EGKK 171120Z VRB05KT 9999 FEW042 19/10 Q1010=
202405171150 METAR EGKK 171150Z 23006KT 180V270 9999 FEW040 19/10 Q1010=
202405171220 METAR EGKK 171220Z 23006KT 200V270 9999 FEW040 19/10 Q1010=
202405171250 METAR EGKK 171250Z 28006KT 190V320 9999 SCT036 19/10 Q1010=
202405171320 METAR EGKK 171320Z 26005KT 210V290 9999 SCT041 19/10 Q1010=
202405171350 METAR EGKK 171350Z VRB04KT 9999 SCT042 20/10 Q1010=
202405171420 METAR EGKK 171420Z VRB04KT 9999 SCT044 20/10 Q1010=
202405171450 METAR EGKK 171450Z 23006KT 190V290 9999 SCT045 20/10 Q1010=
202405171520 METAR EGKK 171520Z 24006KT 210V280 9999 FEW049 19/10 Q1010=
202405171550 METAR EGKK 171550Z 23007KT CAVOK 19/11 Q1010=
202405171620 METAR EGKK 171620Z 23007KT 200V260 CAVOK 19/11 Q1010=
202405171650 METAR EGKK 171650Z 24007KT 9999 FEW045CB 19/11 Q1010=
202405171720 METAR EGKK 171720Z 23006KT 190V260 9999 VCSH NSC 19/11 Q1010=
202405171750 METAR EGKK 171750Z 24006KT CAVOK 18/11 Q1011=
202405171820 METAR EGKK 171820Z 20004KT 170V240 9999 VCSH FEW048CB 18/12 Q1011=
202405171850 METAR EGKK 171850Z 23006KT CAVOK 17/11 Q1011=
202405171920 METAR EGKK 171920Z 14004KT 100V210 CAVOK 17/11 Q1011=
202405171950 METAR EGKK 171950Z 17004KT 110V230 9999 SCT049 16/12 Q1012=
202405172020 METAR EGKK 172020Z 18004KT 140V230 CAVOK 16/12 Q1012=
202405172050 METAR EGKK 172050Z 21003KT 160V250 CAVOK 15/12 Q1012=
202405172120 METAR EGKK 172120Z 23003KT CAVOK 15/11 Q1012=
202405172150 METAR EGKK 172150Z VRB02KT CAVOK 15/12 Q1012=
202405172220 METAR EGKK 172220Z 20001KT CAVOK 15/12 Q1012=
202405172250 METAR EGKK 172250Z 23003KT 9999 FEW047 14/11 Q1012=
202405172320 METAR EGKK 172320Z 22004KT CAVOK 13/11 Q1012=
202405172350 METAR EGKK 172350Z 26001KT CAVOK 13/11 Q1012=
202405180020 METAR EGKK 180020Z VRB02KT CAVOK 12/11 Q1012=
202405180050 METAR EGKK 180050Z 30004KT CAVOK 13/11 Q1012=
202405180120 METAR EGKK 180120Z 25003KT CAVOK 13/11 Q1012=
202405180150 METAR EGKK 180150Z 17002KT CAVOK 12/11 Q1012=
202405180220 METAR EGKK 180220Z VRB01KT CAVOK 11/10 Q1012=
202405180250 METAR EGKK 180250Z VRB02KT CAVOK 11/11 Q1011=
202405180320 METAR EGKK 180320Z VRB01KT CAVOK 12/11 Q1011=
202405180350 METAR EGKK 180350Z VRB02KT CAVOK 13/11 Q1011=
202405180420 METAR EGKK 180420Z VRB01KT CAVOK 13/11 Q1012=
202405180450 METAR EGKK 180450Z 30003KT 230V340 CAVOK 13/12 Q1012=
202405180520 METAR EGKK 180520Z 35003KT 300V100 CAVOK 14/12 Q1012=
202405180550 METAR EGKK 180550Z 01004KT 310V050 CAVOK 14/12 Q1012=
202405180620 METAR EGKK 180620Z 03004KT 320V110 CAVOK 14/13 Q1012=
202405180650 METAR EGKK 180650Z 02004KT 350V070 CAVOK 15/13 Q1013=
202405180720 METAR EGKK 180720Z 01004KT 320V090 9999 FEW033 15/13 Q1013=
202405180750 METAR EGKK 180750Z VRB05KT 9999 FEW015 15/12 Q1013=
202405180820 METAR EGKK 180820Z 02006KT 360V060 9999 FEW015 15/12 Q1013=
202405180850 METAR EGKK 180850Z 01006KT 280V100 9999 VCSH FEW015 15/13 Q1013=
202405180920 METAR EGKK 180920Z 02006KT 330V080 9999 SCT015 16/12 Q1013=
202405180950 METAR EGKK 180950Z VRB04KT 9999 BKN017 16/12 Q1013=
202405181020 METAR EGKK 181020Z 35005KT 310V020 9999 BKN017 16/12 Q1013=
202405181050 METAR EGKK 181050Z 03005KT 320V090 9999 SCT020 17/12 Q1013=
202405181120 METAR EGKK 181120Z 04007KT 360V060 9999 SCT018 17/13 Q1013=
202405181150 METAR EGKK 181150Z 01007KT 350V140 9999 BKN018 16/13 Q1013=
202405181220 METAR EGKK 181220Z 04006KT 350V090 9999 BKN018 17/12 Q1013=
202405181250 METAR EGKK 181250Z 04006KT 360V070 9999 BKN019 17/12 Q1013=
202405181320 METAR EGKK 181320Z 01008G23KT 260V070 9999 BKN017 16/13 Q1013=
202405181350 METAR EGKK 181350Z VRB07G17KT 9999 BKN017 17/13 Q1013=
202405181420 METAR EGKK 181420Z 02007KT 320V050 9999 BKN023 17/13 Q1013=
202405181450 METAR EGKK 181450Z 02006KT 340V110 9999 BKN020 17/13 Q1013=
202405181520 METAR EGKK 181520Z 35005KT 310V040 9999 SCT022 18/13 Q1013=
202405181550 METAR EGKK 181550Z 01004KT 300V070 9999 SCT022 18/13 Q1013=
202405181620 METAR EGKK 181620Z 29005KT 250V340 9999 FEW025 18/13 Q1013=
202405181650 METAR EGKK 181650Z 02006KT 320V060 9999 FEW025 18/13 Q1012=
202405181720 METAR EGKK 181720Z 36005KT 300V070 9999 FEW027 19/12 Q1012=
202405181750 METAR EGKK 181750Z VRB05KT 9999 FEW027 19/12 Q1012=
202405181820 METAR EGKK 181820Z 32005KT 280V350 CAVOK 19/12 Q1013=
202405181850 METAR EGKK 181850Z 31005KT CAVOK 18/13 Q1013=
202405181920 METAR EGKK 181920Z VRB05KT CAVOK 18/12 Q1013=
202405181950 METAR EGKK 181950Z 31006KT 9999 FEW032 17/12 Q1013=
202405182020 METAR EGKK 182020Z 32005KT 250V350 9999 FEW032 17/12 Q1013=
202405182050 METAR EGKK 182050Z 34005KT 260V010 CAVOK 17/13 Q1013=
202405182120 METAR EGKK 182120Z 33004KT 260V030 CAVOK 16/13 Q1013=
202405182150 METAR EGKK 182150Z 33005KT 9999 FEW041 16/13 Q1013=
202405182220 METAR EGKK 182220Z 34006KT CAVOK 16/13 Q1013=
202405182250 METAR EGKK 182250Z 02005KT CAVOK 15/12 Q1013=
202405182320 METAR EGKK 182320Z 02004KT CAVOK 15/11 Q1013=
202405182350 METAR EGKK 182350Z 03004KT CAVOK 14/08 Q1013=
202405190020 METAR EGKK 190020Z 02003KT CAVOK 14/07 Q1013=
202405190050 METAR EGKK 190050Z 01005KT CAVOK 13/06 Q1013=
202405190120 METAR EGKK 190120Z 02003KT CAVOK 13/06 Q1013=
202405190150 METAR EGKK 190150Z 02005KT CAVOK 12/06 Q1013=
202405190220 METAR EGKK 190220Z 02005KT CAVOK 11/06 Q1013=
202405190250 METAR EGKK 190250Z 36005KT CAVOK 11/07 Q1013=
202405190320 METAR EGKK 190320Z 01004KT CAVOK 10/07 Q1013=
202405190350 METAR EGKK 190350Z 02003KT CAVOK 10/07 Q1013=
202405190420 METAR EGKK 190420Z 36004KT 9999 8000N FEW012 10/08 Q1013=
202405190450 METAR EGKK 190450Z 01006KT 9999 8000E FEW010 10/09 Q1013=
202405190520 METAR EGKK 190520Z 02006KT 350V100 9999 BKN010 11/09 Q1014=
202405190550 METAR EGKK 190550Z 04006KT 340V060 9999 BKN011 11/09 Q1014=
202405190620 METAR EGKK 190620Z 04005KT 360V060 9999 BKN011 12/09 Q1014=
202405190650 METAR EGKK 190650Z 05007KT 020V090 9999 BKN010 12/10 Q1014=
202405190720 METAR EGKK 190720Z 03007KT 360V070 9999 BKN010 12/10 Q1014=
202405190750 METAR EGKK 190750Z 05006KT 020V090 9999 BKN011 12/10 Q1014=
202405190820 METAR EGKK 190820Z 06006KT 010V080 9999 BKN012 13/10 Q1014=
202405190850 METAR EGKK 190850Z 04005KT 330V080 9999 FEW016 15/10 Q1014=
202405190920 METAR EGKK 190920Z VRB05KT CAVOK 16/11 Q1014=
202405190950 METAR EGKK 190950Z 01006KT 260V070 CAVOK 17/11 Q1014=
202405191020 METAR EGKK 191020Z 03006KT 320V080 CAVOK 17/11 Q1014=
202405191050 METAR EGKK 191050Z 05004KT 350V150 CAVOK 18/10 Q1014=
202405191120 METAR EGKK 191120Z 02006KT 340V080 CAVOK 19/11 Q1014=
202405191150 METAR EGKK 191150Z 04006KT 350V090 9999 FEW036 20/11 Q1014=
202405191220 METAR EGKK 191220Z 06009KT 020V090 9999 FEW036 21/11 Q1014=
202405191250 METAR EGKK 191250Z 07010KT 040V120 CAVOK 21/11 Q1014=
202405191320 METAR EGKK 191320Z 07010KT 9999 FEW043 22/12 Q1013=
202405191350 METAR EGKK 191350Z 06008KT 030V100 9999 FEW043 21/11 Q1013=
202405191420 METAR EGKK 191420Z 04009KT 360V060 9999 FEW048 21/10 Q1013=
202405191450 METAR EGKK 191450Z 09009KT CAVOK 21/10 Q1013=
202405191520 METAR EGKK 191520Z 07007KT 020V100 CAVOK 21/10 Q1013=
202405191550 METAR EGKK 191550Z 07008KT 020V110 CAVOK 22/09 Q1013=
202405191620 METAR EGKK 191620Z 08008KT 050V110 CAVOK 21/09 Q1013=
202405191650 METAR EGKK 191650Z 09007KT CAVOK 20/10 Q1012=
202405191720 METAR EGKK 191720Z 08010KT CAVOK 20/08 Q1013=
202405191750 METAR EGKK 191750Z 08009KT CAVOK 20/08 Q1013=
202405191820 METAR EGKK 191820Z 07009KT CAVOK 20/08 Q1013=
202405191850 METAR EGKK 191850Z 08006KT CAVOK 19/09 Q1013=
202405191920 METAR EGKK 191920Z 07006KT CAVOK 18/10 Q1013=
202405191950 METAR EGKK 191950Z 08006KT CAVOK 17/10 Q1014=
202405192020 METAR EGKK 192020Z 08006KT CAVOK 16/09 Q1014=
202405192050 METAR EGKK 192050Z 07004KT CAVOK 15/08 Q1014=
202405192120 METAR EGKK 192120Z 06005KT CAVOK 15/09 Q1014=
202405192150 METAR EGKK 192150Z 09004KT CAVOK 15/09 Q1015=
202405192220 METAR EGKK 192220Z 07004KT CAVOK 13/09 Q1015=
202405192250 METAR EGKK 192250Z 08004KT CAVOK 14/09 Q1015=
202405192320 METAR EGKK 192320Z 07003KT CAVOK 13/09 Q1015=
202405192350 METAR EGKK 192350Z VRB02KT CAVOK 12/09 Q1015=
202405200020 METAR EGKK 200020Z 02004KT CAVOK 13/10 Q1015=
202405200050 METAR EGKK 200050Z 01006KT CAVOK 13/11 Q1014=
202405200120 METAR EGKK 200120Z 02004KT CAVOK 12/10 Q1014=
202405200150 METAR EGKK 200150Z 01006KT CAVOK 12/10 Q1014=
202405200220 METAR EGKK 200220Z 01006KT CAVOK 11/10 Q1014=
202405200250 METAR EGKK 200250Z 02004KT CAVOK 11/09 Q1014=
202405200320 METAR EGKK 200320Z 02006KT CAVOK 10/08 Q1014=
202405200350 METAR EGKK 200350Z 02005KT CAVOK 10/08 Q1014=
202405200420 METAR EGKK 200420Z 01005KT CAVOK 10/08 Q1014=
202405200450 METAR EGKK 200450Z 01006KT CAVOK 10/08 Q1014=
202405200520 METAR EGKK 200520Z VRB06KT CAVOK 10/08 Q1014=
202405200550 METAR EGKK 200550Z VRB07KT CAVOK 11/08 Q1014=
202405200620 METAR EGKK 200620Z 36008KT CAVOK 11/08 Q1014=
202405200650 METAR EGKK 200650Z 01009KT 340V110 CAVOK 12/08 Q1014=
202405200720 METAR EGKK 200720Z 02008KT CAVOK 13/08 Q1015=
202405200750 METAR EGKK 200750Z 01009KT CAVOK 13/08 Q1015=
202405200820 METAR EGKK 200820Z 01009KT 340V150 CAVOK 14/08 Q1015=
202405200850 METAR EGKK 200850Z 02008KT 350V050 CAVOK 15/09 Q1015=
202405200920 METAR EGKK 200920Z 03008KT 350V060 CAVOK 16/09 Q1014=
202405200950 METAR EGKK 200950Z 03006KT 340V070 CAVOK 17/08 Q1014=
202405201020 METAR EGKK 201020Z 02009KT 340V070 CAVOK 18/08 Q1014=
202405201050 METAR EGKK 201050Z 03009KT 340V070 CAVOK 18/08 Q1014=
202405201120 METAR EGKK 201120Z 07010KT CAVOK 19/09 Q1014=
202405201150 METAR EGKK 201150Z 06011KT 010V090 CAVOK 19/09 Q1013=
202405201220 METAR EGKK 201220Z 05010KT 360V080 CAVOK 19/09 Q1013=
202405201250 METAR EGKK 201250Z 07009KT CAVOK 20/09 Q1013=
202405201320 METAR EGKK 201320Z 03009G20KT 310V120 9999 FEW048 20/08 Q1013=
202405201350 METAR EGKK 201350Z 07010KT CAVOK 20/09 Q1012=
202405201420 METAR EGKK 201420Z 06009KT 020V110 9999 FEW044 20/09 Q1012=
202405201450 METAR EGKK 201450Z 08009KT 040V100 9999 FEW048 20/09 Q1012=
202405201520 METAR EGKK 201520Z 05010KT 020V120 CAVOK 20/07 Q1012=
202405201550 METAR EGKK 201550Z 05009KT 030V090 9999 FEW045 20/08 Q1012=
202405201620 METAR EGKK 201620Z 07008KT 050V110 9999 FEW048 20/09 Q1011=
202405201650 METAR EGKK 201650Z 08008KT CAVOK 19/08 Q1011=
202405201720 METAR EGKK 201720Z 07008KT CAVOK 19/08 Q1011=
202405201750 METAR EGKK 201750Z 06009KT CAVOK 19/09 Q1011=
202405201820 METAR EGKK 201820Z 07008KT CAVOK 18/09 Q1011=
202405201850 METAR EGKK 201850Z 07007KT CAVOK 18/11 Q1011=
202405201920 METAR EGKK 201920Z 05007KT 030V100 CAVOK 17/11 Q1011=
202405201950 METAR EGKK 201950Z 08006KT CAVOK 16/11 Q1011=
202405202020 METAR EGKK 202020Z 09006KT CAVOK 15/12 Q1012=
202405202050 METAR EGKK 202050Z 07006KT CAVOK 15/12 Q1012=
202405202120 METAR EGKK 202120Z 06008KT CAVOK 14/12 Q1012=
202405202150 METAR EGKK 202150Z 05008KT CAVOK 14/12 Q1011=
202405202220 METAR EGKK 202220Z 04005KT CAVOK 13/12 Q1011=
202405202250 METAR EGKK 202250Z 03006KT 9999 FEW014 13/11 Q1011=
202405202320 METAR EGKK 202320Z 06005KT 9999 BKN012 13/12 Q1011=
202405202350 METAR EGKK 202350Z 05006KT 9999 BKN015 13/12 Q1011=
202405210020 METAR EGKK 210020Z 03005KT 9999 BKN016 13/12 Q1011=
202405210050 METAR EGKK 210050Z 04005KT 9999 BKN014 14/12 Q1010=
202405210120 METAR EGKK 210120Z 03008KT 9999 BKN017 13/11 Q1010=
202405210150 METAR EGKK 210150Z 04008KT 9999 SCT018 13/10 Q1010=
202405210220 METAR EGKK 210220Z 03007KT 9999 FEW017 12/10 Q1010=
202405210250 METAR EGKK 210250Z 01008KT CAVOK 12/10 Q1010=
202405210320 METAR EGKK 210320Z 04007KT 9999 FEW013 12/10 Q1010=
202405210350 METAR EGKK 210350Z 01007KT 9999 FEW012 12/09 Q1009=
202405210420 METAR EGKK 210420Z 04007KT 360V060 9999 BKN011 11/09 Q1009=
202405210450 METAR EGKK 210450Z 02006KT 9999 BKN010 11/10 Q1010=
202405210520 METAR EGKK 210520Z 05006KT 020V080 9999 BKN010 11/10 Q1010=
202405210550 METAR EGKK 210550Z 01007KT 320V040 9999 BKN010 12/10 Q1010=
202405210620 METAR EGKK 210620Z 03007KT 020V080 9999 OVC010 12/10 Q1009=
202405210650 METAR EGKK 210650Z 04006KT 360V060 9999 OVC009 12/10 Q1009=
202405210720 METAR EGKK 210720Z 35007KT 320V030 9999 BKN009 12/10 Q1009=
202405210750 METAR EGKK 210750Z 02006KT 350V050 9999 BKN009 12/10 Q1010=
202405210820 METAR EGKK 210820Z 02007KT 340V140 9999 OVC009 12/11 Q1010=
202405210850 METAR EGKK 210850Z 04005KT 360V070 9999 OVC009 13/11 Q1010=
202405210920 METAR EGKK 210920Z 02008KT 360V100 9999 BKN009 13/11 Q1009=
202405210950 METAR EGKK 210950Z 02007KT 350V060 9999 BKN009 13/11 Q1009=
202405211020 METAR EGKK 211020Z 04007KT 010V080 9999 -RA OVC008 12/11 Q1009=
202405211050 METAR EGKK 211050Z VRB06KT 9999 -RA OVC008 13/11 Q1009=
202405211120 METAR EGKK 211120Z 36005KT 310V040 9999 -RA BKN008 13/12 Q1009=
202405211150 METAR EGKK 211150Z 01005KT 330V060 9999 -RA BKN008 13/12 Q1009=
202405211220 METAR EGKK 211220Z 01004KT 330V050 9000 -RA BKN010 13/12 Q1009=
202405211250 METAR EGKK 211250Z 30005KT 260V340 9000 -RA BKN008 BKN016 13/12 Q1009=
202405211320 METAR EGKK 211320Z 32005KT 220V360 9999 -RA FEW007 BKN015 14/13 Q1009=
202405211350 METAR EGKK 211350Z VRB05KT 9999 -RA SCT007 BKN016 13/12 Q1009=
202405211420 METAR EGKK 211420Z 32005KT 230V350 9000 -RA SCT007 BKN016 14/13 Q1009=
202405211450 METAR EGKK 211450Z 30005KT 180V350 8000 -RA SCT006 BKN018 13/13 Q1009=
202405211520 METAR EGKK 211520Z 32005G15KT 220V350 9999 -RA FEW006 BKN016 14/13 Q1009=
202405211550 METAR EGKK 211550Z VRB05KT 9999 -RA SCT006 14/13 Q1009=
202405211620 METAR EGKK 211620Z 30005KT 210V330 9999 -RA SCT006 BKN020 14/13 Q1009=
202405211650 METAR EGKK 211650Z 31007KT 9999 SCT007 14/13 Q1008=
202405211720 METAR EGKK 211720Z 30006KT 270V340 9999 VCSH SCT007 SCT034 14/13 Q1008=
202405211750 METAR EGKK 211750Z 32006KT 9999 VCSH SCT007 BKN041 14/13 Q1008=
202405211820 METAR EGKK 211820Z 29007KT 9999 SCT007 14/13 Q1008=
202405211850 METAR EGKK 211850Z 30006KT 9999 VCSH FEW007 SCT021 BKN031 14/13 Q1008=
202405211920 METAR EGKK 211920Z 29005KT 9999 VCSH FEW009 SCT021 14/13 Q1008=
202405211950 METAR EGKK 211950Z 29005KT 9999 SCT010 BKN028 14/13 Q1008=
202405212020 METAR EGKK 212020Z 28007KT 9999 FEW009 BKN033 14/13 Q1008=
202405212050 METAR EGKK 212050Z 27005KT 9000 SCT010 BKN017 14/13 Q1008=
202405212120 METAR EGKK 212120Z 25005KT 9999 BKN012 13/13 Q1008=
202405212150 METAR EGKK 212150Z 25006KT 9999 BKN008 13/13 Q1008=
202405212220 METAR EGKK 212220Z 25005KT 9000 BKN012 13/13 Q1008=
202405212250 METAR EGKK 212250Z 25006KT 9000 SCT008 BKN010 13/13 Q1008=
202405212320 METAR EGKK 212320Z 24005KT 8000 SCT008 BKN009 13/13 Q1008=
202405212350 METAR EGKK 212350Z 25006KT 8000 BKN008 13/13 Q1008=
202405220020 METAR EGKK 220020Z 25007KT 8000 FEW008 BKN009 13/13 Q1007=
202405220050 METAR EGKK 220050Z 25005KT 9000 BKN009 13/13 Q1007=
202405220120 METAR EGKK 220120Z 24004KT 9000 BKN009 13/13 Q1007=
202405220150 METAR EGKK 220150Z 24005KT 9000 BKN007 13/13 Q1007=
202405220220 METAR EGKK 220220Z 24007KT 9999 BKN006 13/12 Q1007=
202405220250 METAR EGKK 220250Z 24006KT 9000 BKN009 13/12 Q1006=
202405220320 METAR EGKK 220320Z 23004KT 8000 BKN010 BKN017 13/12 Q1006=
202405220350 METAR EGKK 220350Z 24006KT 8000 BKN006 BKN020 13/12 Q1006=
202405220420 METAR EGKK 220420Z 24007KT 8000 BKN009 13/12 Q1006=
202405220450 METAR EGKK 220450Z 23006KT 8000 BKN012 13/12 Q1006=
202405220520 METAR EGKK 220520Z 23006KT 9000 BKN012 13/12 Q1006=
202405220550 METAR EGKK 220550Z 23006KT 9999 OVC012 13/12 Q1006=
202405220620 METAR EGKK 220620Z 23007KT 9999 BKN015 14/12 Q1006=
202405220650 METAR EGKK 220650Z 24007KT 9999 BKN011 14/13 Q1006=
202405220720 METAR COR EGKK 220720Z 24008KT 8000 3000W DZ BKN006 14/13 Q1006=
202405220750 METAR EGKK 220750Z 24008KT 5000 -RADZ BKN007 14/13 Q1006 REDZ=
202405220820 METAR EGKK 220820Z 24008KT 5000 -RADZ BKN007 14/13 Q1006=
202405220850 METAR EGKK 220850Z 25009KT 4500 -RADZ BKN007 14/13 Q1006=
202405220920 METAR EGKK 220920Z 26012KT 9999 BKN010 14/13 Q1006=
202405220950 METAR EGKK 220950Z 25010KT 9999 VCSH BKN010 14/13 Q1007=
202405221020 METAR EGKK 221020Z 25010KT 9999 BKN010 14/13 Q1007=
202405221050 METAR EGKK 221050Z 25009KT 9999 BKN013 15/13 Q1007=
202405221120 METAR EGKK 221120Z 26012KT 9999 BKN015 16/13 Q1007=
202405221150 METAR EGKK 221150Z 24011KT 9999 -SHRA SCT010 BKN021 14/13 Q1007=
202405221220 METAR EGKK 221220Z 26011KT 9999 FEW013 BKN028 16/13 Q1007=
202405221250 METAR EGKK 221250Z 25010KT 9999 FEW015 BKN030 15/13 Q1007=
202405221320 METAR EGKK 221320Z 26010KT 9999 -SHRA FEW015 SCT021 15/13 Q1007=
202405221350 METAR EGKK 221350Z 25011KT 9999 VCSH FEW012 SCT038 14/13 Q1008=
202405221420 METAR EGKK 221420Z 24011KT 210V270 9999 -DZ SCT012 15/13 Q1008=
202405221450 METAR EGKK 221450Z 24009KT 9999 -RA FEW014 15/13 Q1008=
202405221520 METAR EGKK 221520Z 23011KT 9999 SCT011 15/13 Q1008=
202405221550 METAR EGKK 221550Z 23010KT 9999 FEW010 15/13 Q1008=
202405221620 METAR EGKK 221620Z 23008KT 9999 -RA SCT009 SCT029 15/14 Q1008=
202405221650 METAR EGKK 221650Z 22008KT 9999 -RA FEW009 14/14 Q1008=
202405221720 METAR EGKK 221720Z 22009KT 9999 -RA FEW011 14/13 Q1008=
202405221750 METAR EGKK 221750Z 22007KT 9999 -RA FEW011 14/13 Q1008=
202405221820 METAR EGKK 221820Z 22007KT 9999 -RA FEW008 14/13 Q1008=
202405221850 METAR EGKK 221850Z 23009KT 9999 VCSH FEW008 14/13 Q1009=
202405221920 METAR EGKK 221920Z 22007KT 9999 VCSH FEW007 14/13 Q1009=
202405221950 METAR EGKK 221950Z 22007KT 9999 FEW007 BKN013 14/14 Q1009=
202405222020 METAR EGKK 222020Z 23006KT 9999 FEW006 14/13 Q1009=
202405222050 METAR EGKK 222050Z 23006KT 9999 FEW015 SCT027 13/13 Q1010=
202405222120 METAR EGKK 222120Z 23006KT 9999 SCT018 13/12 Q1010=
202405222150 METAR EGKK 222150Z 23006KT 9999 FEW018 13/12 Q1010=
202405222220 METAR EGKK 222220Z 22005KT CAVOK 12/12 Q1010=
202405222250 METAR EGKK 222250Z 21006KT CAVOK 12/12 Q1010=
202405222320 METAR EGKK 222320Z 21005KT CAVOK 12/12 Q1011=
202405222350 METAR EGKK 222350Z 22006KT CAVOK 12/11 Q1011=
202405230020 METAR EGKK 230020Z 22006KT CAVOK 12/11 Q1011=
202405230050 METAR EGKK 230050Z 23007KT CAVOK 12/11 Q1011=
202405230120 METAR EGKK 230120Z 22007KT CAVOK 12/11 Q1011=
202405230150 METAR EGKK 230150Z 23006KT CAVOK 12/11 Q1011=
202405230220 METAR EGKK 230220Z 22005KT CAVOK 12/11 Q1011=
202405230250 METAR EGKK 230250Z 21006KT CAVOK 12/11 Q1012=
202405230320 METAR EGKK 230320Z 21005KT CAVOK 12/11 Q1012=
202405230350 METAR EGKK 230350Z 21005KT CAVOK 12/11 Q1012=
202405230420 METAR EGKK 230420Z 24005KT 9999 FEW025 12/11 Q1012=
202405230450 METAR EGKK 230450Z 22005KT 180V250 9999 FEW025 12/11 Q1012=
202405230520 METAR EGKK 230520Z 23007KT CAVOK 12/11 Q1012=
202405230550 METAR EGKK 230550Z 24008KT 9999 SCT013 13/11 Q1013=
202405230620 METAR EGKK 230620Z 23007KT 200V260 9999 SCT012 13/11 Q1013=
202405230650 METAR EGKK 230650Z 25008KT 9999 SCT012 13/12 Q1013=
202405230720 METAR EGKK 230720Z 25008KT 9999 BKN012 14/12 Q1013=
202405230750 METAR EGKK 230750Z 28011KT 9999 BKN018 14/11 Q1013=
202405230820 METAR EGKK 230820Z 26010KT 9999 BKN018 14/11 Q1013=
202405230850 METAR EGKK 230850Z 26009KT 9999 BKN020 15/10 Q1014=
202405230920 METAR EGKK 230920Z 25009KT 9999 BKN020 14/10 Q1014=
202405230950 METAR EGKK 230950Z 25011KT 9999 BKN025 15/10 Q1014=
202405231020 METAR EGKK 231020Z 26010KT 230V290 9999 BKN024 15/10 Q1014=
202405231050 METAR EGKK 231050Z 24009KT 9999 BKN024 15/10 Q1014=
202405231120 METAR EGKK 231120Z 25009KT 9999 BKN025 16/10 Q1014=
202405231150 METAR EGKK 231150Z 27010KT 9999 BKN027 16/10 Q1014=
202405231220 METAR EGKK 231220Z 25009KT 210V290 9999 SCT027 17/10 Q1014=
202405231250 METAR EGKK 231250Z 26008KT 230V310 9999 SCT030 17/10 Q1014=
202405231320 METAR EGKK 231320Z 27011KT 9999 SCT032 18/10 Q1014=
202405231350 METAR EGKK 231350Z 25010KT 220V290 9999 FEW036 18/09 Q1014=
202405231420 METAR EGKK 231420Z 29010KT 9999 FEW036 18/09 Q1014=
202405231450 METAR EGKK 231450Z 28012KT 9999 FEW036 18/09 Q1014=
202405231520 METAR EGKK 231520Z 26009KT 230V300 9999 FEW039 18/09 Q1014=
202405231550 METAR EGKK 231550Z 27010KT 240V310 9999 FEW040 18/09 Q1014=
202405231620 METAR EGKK 231620Z 29012KT 9999 FEW039 18/08 Q1014=
202405231650 METAR EGKK 231650Z 28010KT 9999 FEW039 18/09 Q1014=
202405231720 METAR EGKK 231720Z 27010KT CAVOK 17/09 Q1014=
202405231750 METAR EGKK 231750Z 27011KT 9999 FEW045 17/08 Q1014=
202405231820 METAR EGKK 231820Z 27011KT 9999 FEW041 16/08 Q1015=
202405231850 METAR EGKK 231850Z 27011KT 9999 FEW045 15/07 Q1015=
202405231920 METAR EGKK 231920Z 27008KT CAVOK 15/07 Q1015=
202405231950 METAR EGKK 231950Z 25006KT CAVOK 13/07 Q1016=
202405232020 METAR EGKK 232020Z 25005KT CAVOK 12/07 Q1016=
202405232050 METAR EGKK 232050Z 26006KT CAVOK 11/07 Q1016=
202405232120 METAR EGKK 232120Z 24004KT CAVOK 11/07 Q1016=
202405232150 METAR EGKK 232150Z 23003KT CAVOK 11/08 Q1017=
202405232220 METAR EGKK 232220Z 22003KT CAVOK 10/08 Q1017=
202405232250 METAR EGKK 232250Z 22003KT CAVOK 10/08 Q1017=
202405232320 METAR EGKK 232320Z 21004KT CAVOK 10/08 Q1017=
202405232350 METAR EGKK 232350Z 21005KT CAVOK 10/08 Q1017=
202405240020 METAR EGKK 240020Z 21004KT CAVOK 09/08 Q1017=
202405240050 METAR EGKK 240050Z 20003KT CAVOK 09/07 Q1017=
202405240120 METAR EGKK 240120Z 22003KT 200V280 CAVOK 08/07 Q1017=
202405240150 METAR EGKK 240150Z VRB01KT CAVOK 08/07 Q1017=
202405240220 METAR EGKK 240220Z VRB02KT CAVOK 07/07 Q1017=
202405240250 METAR EGKK 240250Z VRB01KT CAVOK 07/06 Q1017=
202405240320 METAR EGKK 240320Z 11001KT 9999 FEW032 07/06 Q1018=
202405240350 METAR EGKK 240350Z VRB01KT 9999 SCT033 07/07 Q1018=
202405240420 METAR EGKK 240420Z 21001KT CAVOK 07/07 Q1018=
202405240450 METAR EGKK 240450Z 24003KT 180V270 CAVOK 07/06 Q1018=
202405240520 METAR EGKK 240520Z VRB02KT CAVOK 08/07 Q1018=
202405240550 METAR EGKK 240550Z VRB02KT CAVOK 10/07 Q1018=
202405240620 METAR EGKK 240620Z 23003KT 190V310 CAVOK 11/08 Q1018=
202405240650 METAR EGKK 240650Z VRB02KT CAVOK 12/08 Q1019=
202405240720 METAR EGKK 240720Z 21003KT 170V280 CAVOK 13/08 Q1019=
202405240750 METAR EGKK 240750Z 24006KT 9999 FEW045 14/07 Q1019=
202405240820 METAR EGKK 240820Z 23007KT 190V270 9999 FEW028 14/08 Q1019=
202405240850 METAR EGKK 240850Z 24006KT 9999 FEW028 15/08 Q1019=
202405240920 METAR EGKK 240920Z 26008KT 9999 SCT030 15/08 Q1019=
202405240950 METAR EGKK 240950Z 24006KT 200V290 9999 SCT032 16/07 Q1019=
202405241020 METAR EGKK 241020Z 27005KT 240V320 9999 SCT036 16/06 Q1019=
202405241050 METAR EGKK 241050Z 25003KT 160V310 9999 SCT035 16/07 Q1019=
202405241120 METAR EGKK 241120Z 21006KT 160V260 9999 FEW034 SCT049 16/08 Q1019=
202405241150 METAR EGKK 241150Z 23006KT 190V280 9999 FEW035 SCT047 17/07 Q1019=
202405241220 METAR EGKK 241220Z 27007KT 220V300 9999 SCT041 17/07 Q1019=
202405241250 METAR EGKK 241250Z 30005KT 230V360 9999 SCT042 16/07 Q1019=
202405241320 METAR EGKK 241320Z 20005KT 140V280 9999 SCT041 18/08 Q1019=
202405241350 METAR EGKK 241350Z 19008KT 160V220 9999 FEW033 17/09 Q1019=
202405241420 METAR EGKK 241420Z 22007KT 150V290 9999 SCT033 18/09 Q1019=
202405241450 METAR EGKK 241450Z 23006KT 150V270 9999 SCT035 17/09 Q1019=
202405241520 METAR EGKK 241520Z 22008KT 180V260 9999 SCT033 18/09 Q1019=
202405241550 METAR EGKK 241550Z 20008KT 150V240 9999 FEW033 17/09 Q1019=
202405241620 METAR EGKK 241620Z 23009KT 190V260 9999 FEW037 18/09 Q1018=
202405241650 METAR EGKK 241650Z 23009KT 9999 FEW034 17/08 Q1018=
202405241720 METAR EGKK 241720Z 23008KT 9999 FEW034 17/08 Q1018=
202405241750 METAR EGKK 241750Z 24007KT 9999 FEW034 17/08 Q1019=
202405241820 METAR EGKK 241820Z 24006KT 9999 FEW048 16/08 Q1019=
202405241850 METAR EGKK 241850Z 24005KT CAVOK 16/08 Q1019=
202405241920 METAR EGKK 241920Z 24005KT CAVOK 15/08 Q1019=
202405241950 METAR EGKK 241950Z 23004KT 9999 FEW048 14/08 Q1019=
202405242020 METAR EGKK 242020Z 22004KT 9999 FEW049 14/07 Q1019=
202405242050 METAR EGKK 242050Z 20004KT 9999 SCT046 14/07 Q1019=
202405242120 METAR EGKK 242120Z 20004KT 9999 BKN046 14/07 Q1019=
202405242150 METAR EGKK 242150Z 22004KT 9999 BKN044 13/08 Q1019=
202405242220 METAR EGKK 242220Z 23004KT 9999 BKN043 BKN049 12/08 Q1019=
202405242250 METAR EGKK 242250Z VRB02KT 9999 BKN043 12/08 Q1019=
202405242320 METAR EGKK 242320Z VRB02KT 9999 BKN044 12/08 Q1019=
202405242350 METAR EGKK 242350Z 24002KT 9999 BKN042 12/07 Q1019=
202405250020 METAR EGKK 250020Z VRB01KT 9999 FEW043 11/07 Q1019=
202405250050 METAR EGKK 250050Z VRB01KT 9999 BKN042 10/07 Q1019=
202405250120 METAR EGKK 250120Z VRB01KT 9999 BKN042 10/07 Q1019=
202405250150 METAR EGKK 250150Z 00000KT 9999 FEW042 09/07 Q1019=
202405250220 METAR EGKK 250220Z VRB02KT CAVOK 08/07 Q1019=
202405250250 METAR EGKK 250250Z 10002KT 9999 FEW036 07/07 Q1019=
202405250320 METAR COR EGKK 250320Z 07001KT 9999 SCT036 08/07 Q1018=
202405250350 METAR EGKK 250350Z 09003KT 9999 SCT036 07/06 Q1018=
202405250420 METAR EGKK 250420Z VRB02KT 9999 SCT036 08/07 Q1018=
202405250450 METAR EGKK 250450Z 08004KT 9999 FEW036 07/07 Q1018=
202405250520 METAR EGKK 250520Z 11003KT 9999 BKN036 09/08 Q1018=
202405250550 METAR EGKK 250550Z 10004KT 9999 FEW036 09/08 Q1018=
202405250620 METAR EGKK 250620Z VRB02KT CAVOK 11/09 Q1018=
202405250650 METAR EGKK 250650Z VRB01KT 9999 FEW036 13/09 Q1018=
202405250720 METAR EGKK 250720Z VRB02KT 9999 FEW035 14/10 Q1018=
202405250750 METAR EGKK 250750Z VRB02KT 9999 FEW035 15/09 Q1018=
202405250820 METAR EGKK 250820Z VRB02KT 9999 FEW028 16/09 Q1018=
202405250850 METAR EGKK 250850Z VRB04KT 9999 FEW032 16/08 Q1018=
202405250920 METAR EGKK 250920Z VRB03KT 9999 FEW037 16/08 Q1018=
202405250950 METAR EGKK 250950Z VRB03KT 9999 FEW036 16/08 Q1017=
202405251020 METAR EGKK 251020Z 21004KT 160V260 9999 FEW036 17/07 Q1017=
202405251050 METAR EGKK 251050Z 17003KT 070V220 9999 SCT040 17/08 Q1017=
202405251120 METAR EGKK 251120Z VRB02KT 9999 SCT047 18/07 Q1017=
202405251150 METAR EGKK 251150Z VRB04KT 9999 SCT046 19/07 Q1017=
202405251220 METAR EGKK 251220Z 23006KT 160V290 9999 SCT047 19/07 Q1017=
202405251250 METAR EGKK 251250Z VRB04KT 9999 SCT047 18/07 Q1016=
202405251320 METAR EGKK 251320Z 27004KT 240V320 9999 SCT047 18/08 Q1016=
202405251350 METAR EGKK 251350Z 22008KT 180V260 9999 SCT046 19/08 Q1016=
202405251420 METAR EGKK 251420Z 24006KT 9999 FEW049 18/07 Q1016=
202405251450 METAR EGKK 251450Z 19007KT 120V240 9999 FEW049 19/07 Q1016=
202405251520 METAR EGKK 251520Z 18006KT 120V240 9999 FEW049 19/07 Q1015=
202405251550 METAR EGKK 251550Z 21008KT 9999 FEW049 19/07 Q1015=
202405251620 METAR EGKK 251620Z 24004KT 150V300 9999 FEW047 19/08 Q1015=
202405251650 METAR EGKK 251650Z 22005KT 160V280 9999 FEW048 19/08 Q1015=
202405251720 METAR EGKK 251720Z 23005KT 180V260 CAVOK 18/08 Q1015=
202405251750 METAR EGKK 251750Z 21004KT 180V240 CAVOK 18/08 Q1015=
202405251820 METAR EGKK 251820Z 20003KT 160V230 CAVOK 18/08 Q1014=
202405251850 METAR EGKK 251850Z 16004KT 130V200 CAVOK 17/08 Q1014=
202405251920 METAR EGKK 251920Z 16004KT 130V200 CAVOK 17/08 Q1014=
202405251950 METAR EGKK 251950Z 16004KT CAVOK 16/08 Q1014=
202405252020 METAR EGKK 252020Z 14003KT 110V170 CAVOK 16/09 Q1014=
202405252050 METAR EGKK 252050Z 14005KT 110V170 CAVOK 16/09 Q1014=
202405252120 METAR EGKK 252120Z 15004KT CAVOK 15/09 Q1014=
202405252150 METAR EGKK 252150Z 14006KT 110V170 CAVOK 15/08 Q1014=
202405252220 METAR EGKK 252220Z 14005KT 100V180 CAVOK 15/09 Q1014=
202405252250 METAR EGKK 252250Z 10005KT 060V130 CAVOK 14/09 Q1013=
202405252320 METAR EGKK 252320Z 08005KT CAVOK 14/09 Q1013=
202405252350 METAR EGKK 252350Z VRB02KT 9999 -RA NSC 14/10 Q1013=
202405260020 METAR EGKK 260020Z 20006KT 160V240 8000 -RA FEW020 13/11 Q1014=
202405260050 METAR EGKK 260050Z VRB02KT 9999 -RA NSC 13/12 Q1013=
202405260120 METAR EGKK 260120Z 03005KT 9999 -RA NSC 12/12 Q1012=
202405260150 METAR EGKK 260150Z 06004KT 9999 -RA NSC 12/12 Q1012=
202405260220 METAR EGKK 260220Z 07006KT 9000 -RA FEW005 SCT028 12/12 Q1012=
202405260250 METAR EGKK 260250Z 14004KT 110V180 9999 -RA FEW005 BKN045 12/12 Q1012=
202405260320 METAR EGKK 260320Z 10003KT 9999 -RA SCT031 12/12 Q1011=
202405260350 METAR EGKK 260350Z 09004KT 9999 -RA BKN032 12/12 Q1011=
202405260420 METAR EGKK 260420Z 11006KT 9999 -RA BKN023 12/12 Q1011=
202405260450 METAR EGKK 260450Z 12005KT 9999 BKN035 12/12 Q1011=
202405260520 METAR EGKK 260520Z 12003KT 9999 FEW018 BKN034 12/12 Q1011=
202405260550 METAR EGKK 260550Z VRB02KT 9999 FEW009 BKN030 13/12 Q1011=
202405260620 METAR EGKK 260620Z VRB02KT 9999 FEW007 BKN027 13/12 Q1011=
202405260650 METAR EGKK 260650Z VRB03KT 9999 SCT007 BKN024 14/13 Q1011=
202405260720 METAR EGKK 260720Z 16006KT 130V220 9999 SCT008 BKN022 14/13 Q1011=
202405260750 METAR EGKK 260750Z 16008KT 120V220 9999 SCT009 BKN015 15/13 Q1011=
202405260820 METAR EGKK 260820Z 19007KT 140V230 9999 SCT010 BKN019 15/14 Q1011=
202405260850 METAR EGKK 260850Z 21008KT 150V230 9999 SCT015 BKN026 15/13 Q1011=
202405260920 METAR EGKK 260920Z 20007KT 160V240 9999 SCT013 SCT017 16/13 Q1011=
202405260950 METAR EGKK 260950Z 22009KT 160V240 9999 SCT018 SCT041 16/11 Q1011=
202405261020 METAR EGKK 261020Z 21009KT 170V240 9999 SCT039 17/12 Q1011=
202405261050 METAR EGKK 261050Z 19011KT 9999 SCT027 17/11 Q1011=
202405261120 METAR EGKK 261120Z 23011KT 9999 SCT028 17/11 Q1012=
202405261150 METAR EGKK 261150Z 22013KT 180V250 9999 SCT031 18/10 Q1012=
202405261220 METAR EGKK 261220Z 22013KT 9999 SCT031 18/10 Q1012=
202405261250 METAR EGKK 261250Z 21012KT 170V250 9999 SCT031 18/10 Q1012=
202405261320 METAR EGKK 261320Z 21011KT 170V240 9999 SCT030 18/10 Q1012=
202405261350 METAR EGKK 261350Z 22012G22KT 180V250 9999 FEW026 SCT031 18/11 Q1012=
202405261420 METAR EGKK 261420Z 22015KT 190V250 9999 SCT028 18/10 Q1012=
202405261450 METAR EGKK 261450Z 22013G24KT 190V260 9999 SCT029 18/10 Q1012=
202405261520 METAR EGKK 261520Z 22013KT 190V260 9999 SCT030 17/10 Q1012=
202405261550 METAR EGKK 261550Z 23013KT 9999 SCT032 17/10 Q1012=
202405261620 METAR EGKK 261620Z 22014KT 9999 SCT031 17/10 Q1012=
202405261650 METAR EGKK 261650Z 23013KT 9999 FEW034 17/09 Q1012=
202405261720 METAR EGKK 261720Z 24013KT 9999 FEW032 17/09 Q1012=
202405261750 METAR EGKK 261750Z 23012KT 9999 FEW030 17/10 Q1012=
202405261820 METAR EGKK 261820Z 22012KT 190V250 9999 SCT035 16/09 Q1013=
202405261850 METAR EGKK 261850Z 23009KT 9999 SCT036 15/09 Q1013=
202405261920 METAR EGKK 261920Z 23009KT 9999 FEW029 14/09 Q1013=
202405261950 METAR EGKK 261950Z 22007KT 9999 FEW028 14/10 Q1013=
202405262020 METAR EGKK 262020Z 21006KT 9999 FEW028 14/10 Q1014=
202405262050 METAR EGKK 262050Z 21006KT 9999 FEW021 13/10 Q1014=
202405262120 METAR EGKK 262120Z 22007KT CAVOK 13/10 Q1014=
202405262150 METAR EGKK 262150Z 22006KT CAVOK 13/10 Q1014=
202405262220 METAR EGKK 262220Z 21006KT CAVOK 12/10 Q1014=
202405262250 METAR EGKK 262250Z 21006KT CAVOK 12/10 Q1014=
202405262320 METAR EGKK 262320Z 21006KT CAVOK 12/10 Q1014=
202405262350 METAR EGKK 262350Z 21005KT 9999 FEW016 11/10 Q1014=
202405270020 METAR EGKK 270020Z 22004KT 9999 FEW018 11/10 Q1014=
202405270050 METAR EGKK 270050Z 21004KT 9999 FEW042 11/10 Q1014=
202405270120 METAR EGKK 270120Z 20004KT CAVOK 11/10 Q1015=
202405270150 METAR EGKK 270150Z 22004KT 9999 -RA FEW048 11/10 Q1015=
202405270220 METAR EGKK 270220Z 22004KT 9999 FEW045 11/11 Q1015=
202405270250 METAR EGKK 270250Z 22005KT 9999 FEW032 12/11 Q1015=
202405270320 METAR EGKK 270320Z 23006KT CAVOK 12/10 Q1015=
202405270350 METAR EGKK 270350Z 22004KT CAVOK 11/09 Q1015=
202405270420 METAR EGKK 270420Z 22006KT CAVOK 11/09 Q1015=
202405270450 METAR EGKK 270450Z 22005KT 9999 FEW035 11/09 Q1015=
202405270520 METAR EGKK 270520Z 24005KT 9999 FEW035 10/09 Q1015=
202405270550 METAR EGKK 270550Z 23005KT CAVOK 11/09 Q1015=
202405270620 METAR EGKK 270620Z 22006KT CAVOK 12/09 Q1015=
202405270650 METAR EGKK 270650Z 22006KT 9999 FEW035 12/09 Q1015=
202405270720 METAR EGKK 270720Z 24006KT 210V270 9999 FEW017 13/10 Q1015=
202405270750 METAR EGKK 270750Z 22008KT 190V250 9999 FEW016 SCT021 14/09 Q1016=
202405270820 METAR EGKK 270820Z 23010KT 200V260 9999 -SHRA SCT021 12/09 Q1016=
202405270850 METAR EGKK 270850Z 22006KT 9999 FEW023 12/09 Q1016=
202405270920 METAR EGKK 270920Z 23010KT 200V260 9999 FEW020 14/09 Q1016=
202405270950 METAR EGKK 270950Z 23011KT 9999 FEW026 14/08 Q1015=
202405271020 METAR EGKK 271020Z 24009KT 9999 FEW030 15/08 Q1016=
202405271050 METAR EGKK 271050Z 23013KT 9999 VCSH SCT027 13/08 Q1016=
202405271120 METAR EGKK 271120Z 24009KT 180V260 9999 FEW031 15/08 Q1016=
202405271150 METAR EGKK 271150Z 21010KT 180V250 9999 FEW034 16/07 Q1016=
202405271220 METAR EGKK 271220Z 24009KT 200V270 9999 FEW042 16/07 Q1015=
202405271250 METAR EGKK 271250Z 23011KT 190V250 9999 FEW035 16/08 Q1015=
202405271320 METAR EGKK 271320Z 22012KT 190V250 9999 SCT033 16/07 Q1015=
202405271350 METAR EGKK 271350Z 22012KT 190V250 9999 SCT032 16/08 Q1015=
202405271420 METAR EGKK 271420Z 22012KT 190V260 9999 SCT033 15/07 Q1015=
202405271450 METAR EGKK 271450Z 23012G22KT 190V260 9999 VCSH SCT037CB BKN045 16/07 Q1015=
202405271520 METAR EGKK 271520Z 23010KT 190V260 9999 VCSH SCT036 15/07 Q1015=
202405271550 METAR EGKK 271550Z 25011KT 9999 FEW020 SCT033 13/10 Q1016=
202405271620 METAR EGKK 271620Z 23008KT 200V260 9999 FEW020 SCT035 14/09 Q1016=
202405271650 METAR EGKK 271650Z 24013KT 9999 FEW020 15/08 Q1016=
202405271720 METAR EGKK 271720Z 23010KT 9999 FEW022 14/08 Q1016=
202405271750 METAR EGKK 271750Z 22007KT 9999 FEW040 14/08 Q1016=
202405271820 METAR EGKK 271820Z 24008KT 9999 FEW040 14/08 Q1016=
202405271850 METAR EGKK 271850Z 23008KT 9999 FEW031 SCT038 13/08 Q1016=
202405271920 METAR EGKK 271920Z 25004KT 200V300 9999 FEW025 13/09 Q1016=
202405271950 METAR EGKK 271950Z 22003KT 180V240 CAVOK 12/08 Q1016=
202405272020 METAR EGKK 272020Z 21002KT CAVOK 12/08 Q1016=
202405272050 METAR EGKK 272050Z 20005KT CAVOK 12/09 Q1016=
202405272120 METAR EGKK 272120Z 21005KT 170V240 CAVOK 12/09 Q1017=
202405272150 METAR EGKK 272150Z 21004KT CAVOK 12/09 Q1017=
202405272220 METAR EGKK 272220Z 20005KT CAVOK 11/09 Q1016=
202405272250 METAR EGKK 272250Z 21005KT CAVOK 11/09 Q1016=
202405272320 METAR EGKK 272320Z 20005KT CAVOK 11/10 Q1016=
202405272350 METAR EGKK 272350Z 20004KT CAVOK 11/10 Q1016=
202405280020 METAR EGKK 280020Z 19005KT CAVOK 11/10 Q1016=
202405280050 METAR EGKK 280050Z 19004KT 9999 FEW014 11/10 Q1016=
202405280120 METAR EGKK 280120Z 19003KT 9999 FEW014 11/10 Q1016=
202405280150 METAR EGKK 280150Z 16003KT 140V210 9999 FEW016 SCT029 11/10 Q1016=
202405280220 METAR EGKK 280220Z 16003KT 9999 FEW018 BKN024 11/10 Q1016=
202405280250 METAR EGKK 280250Z 16003KT 120V220 9999 FEW015 SCT024 12/11 Q1015=
202405280320 METAR EGKK 280320Z 16004KT 130V200 9999 FEW016 SCT025 12/11 Q1015=
202405280350 METAR EGKK 280350Z 16004KT 9000 BKN015 12/11 Q1015=
202405280420 METAR EGKK 280420Z 17005KT 140V200 4000 -DZ BKN006 12/11 Q1015=
202405280450 METAR EGKK 280450Z 16006KT 120V200 9000 -DZ FEW005 BKN008 12/12 Q1014=
202405280520 METAR EGKK 280520Z 16007KT 7000 -DZ BKN006 12/12 Q1014=
202405280550 METAR EGKK 280550Z 15005KT 120V190 3300 -RADZ BKN004 12/12 Q1014=
202405280620 METAR EGKK 280620Z 16006KT 3300 -RADZ BKN005 13/12 Q1014=
202405280650 METAR EGKK 280650Z 16005KT 130V200 3400 -DZ BKN005 13/13 Q1014=
202405280720 METAR EGKK 280720Z 18006KT 140V210 4500 -DZ BKN006 13/13 Q1014=
202405280750 METAR EGKK 280750Z 16007KT 4200 -RADZ BKN005 13/13 Q1013=
202405280820 METAR EGKK 280820Z 16007KT 130V190 9999 -RA BKN007 13/13 Q1013=
202405280850 METAR EGKK 280850Z 17005KT 140V200 9999 -RA BKN006 14/14 Q1013=
202405280920 METAR EGKK 280920Z 21007KT 170V230 8000 BKN007 15/14 Q1013=
202405280950 METAR EGKK 280950Z 21007KT 180V240 9999 BKN008 15/15 Q1013=
202405281020 METAR EGKK 281020Z 22008KT 200V260 9999 BKN009 16/15 Q1013=
202405281050 METAR EGKK 281050Z 22009KT 9999 -SHRA BKN010 16/15 Q1013=
202405281120 METAR EGKK 281120Z 23009KT 9000 -RA BKN009 16/15 Q1013=
202405281150 METAR EGKK 281150Z 22011KT 180V240 9999 BKN010 16/15 Q1012=
202405281220 METAR EGKK 281220Z 22013KT 190V250 9999 BKN011 16/15 Q1012=
202405281250 METAR EGKK 281250Z 22011KT 9999 BKN013 17/14 Q1012=
202405281320 METAR EGKK 281320Z 22015G25KT 180V250 9999 BKN017 17/13 Q1012=
202405281350 METAR EGKK 281350Z 23014KT 190V260 9999 BKN012 16/13 Q1012=
202405281420 METAR EGKK 281420Z 22015KT 9999 BKN009 15/14 Q1012=
202405281450 METAR EGKK 281450Z 23013G23KT 7000 VCSH BKN007 15/14 Q1012=
202405281520 METAR EGKK 281520Z 22014KT 9999 VCSH BKN008 15/14 Q1012=
202405281550 METAR EGKK 281550Z 22014KT 9999 BKN007 15/14 Q1011=
202405281620 METAR EGKK 281620Z 23014KT 7000 -RA BKN007 15/14 Q1011=
202405281650 METAR EGKK 281650Z 22011KT 8000 -RA BKN006 15/14 Q1011=
202405281720 METAR EGKK 281720Z 22013KT 7000 -RA BKN006 14/14 Q1011=
202405281750 METAR EGKK 281750Z 21011KT 6000 -RA BKN007 14/14 Q1011=
202405281820 METAR EGKK 281820Z 22011KT 8000 -RA BKN007 14/14 Q1011=
202405281850 METAR EGKK 281850Z 22012KT 180V240 7000 -RA BKN006 14/14 Q1010=
202405281920 METAR EGKK 281920Z 22013KT 8000 BKN005 14/14 Q1010=
202405281950 METAR EGKK 281950Z 22012KT 190V250 6000 BKN005 14/14 Q1010=
202405282020 METAR EGKK 282020Z 22011KT 6000 -RA BKN004 14/14 Q1010=
202405282050 METAR EGKK 282050Z 22010KT 190V250 7000 BKN005 14/14 Q1010=
202405282120 METAR EGKK 282120Z 22011G23KT 7000 BKN005 14/14 Q1010=
202405282150 METAR EGKK 282150Z 23011KT 7000 BKN005 14/14 Q1010=
202405282220 METAR EGKK 282220Z 23010KT 7000 BKN005 14/14 Q1010=
202405282250 METAR EGKK 282250Z 23011KT 7000 BKN004 14/14 Q1010=
202405282320 METAR EGKK 282320Z 24009KT 4000 -RADZ BKN004 14/14 Q1010=
202405282350 METAR EGKK 282350Z 24009KT 210V270 9999 SCT008 14/14 Q1010=
202405290020 METAR EGKK 290020Z 22007KT 9999 SCT009 14/14 Q1010=
202405290050 METAR EGKK 290050Z 23008KT 9999 SCT010 SCT022 14/14 Q1010=
202405290120 METAR EGKK 290120Z 24007KT 9999 SCT010 SCT021 14/13 Q1010=
202405290150 METAR EGKK 290150Z 23006KT 9999 FEW008 SCT012 14/13 Q1010=
202405290220 METAR EGKK 290220Z 21007KT 9999 FEW012 13/13 Q1009=
202405290250 METAR EGKK 290250Z 22007KT 9999 SCT033 13/13 Q1010=
202405290320 METAR EGKK 290320Z 23007KT 9000 FEW020 SCT030 13/13 Q1009=
202405290350 METAR EGKK 290350Z 22008KT 190V250 9000 -RA FEW008 SCT012 13/13 Q1009=
202405290420 METAR EGKK 290420Z 23008KT 9999 SCT020 13/13 Q1009=
202405290450 METAR EGKK 290450Z 23007KT 9999 FEW020 13/13 Q1009=
202405290520 METAR EGKK 290520Z 23008KT 9999 FEW023 13/13 Q1009=
202405290550 METAR EGKK 290550Z 23008KT 9999 FEW020 13/13 Q1009=
202405290620 METAR EGKK 290620Z 23009KT 9999 SCT009 14/13 Q1009=
202405290650 METAR EGKK 290650Z 23009KT 9999 SCT009 14/12 Q1009=
202405290720 METAR EGKK 290720Z 26011KT 9999 SCT011 BKN016 BKN021 15/13 Q1010=
202405290750 METAR EGKK 290750Z 26011KT 9999 SCT014 15/12 Q1010=
202405290820 METAR EGKK 290820Z 27009KT 240V310 9999 SCT016 16/12 Q1010=
202405290850 METAR EGKK 290850Z 26011KT 9999 SCT021 17/11 Q1010=
202405290920 METAR EGKK 290920Z 27011KT 250V310 9999 SCT025 17/11 Q1009=
202405290950 METAR EGKK 290950Z 27011KT 9999 FEW034 17/10 Q1009=
202405291020 METAR EGKK 291020Z 28010KT 9999 SCT032 18/10 Q1009=
202405291050 METAR EGKK 291050Z 25010KT 9999 SCT033 18/10 Q1009=
202405291120 METAR EGKK 291120Z 26009KT 240V300 CAVOK 18/10 Q1009=
202405291150 METAR EGKK 291150Z 26008KT 220V310 9999 SCT040 19/10 Q1009=
202405291220 METAR EGKK 291220Z 25009KT 210V280 9999 SCT039 18/09 Q1009=
202405291250 METAR EGKK 291250Z 25008KT 210V280 9999 SCT038 18/10 Q1009=
202405291320 METAR EGKK 291320Z 26007KT 220V300 9999 FEW032 19/10 Q1009=
202405291350 METAR EGKK 291350Z 28011KT 9999 FEW038 19/09 Q1008=
202405291420 METAR EGKK 291420Z 27008KT 230V310 9999 FEW036 19/09 Q1008=
202405291450 METAR EGKK 291450Z 29009KT 9999 FEW040 19/10 Q1008=
202405291520 METAR EGKK 291520Z 29008KT 9999 FEW044 19/09 Q1008=
202405291550 METAR EGKK 291550Z 28007KT 240V310 9999 FEW043 19/10 Q1008=
202405291620 METAR EGKK 291620Z 30011KT 9999 FEW042 18/09 Q1008=
202405291650 METAR EGKK 291650Z 29009KT 9999 FEW040 18/09 Q1008=
202405291720 METAR EGKK 291720Z 27007KT 9999 FEW040 18/10 Q1008=
202405291750 METAR EGKK 291750Z 31010KT 9999 FEW040 18/09 Q1008=
202405291820 METAR EGKK 291820Z 30010KT 9999 FEW045 18/10 Q1008=
202405291850 METAR EGKK 291850Z 30009KT CAVOK 17/10 Q1008=
202405291920 METAR EGKK 291920Z 31007KT 280V350 CAVOK 17/10 Q1009=
202405291950 METAR EGKK 291950Z 31007KT CAVOK 16/10 Q1009=
202405292020 METAR EGKK 292020Z 28006KT 260V320 CAVOK 16/10 Q1009=
202405292050 METAR EGKK 292050Z 29007KT 270V330 9999 SCT048 15/09 Q1009=
202405292120 METAR EGKK 292120Z 29009KT CAVOK 15/10 Q1009=
202405292150 METAR EGKK 292150Z 30009KT CAVOK 15/10 Q1009=
202405292220 METAR EGKK 292220Z 29008KT CAVOK 15/10 Q1009=
202405292250 METAR EGKK 292250Z 29008KT CAVOK 15/10 Q1009=
202405292320 METAR EGKK 292320Z 29008KT CAVOK 14/10 Q1009=
202405292350 METAR EGKK 292350Z 29007KT CAVOK 14/10 Q1009=
202405300020 METAR EGKK 300020Z 30008KT CAVOK 14/10 Q1009=
202405300050 METAR EGKK 300050Z 29007KT CAVOK 13/10 Q1009=
202405300120 METAR EGKK 300120Z 28007KT CAVOK 13/10 Q1009=
202405300150 METAR EGKK 300150Z 28007KT CAVOK 13/10 Q1008=
202405300220 METAR EGKK 300220Z 28008KT CAVOK 13/10 Q1008=
202405300250 METAR EGKK 300250Z 29009KT CAVOK 13/09 Q1009=
202405300320 METAR EGKK 300320Z 28008KT CAVOK 13/09 Q1009=
202405300350 METAR EGKK 300350Z 28007KT CAVOK 13/09 Q1008=
202405300420 METAR EGKK 300420Z 30008KT CAVOK 13/09 Q1008=
202405300450 METAR EGKK 300450Z 29009KT CAVOK 13/09 Q1008=
202405300520 METAR EGKK 300520Z 29008KT CAVOK 13/09 Q1008=
202405300550 METAR EGKK 300550Z 30008KT CAVOK 13/10 Q1008=
202405300620 METAR EGKK 300620Z 29008KT 9999 FEW045 13/09 Q1009=
202405300650 METAR EGKK 300650Z 29010KT CAVOK 13/09 Q1009=
202405300720 METAR EGKK 300720Z 29009KT 9999 FEW021 13/10 Q1009=
202405300750 METAR EGKK 300750Z 29010KT 9999 SCT018 14/10 Q1009=
202405300820 METAR EGKK 300820Z 30011KT 9999 SCT016 14/10 Q1009=
202405300850 METAR EGKK 300850Z 30011KT 9999 BKN019 14/10 Q1009=
202405300920 METAR EGKK 300920Z 29010KT 9999 BKN020 15/10 Q1009=
202405300950 METAR EGKK 300950Z 30012KT 9999 VCSH SCT020 15/09 Q1009=
202405301020 METAR EGKK 301020Z 31012KT 280V340 9999 SCT027 16/09 Q1009=
202405301050 METAR EGKK 301050Z 33013KT 6000 -SHRA SCT026 BKN044 14/11 Q1010=
202405301120 METAR EGKK 301120Z 33009KT 9999 VCSH SCT021 15/11 Q1010=
202405301150 METAR EGKK 301150Z 33012KT 9999 -SHRA FEW019 BKN024 15/10 Q1010=
202405301220 METAR EGKK 301220Z 32014KT 9999 -SHRA SCT020 SCT030 BKN039 15/11 Q1010=
202405301250 METAR EGKK 301250Z 31014KT 9999 FEW017 SCT032 15/11 Q1010=
202405301320 METAR EGKK 301320Z 32011KT 290V350 9999 FEW021 SCT030 15/11 Q1010=
202405301350 METAR EGKK 301350Z 35011KT 310V030 9999 SCT028 17/10 Q1010=
202405301420 METAR EGKK 301420Z 33012KT 300V020 9999 SCT029 17/10 Q1010=
202405301450 METAR EGKK 301450Z 33013KT 9999 SCT032 18/10 Q1010=
202405301520 METAR EGKK 301520Z 30014KT 9999 SCT036 18/10 Q1010=
202405301550 METAR EGKK 301550Z 30013KT 9999 FEW044 16/11 Q1011=
202405301620 METAR EGKK 301620Z 31014KT 9999 FEW035 18/11 Q1011=
202405301650 METAR EGKK 301650Z 36014KT 9999 8000E -RA FEW012 SCT040CB 15/12 Q1012 RESHRA=
202405301720 METAR EGKK 301720Z 32007KT 9999 FEW017 FEW047CB 15/13 Q1012=
202405301750 METAR EGKK 301750Z VRB07KT 9999 SCT025 15/13 Q1012=
202405301820 METAR EGKK 301820Z 33007KT 300V360 9999 -RA FEW021 SCT029 15/12 Q1013=
202405301850 METAR EGKK 301850Z 35008KT 9999 FEW036 15/12 Q1013=
202405301920 METAR EGKK 301920Z 35005KT 310V020 9999 FEW023 15/12 Q1013=
202405301950 METAR EGKK 301950Z 33006KT 300V010 9999 FEW038 14/11 Q1014=
202405302020 METAR EGKK 302020Z 29005KT 260V340 9999 SCT026 14/12 Q1014=
202405302050 METAR EGKK 302050Z 32005KT 9999 -RA FEW020 SCT034 14/12 Q1014=
202405302120 METAR EGKK 302120Z 32006KT 270V360 9999 FEW023 SCT035 14/12 Q1015=
202405302150 METAR EGKK 302150Z 32007KT 9999 FEW024 SCT034 14/11 Q1015=
202405302220 METAR EGKK 302220Z 35006KT 320V030 9999 BKN028 14/10 Q1015=
202405302250 METAR EGKK 302250Z 35007KT 300V040 9999 BKN027 14/09 Q1015=
202405302320 METAR EGKK 302320Z 34009KT 9999 BKN025 14/09 Q1015=
202405302350 METAR EGKK 302350Z 34010KT 9999 BKN028 13/09 Q1015=
202405310020 METAR EGKK 310020Z 33009KT 300V010 9999 BKN027 13/09 Q1016=
202405310050 METAR EGKK 310050Z 34009KT 9999 BKN028 13/08 Q1016=
202405310120 METAR EGKK 310120Z 33007KT 9999 BKN027 13/08 Q1016=
202405310150 METAR EGKK 310150Z 31006KT 9999 BKN029 13/08 Q1016=
202405310220 METAR EGKK 310220Z 31008KT 9999 SCT028 13/08 Q1016=
202405310250 METAR EGKK 310250Z 32008KT 9999 FEW028 12/08 Q1016=
202405310320 METAR EGKK 310320Z 31008KT 280V340 9999 FEW029 12/08 Q1016=
202405310350 METAR EGKK 310350Z 32009KT 9999 FEW030 12/09 Q1016=
202405310420 METAR EGKK 310420Z 33010KT 9999 FEW028 12/08 Q1016=
202405310450 METAR EGKK 310450Z 32010KT 9999 FEW023 12/09 Q1016=
202405310520 METAR EGKK 310520Z 32012KT 9999 FEW025 12/09 Q1016=
202405310550 METAR EGKK 310550Z 32011KT 9999 SCT024 13/09 Q1017=
202405310620 METAR EGKK 310620Z 31012KT 9999 SCT023 13/09 Q1017=
202405310650 METAR EGKK 310650Z 32012KT 9999 SCT023 13/08 Q1017=
202405310720 METAR EGKK 310720Z 31013KT 9999 SCT022 13/08 Q1017=
202405310750 METAR EGKK 310750Z 32012KT 290V350 9999 SCT022 13/08 Q1017=
202405310820 METAR EGKK 310820Z 32014KT 9999 BKN022 13/08 Q1017=
202405310850 METAR EGKK 310850Z 33013KT 9999 -RA BKN019 12/09 Q1017=
202405310920 METAR EGKK 310920Z 33014KT 7000 -RA BKN017 12/10 Q1017=
202405310950 METAR EGKK 310950Z 33013KT 9999 SCT017 12/10 Q1018=
202405311020 METAR EGKK 311020Z 33013KT 9999 BKN018 13/10 Q1018=
202405311050 METAR EGKK 311050Z 34016KT 9999 BKN018 14/10 Q1018=
202405311120 METAR EGKK 311120Z 34017KT 9999 BKN018 14/10 Q1018=
202405311150 METAR EGKK 311150Z 34018KT 9999 BKN015 13/10 Q1018=
202405311220 METAR EGKK 311220Z 35016KT 9999 SCT013 BKN018 13/11 Q1018=
202405311250 METAR EGKK 311250Z 34014KT 9999 BKN013 14/11 Q1018=
202405311320 METAR EGKK 311320Z 34013KT 9000 -RA BKN011 13/11 Q1019=
202405311350 METAR EGKK 311350Z 34014KT 9999 BKN011 13/12 Q1019=
202405311420 METAR EGKK 311420Z 35012KT 310V010 9999 VCSH BKN010 13/11 Q1019=
202405311450 METAR EGKK 311450Z 35015KT 310V020 9999 BKN012 13/11 Q1019=
202405311520 METAR EGKK 311520Z 35013G24KT 9999 BKN012 14/11 Q1020=
202405311550 METAR EGKK 311550Z 36014KT 9999 BKN013 14/11 Q1020=
202405311620 METAR EGKK 311620Z 36014KT 9999 BKN014 14/11 Q1020=
202405311650 METAR EGKK 311650Z 35013KT 9999 BKN014 14/11 Q1020=
202405311720 METAR EGKK 311720Z 36010G20KT 330V030 9999 BKN014 14/11 Q1020=
202405311750 METAR EGKK 311750Z 36012KT 310V030 9999 BKN016 14/10 Q1021=
202405311820 METAR EGKK 311820Z 36012KT 330V040 9999 BKN015 14/10 Q1021=
202405311850 METAR EGKK 311850Z 01011KT 9999 BKN020 14/10 Q1021=
202405311920 METAR EGKK 311920Z 01011KT 330V040 9999 BKN021 14/10 Q1021=
202405311950 METAR EGKK 311950Z 01010KT 320V040 9999 BKN020 13/09 Q1022=
202405312020 METAR EGKK 312020Z 01013KT 330V040 9999 BKN021 13/09 Q1022=
202405312050 METAR EGKK 312050Z 36014KT 9999 BKN021 13/09 Q1022=
202405312120 METAR EGKK 312120Z 36012KT 9999 SCT025 13/08 Q1022=
202405312150 METAR EGKK 312150Z 36011KT 9999 SCT030 13/08 Q1022=
202405312220 METAR EGKK 312220Z 36011KT 320V030 9999 SCT031 13/08 Q1023=
202405312250 METAR EGKK 312250Z 01009KT 330V040 9999 SCT027 12/08 Q1023=
202405312320 METAR EGKK 312320Z 36008KT 320V030 9999 SCT025 12/07 Q1023=
202405312350 METAR EGKK 312350Z 35006KT 9999 FEW029 12/07 Q1023=
202406010020 METAR EGKK 010020Z 01008KT 340V040 9999 FEW031 11/07 Q1023=
202406010050 METAR EGKK 010050Z 36007KT CAVOK 11/07 Q1023=
202406010120 METAR EGKK 010120Z 36008KT CAVOK 11/07 Q1023=
202406010150 METAR EGKK 010150Z 36009KT CAVOK 10/07 Q1023=
202406010220 METAR EGKK 010220Z 36007KT CAVOK 10/07 Q1023=
202406010250 METAR EGKK 010250Z 01007KT 9999 BKN017 10/07 Q1023=
202406010320 METAR EGKK 010320Z 01006KT 9999 BKN017 10/07 Q1023=
202406010350 METAR EGKK 010350Z 34007KT 9999 BKN014 10/08 Q1023=
202406010420 METAR EGKK 010420Z 33006KT 9999 BKN015 10/08 Q1023=
202406010450 METAR EGKK 010450Z 32005KT 9999 SCT016 10/08 Q1023=
202406010520 METAR EGKK 010520Z 34007KT 310V020 9999 BKN014 10/08 Q1023=
202406010550 METAR EGKK 010550Z 36008KT 9999 BKN015 10/08 Q1023=
202406010620 METAR EGKK 010620Z 35008KT 9999 BKN018 11/08 Q1023=
202406010650 METAR EGKK 010650Z 35010KT 330V050 9999 BKN018 11/08 Q1024=
202406010720 METAR EGKK 010720Z 36011KT 9999 BKN017 12/08 Q1024=
202406010750 METAR EGKK 010750Z 01014KT 9999 BKN018 13/08 Q1024=
202406010820 METAR EGKK 010820Z 02015KT 9999 SCT020 13/07 Q1024=
202406010850 METAR EGKK 010850Z 36013KT 310V030 9999 SCT023 14/08 Q1024=
202406010920 METAR EGKK 010920Z 34014KT 9999 BKN025 15/08 Q1024=
202406010950 METAR EGKK 010950Z 36015KT 9999 BKN027 15/08 Q1024=
202406011020 METAR EGKK 011020Z 02015KT 9999 SCT030 16/08 Q1025=
202406011050 METAR EGKK 011050Z 02014KT 340V050 9999 SCT026 16/09 Q1025=
202406011120 METAR EGKK 011120Z 01014KT 9999 BKN025 BKN030 15/09 Q1025=
202406011150 METAR EGKK 011150Z 36014KT 9999 BKN025 BKN030 16/09 Q1025=
202406011220 METAR EGKK 011220Z 36013G24KT 330V090 9999 SCT025 16/09 Q1025=
202406011250 METAR EGKK 011250Z 36016G30KT 9999 SCT024 16/09 Q1025=
202406011320 METAR EGKK 011320Z 35014KT 9999 SCT028 17/09 Q1025=
202406011350 METAR EGKK 011350Z 34016G26KT 320V020 9999 SCT029 17/09 Q1025=
202406011420 METAR EGKK 011420Z 36015KT 9999 BKN030 17/09 Q1025=
202406011450 METAR EGKK 011450Z 01016KT 9999 BKN031 17/09 Q1025=
202406011520 METAR EGKK 011520Z 36015KT 9999 SCT032 17/09 Q1025=
202406011550 METAR EGKK 011550Z 36016KT 9999 SCT031 17/09 Q1025=
202406011620 METAR EGKK 011620Z VRB14KT 9999 SCT027 17/09 Q1025=
202406011650 METAR EGKK 011650Z 01013G25KT 9999 SCT028 17/09 Q1026=
202406011720 METAR EGKK 011720Z 01014KT 9999 SCT031 16/08 Q1026=
202406011750 METAR EGKK 011750Z 36012KT 9999 BKN028 15/09 Q1026=
202406011820 METAR EGKK 011820Z 01012KT 9999 SCT030 15/08 Q1026=
202406011850 METAR EGKK 011850Z 01012KT 9999 BKN029 15/08 Q1026=
202406011920 METAR EGKK 011920Z 01011KT 9999 BKN027 14/08 Q1026=
202406011950 METAR EGKK 011950Z 36010KT 9999 BKN027 14/08 Q1027=
202406012020 METAR EGKK 012020Z VRB09KT 9999 BKN026 14/08 Q1027=
202406012050 METAR EGKK 012050Z 02008KT 9999 BKN024 14/08 Q1027=
202406012120 METAR EGKK 012120Z 03008KT 360V140 9999 BKN025 13/08 Q1027=
202406012150 METAR EGKK 012150Z 02008KT 360V150 9999 BKN023 13/08 Q1027=
202406012220 METAR EGKK 012220Z 02013KT 9999 BKN025 13/08 Q1027=
202406012250 METAR EGKK 012250Z 02012KT 9999 BKN026 13/08 Q1027=
202406012320 METAR EGKK 012320Z 02014KT 9999 BKN024 13/07 Q1027=
202406012350 METAR EGKK 012350Z 02010KT 9999 BKN025 12/07 Q1027=
202406020020 METAR EGKK 020020Z 02008KT 9999 FEW023 SCT026 12/07 Q1027=
202406020050 METAR EGKK 020050Z 01007KT 9999 SCT022 12/07 Q1027=
202406020120 METAR EGKK 020120Z 02010KT 9999 BKN020 11/08 Q1027=
202406020150 METAR EGKK 020150Z 02009KT 9999 SCT018 11/08 Q1027=
202406020220 METAR EGKK 020220Z 02008KT 9999 BKN017 11/08 Q1027=
202406020250 METAR EGKK 020250Z 01007KT 340V070 9999 BKN015 11/08 Q1027=
202406020320 METAR EGKK 020320Z 02008KT 9999 BKN017 11/07 Q1027=
202406020350 METAR EGKK 020350Z 02006KT 9999 BKN016 11/08 Q1027=
202406020420 METAR EGKK 020420Z 02005KT 9999 BKN016 11/08 Q1027=
202406020450 METAR EGKK 020450Z 36010KT 9999 SCT016 11/07 Q1027=
202406020520 METAR EGKK 020520Z 02008KT 340V050 9999 SCT016 11/07 Q1027=
202406020550 METAR EGKK 020550Z 02009KT 9999 FEW015 11/07 Q1027=
202406020620 METAR EGKK 020620Z 03007KT 350V060 9999 FEW016 12/08 Q1028=
202406020650 METAR EGKK 020650Z 01009KT 9999 FEW016 12/08 Q1028=
202406020720 METAR EGKK 020720Z 01010KT CAVOK 13/08 Q1028=
202406020750 METAR EGKK 020750Z 36008KT CAVOK 14/08 Q1028=
202406020820 METAR EGKK 020820Z 01007KT CAVOK 15/09 Q1027=
202406020850 METAR EGKK 020850Z 01008KT 330V040 CAVOK 16/09 Q1027=
202406020920 METAR EGKK 020920Z 01009KT 330V040 CAVOK 17/09 Q1027=
202406020950 METAR EGKK 020950Z 02010KT 340V050 CAVOK 18/09 Q1027=
202406021020 METAR EGKK 021020Z 04010KT 360V130 9999 FEW034 18/10 Q1027=
202406021050 METAR EGKK 021050Z 36009KT 330V040 9999 FEW036 19/10 Q1027=
202406021120 METAR EGKK 021120Z 01008KT 310V060 9999 FEW037 19/10 Q1027=
202406021150 METAR EGKK 021150Z VRB07G17KT CAVOK 20/10 Q1027=
202406021220 METAR EGKK 021220Z 02009KT 340V090 9999 FEW043 20/10 Q1027=
202406021250 METAR EGKK 021250Z 02010KT 340V050 9999 FEW045 21/09 Q1026=
202406021320 METAR EGKK 021320Z 02008KT 350V060 9999 FEW047 21/10 Q1026=
202406021350 METAR COR EGKK 021350Z VRB06KT 9999 FEW048 22/09 Q1026=
202406021420 METAR EGKK 021420Z 01009KT 330V120 CAVOK 22/09 Q1025=
202406021450 METAR EGKK 021450Z 36009KT 320V050 CAVOK 22/08 Q1025=
202406021520 METAR EGKK 021520Z 34008KT 300V020 CAVOK 22/09 Q1025=
202406021550 METAR EGKK 021550Z 31010KT 270V340 CAVOK 23/09 Q1025=
202406021620 METAR EGKK 021620Z 32008KT CAVOK 22/08 Q1025=
202406021650 METAR EGKK 021650Z 34008KT 310V020 CAVOK 23/08 Q1024=
202406021720 METAR EGKK 021720Z 32009KT 280V350 CAVOK 23/07 Q1024=
202406021750 METAR EGKK 021750Z 31010KT 290V360 CAVOK 23/06 Q1024=
202406021820 METAR EGKK 021820Z VRB06KT CAVOK 21/10 Q1024=
202406021850 METAR EGKK 021850Z 19007KT CAVOK 18/12 Q1024=
202406021920 METAR EGKK 021920Z 17005KT CAVOK 17/12 Q1024=
202406021950 METAR EGKK 021950Z 16004KT 130V190 CAVOK 16/12 Q1024=
202406022020 METAR EGKK 022020Z 18005KT CAVOK 15/12 Q1024=
202406022050 METAR EGKK 022050Z 17004KT CAVOK 14/12 Q1024=
202406022120 METAR EGKK 022120Z 15003KT 110V180 CAVOK 14/11 Q1024=
202406022150 METAR EGKK 022150Z 10002KT CAVOK 13/11 Q1024=
202406022220 METAR EGKK 022220Z 08002KT CAVOK 12/11 Q1024=
202406022250 METAR EGKK 022250Z 16003KT CAVOK 12/11 Q1024=
202406022320 METAR EGKK 022320Z VRB02KT CAVOK 12/11 Q1024=
202406022350 METAR EGKK 022350Z 22002KT CAVOK 11/10 Q1024=
202406030020 METAR EGKK 030020Z VRB01KT CAVOK 11/11 Q1024=
202406030050 METAR EGKK 030050Z 19002KT CAVOK 11/10 Q1024=
202406030120 METAR EGKK 030120Z VRB02KT CAVOK 12/11 Q1024=
202406030150 METAR EGKK 030150Z VRB01KT CAVOK 11/10 Q1023=
202406030220 METAR EGKK 030220Z 26003KT 230V290 CAVOK 12/10 Q1023=
202406030250 METAR EGKK 030250Z 31004KT CAVOK 12/10 Q1023=
202406030320 METAR EGKK 030320Z VRB02KT CAVOK 11/10 Q1023=
202406030350 METAR EGKK 030350Z 20003KT 180V240 CAVOK 11/09 Q1022=
202406030420 METAR EGKK 030420Z VRB02KT CAVOK 11/10 Q1022=
202406030450 METAR EGKK 030450Z 31005KT CAVOK 12/10 Q1022=
202406030520 METAR EGKK 030520Z 30005KT 250V330 CAVOK 12/11 Q1022=
202406030550 METAR EGKK 030550Z 31004KT 250V340 CAVOK 13/11 Q1022=
202406030620 METAR EGKK 030620Z 30004KT 250V350 CAVOK 13/11 Q1022=
202406030650 METAR EGKK 030650Z 33005KT 290V030 CAVOK 14/11 Q1022=
202406030720 METAR EGKK 030720Z 32004KT 270V010 9999 FEW030 14/11 Q1022=
202406030750 METAR EGKK 030750Z 32003KT 260V350 9999 FEW030 15/12 Q1022=
202406030820 METAR EGKK 030820Z 32005KT 260V360 9999 FEW018 16/12 Q1022=
202406030850 METAR EGKK 030850Z 33005KT 290V010 9999 SCT020 17/12 Q1022=
202406030920 METAR EGKK 030920Z VRB04KT 9999 SCT020 18/13 Q1022=
202406030950 METAR EGKK 030950Z 30008KT 9999 SCT022 18/12 Q1021=
202406031020 METAR EGKK 031020Z 34007KT 310V010 9999 SCT025 SCT038 19/12 Q1021=
202406031050 METAR EGKK 031050Z 33008KT 280V030 9999 SCT028 19/12 Q1021=
202406031120 METAR EGKK 031120Z 33009KT 250V010 9999 SCT032 19/12 Q1021=
202406031150 METAR EGKK 031150Z 32007KT 300V020 9999 SCT044 19/11 Q1021=
202406031220 METAR EGKK 031220Z 33011KT 290V010 9999 SCT041 19/12 Q1021=
202406031250 METAR EGKK 031250Z 34010KT 9999 BKN043 19/12 Q1021=
202406031320 METAR EGKK 031320Z 34009KT 300V020 9999 FEW029 SCT045 19/11 Q1021=
202406031350 METAR EGKK 031350Z 35009KT 310V020 9999 FEW029 SCT045 20/12 Q1021=
202406031420 METAR EGKK 031420Z 34008KT 280V020 9999 FEW033 SCT044 20/12 Q1020=
202406031450 METAR EGKK 031450Z 34008KT 9999 SCT036 20/11 Q1020=
202406031520 METAR EGKK 031520Z 31008KT 270V340 9999 SCT042 20/11 Q1020=
202406031550 METAR EGKK 031550Z 32007KT 290V360 9999 SCT039 19/11 Q1020=
202406031620 METAR EGKK 031620Z 30006KT 270V340 9999 SCT038 19/12 Q1020=
202406031650 METAR EGKK 031650Z 31006KT 270V350 9999 SCT039 20/12 Q1020=
202406031720 METAR EGKK 031720Z 27005KT 240V310 9999 FEW031 SCT042 19/12 Q1019=
202406031750 METAR EGKK 031750Z 29005KT 250V330 9999 FEW032 SCT043 19/12 Q1019=
202406031820 METAR EGKK 031820Z 30004KT 270V350 9999 SCT042 19/12 Q1019=
202406031850 METAR EGKK 031850Z 28004KT 240V320 9999 BKN041 19/12 Q1019=
202406031920 METAR EGKK 031920Z 23003KT 190V250 9999 SCT043 19/13 Q1019=
202406031950 METAR EGKK 031950Z 22003KT 9999 SCT048 18/13 Q1018=
202406032020 METAR EGKK 032020Z 23003KT 9999 FEW045 18/13 Q1018=
202406032050 METAR EGKK 032050Z 23003KT 9999 BKN045 17/13 Q1018=
202406032120 METAR EGKK 032120Z 22003KT 9999 BKN046 17/13 Q1018=
202406032150 METAR EGKK 032150Z 22002KT CAVOK 16/13 Q1018=
202406032220 METAR EGKK 032220Z 22003KT CAVOK 15/13 Q1018=
202406032250 METAR EGKK 032250Z 23002KT CAVOK 14/12 Q1018=
202406032320 METAR EGKK 032320Z 23002KT 9999 BKN043 15/13 Q1018=
202406032350 METAR EGKK 032350Z NIL=
202406040020 METAR EGKK 040020Z VRB01KT 9999 BKN043 15/13 Q1017=
202406040050 METAR EGKK 040050Z 00000KT 9999 BKN043 14/13 Q1017=
202406040120 METAR EGKK 040120Z VRB01KT 9999 BKN042 14/13 Q1016=
202406040150 METAR EGKK 040150Z 18002KT 9999 SCT042 14/13 Q1016=
202406040220 METAR EGKK 040220Z 16001KT 9999 SCT040 14/13 Q1015=
202406040250 METAR EGKK 040250Z VRB01KT 9999 BKN041 14/13 Q1015=
202406040320 METAR EGKK 040320Z VRB01KT 9999 BKN040 14/13 Q1015=
202406040350 METAR EGKK 040350Z 18001KT 9999 BKN040 14/13 Q1015=
202406040420 METAR EGKK 040420Z 20001KT 9999 BKN039 15/13 Q1014=
202406040450 METAR EGKK 040450Z 26002KT 9999 BKN037 15/13 Q1014=
202406040520 METAR EGKK 040520Z 26002KT 9999 BKN038 15/14 Q1014=
202406040550 METAR EGKK 040550Z VRB01KT 9999 BKN038 16/14 Q1014=
202406040620 METAR EGKK 040620Z 19002KT 9999 BKN037 16/14 Q1014=
202406040650 METAR EGKK 040650Z 21005KT 9999 BKN037 17/14 Q1013=
202406040720 METAR EGKK 040720Z 22005KT 9999 BKN038 17/14 Q1013=
202406040750 METAR EGKK 040750Z 23007KT 190V270 9999 BKN038 17/14 Q1013=
202406040820 METAR EGKK 040820Z 22008KT 9999 SCT013 BKN042 17/14 Q1013=
202406040850 METAR EGKK 040850Z 23007KT 9999 SCT018 BKN042 18/14 Q1012=
202406040920 METAR EGKK 040920Z 23008KT 9999 SCT018 BKN040 18/14 Q1012=
202406040950 METAR EGKK 040950Z 23009KT 190V260 9999 SCT021 BKN041 18/13 Q1012=
202406041020 METAR EGKK 041020Z 24010KT 9999 SCT025 SCT042 18/12 Q1012=
202406041050 METAR EGKK 041050Z 24011KT 9999 SCT029 19/13 Q1011=
202406041120 METAR EGKK 041120Z 24011KT 9999 SCT029 SCT047 19/12 Q1011=
202406041150 METAR EGKK 041150Z 23011KT 9999 SCT029 SCT034 19/12 Q1011=
202406041220 METAR EGKK 041220Z 24011KT 200V270 9999 SCT031 19/12 Q1010=
202406041250 METAR EGKK 041250Z 22012KT 9999 BKN032 18/12 Q1010=
202406041320 METAR EGKK 041320Z 22011KT 9999 BKN028 19/12 Q1010=
202406041350 METAR EGKK 041350Z 23009KT 9999 BKN028 19/13 Q1009=
202406041420 METAR EGKK 041420Z 23012KT 200V260 9999 SCT026 BKN032 19/13 Q1009=
202406041450 METAR EGKK 041450Z 24013KT 9999 SCT024 BKN032 18/12 Q1009=
202406041520 METAR COR EGKK 041520Z 23011KT 9999 -RA FEW022 BKN030 17/13 Q1009=
202406041550 METAR EGKK 041550Z 24010KT 9999 -RA FEW020 BKN033 16/12 Q1009=
202406041620 METAR EGKK 041620Z 23009KT 9999 -RA FEW018 BKN027 16/13 Q1009=
202406041650 METAR EGKK 041650Z 23008KT 200V270 9999 VCSH SCT018 BKN023 16/13 Q1009=
202406041720 METAR EGKK 041720Z 23010KT 9999 SCT018 BKN042 16/13 Q1009=
202406041750 METAR EGKK 041750Z 23009KT 9999 SCT015 SCT030 16/13 Q1009=
202406041820 METAR EGKK 041820Z 23008KT 9999 FEW015 SCT035 16/13 Q1009=
202406041850 METAR EGKK 041850Z 24007KT 7000 -RA BKN018 15/13 Q1009=
202406041920 METAR EGKK 041920Z 26009KT 9999 -SHRA SCT010 SCT018 15/14 Q1009=
202406041950 METAR EGKK 041950Z 23007KT 9999 FEW011 SCT042 14/14 Q1009=
202406042020 METAR EGKK 042020Z 24008KT 9999 SCT028 14/13 Q1009=
202406042050 METAR EGKK 042050Z 25008KT 9999 BKN025 14/13 Q1010=
202406042120 METAR EGKK 042120Z 24007KT 9999 SCT023 14/13 Q1010=
202406042150 METAR EGKK 042150Z 35016KT 9999 -RA FEW015 14/12 Q1010=
202406042220 METAR EGKK 042220Z 34008KT 9999 -RA FEW018 12/10 Q1011=
202406042250 METAR EGKK 042250Z 36004KT 320V030 9999 BKN032 12/08 Q1011=
202406042320 METAR EGKK 042320Z VRB02KT 9999 -RA OVC042 12/08 Q1011=
202406042350 METAR EGKK 042350Z 32005KT CAVOK 12/09 Q1012=
202406050020 METAR EGKK 050020Z 32003KT CAVOK 11/09 Q1012=
202406050050 METAR EGKK 050050Z 25002KT CAVOK 10/09 Q1012=
202406050120 METAR EGKK 050120Z 25003KT CAVOK 10/09 Q1012=
202406050150 METAR EGKK 050150Z 30004KT CAVOK 09/08 Q1012=
202406050220 METAR EGKK 050220Z 24003KT CAVOK 09/08 Q1012=
202406050250 METAR EGKK 050250Z 18002KT CAVOK 09/08 Q1012=
202406050320 METAR EGKK 050320Z 19002KT CAVOK 09/09 Q1012=
202406050350 METAR EGKK 050350Z 24002KT CAVOK 09/08 Q1012=
202406050420 METAR EGKK 050420Z VRB02KT CAVOK 09/08 Q1013=
202406050450 METAR EGKK 050450Z VRB01KT CAVOK 09/08 Q1013=
202406050520 METAR EGKK 050520Z VRB02KT CAVOK 10/09 Q1013=
202406050550 METAR EGKK 050550Z 27003KT 240V320 CAVOK 10/09 Q1013=
202406050620 METAR EGKK 050620Z 32004KT 280V360 CAVOK 11/08 Q1014=
202406050650 METAR EGKK 050650Z 32005KT 280V350 CAVOK 12/05 Q1014=
202406050720 METAR EGKK 050720Z 33004KT 280V020 9999 FEW035 12/04 Q1014=
202406050750 METAR EGKK 050750Z 26003KT 190V360 9999 FEW028 13/06 Q1014=
202406050820 METAR EGKK 050820Z 22005KT 180V280 9999 SCT028 13/07 Q1014=
202406050850 METAR EGKK 050850Z 25008KT 220V290 9999 SCT036 14/06 Q1014=
202406050920 METAR EGKK 050920Z 28009KT 230V300 9999 FEW041 14/05 Q1014=
202406050950 METAR EGKK 050950Z 29009KT 250V330 9999 FEW049 15/03 Q1014=
202406051020 METAR EGKK 051020Z 27007KT 230V300 9999 FEW048 15/03 Q1014=
202406051050 METAR EGKK 051050Z 28011KT 250V310 CAVOK 15/03 Q1014=
202406051120 METAR EGKK 051120Z 28012KT 250V310 CAVOK 16/02 Q1014=
202406051150 METAR EGKK 051150Z 29011KT CAVOK 16/02 Q1014=
202406051220 METAR EGKK 051220Z 27012KT CAVOK 16/02 Q1014=
202406051250 METAR EGKK 051250Z 26012KT CAVOK 15/04 Q1014=
202406051320 METAR EGKK 051320Z 28013KT CAVOK 17/02 Q1014=
202406051350 METAR EGKK 051350Z 26009KT CAVOK 17/02 Q1014=
202406051420 METAR EGKK 051420Z 28010KT 250V310 CAVOK 17/01 Q1015=
202406051450 METAR EGKK 051450Z 30012KT CAVOK 16/01 Q1015=
202406051520 METAR EGKK 051520Z 27008KT 240V310 CAVOK 16/02 Q1015=
202406051550 METAR EGKK 051550Z 31009KT 270V340 CAVOK 16/02 Q1015=
202406051620 METAR EGKK 051620Z 27011KT CAVOK 16/02 Q1015=
202406051650 METAR EGKK 051650Z 28009KT 250V320 CAVOK 16/02 Q1015=
202406051720 METAR EGKK 051720Z 30008KT 270V330 CAVOK 16/02 Q1015=
202406051750 METAR EGKK 051750Z 29008KT CAVOK 15/02 Q1015=
202406051820 METAR EGKK 051820Z 27006KT 240V300 CAVOK 15/03 Q1015=
202406051850 METAR EGKK 051850Z 26006KT CAVOK 14/03 Q1015=
202406051920 METAR EGKK 051920Z 27004KT 240V300 CAVOK 14/03 Q1015=
202406051950 METAR EGKK 051950Z 23004KT CAVOK 14/03 Q1015=
202406052020 METAR EGKK 052020Z 23004KT CAVOK 13/04 Q1016=
202406052050 METAR EGKK 052050Z 22004KT CAVOK 12/04 Q1016=
202406052120 METAR EGKK 052120Z 23004KT CAVOK 12/04 Q1016=
202406052150 METAR EGKK 052150Z 23004KT CAVOK 11/04 Q1016=
202406052220 METAR EGKK 052220Z 23003KT CAVOK 11/05 Q1016=
202406052250 METAR EGKK 052250Z 23003KT CAVOK 10/05 Q1016=
202406052320 METAR EGKK 052320Z 23002KT CAVOK 10/05 Q1016=
202406052350 METAR EGKK 052350Z 22003KT 180V330 CAVOK 10/05 Q1016=
202406060020 METAR EGKK 060020Z 19002KT CAVOK 09/05 Q1016=
202406060050 METAR EGKK 060050Z 20003KT CAVOK 09/05 Q1016=
202406060120 METAR EGKK 060120Z 21003KT CAVOK 09/05 Q1016=
202406060150 METAR EGKK 060150Z 21003KT CAVOK 09/05 Q1016=
202406060220 METAR EGKK 060220Z 22003KT CAVOK 09/05 Q1016=
202406060250 METAR EGKK 060250Z 20003KT CAVOK 09/05 Q1016=
202406060320 METAR EGKK 060320Z 20003KT 160V230 CAVOK 09/05 Q1016=
202406060350 METAR EGKK 060350Z 21003KT CAVOK 09/06 Q1016=
202406060420 METAR EGKK 060420Z 25003KT CAVOK 08/06 Q1016=
202406060450 METAR EGKK 060450Z 23005KT CAVOK 09/06 Q1016=
202406060520 METAR EGKK 060520Z 23004KT CAVOK 09/06 Q1016=
202406060550 METAR EGKK 060550Z 24004KT CAVOK 09/06 Q1017=
202406060620 METAR EGKK 060620Z 23003KT 180V250 CAVOK 10/07 Q1017=
202406060650 METAR EGKK 060650Z 25004KT 220V290 CAVOK 12/07 Q1017=
202406060720 METAR EGKK 060720Z 27006KT 230V320 9999 FEW035 13/07 Q1017=
202406060750 METAR EGKK 060750Z 25008KT 230V290 9999 FEW024 14/08 Q1017=
202406060820 METAR EGKK 060820Z 27005KT 220V360 9999 FEW026 14/07 Q1017=
202406060850 METAR EGKK 060850Z 26010KT 220V290 9999 FEW028 15/07 Q1017=
202406060920 METAR EGKK 060920Z 23008KT 210V280 9999 SCT036 15/06 Q1017=
202406060950 METAR EGKK 060950Z 26007KT 190V290 9999 SCT039 16/06 Q1017=
202406061020 METAR EGKK 061020Z 24006KT 210V290 9999 SCT042 16/06 Q1017=
202406061050 METAR EGKK 061050Z 27011KT 230V290 9999 FEW028 SCT045 15/05 Q1017=
202406061120 METAR EGKK 061120Z 30009KT 9999 FEW046 16/06 Q1018=
202406061150 METAR EGKK 061150Z 25007KT 190V300 9999 FEW046 17/06 Q1018=
202406061220 METAR EGKK 061220Z 28008KT 260V320 9999 FEW042 16/06 Q1018=
202406061250 METAR EGKK 061250Z 29007KT 230V320 9999 FEW040 16/06 Q1018=
202406061320 METAR EGKK 061320Z 31006KT 270V330 CAVOK 17/06 Q1018=
202406061350 METAR EGKK 061350Z 27005KT 210V320 9999 FEW046 17/06 Q1018=
202406061420 METAR EGKK 061420Z 24007KT 200V300 9999 FEW046 17/06 Q1018=
202406061450 METAR EGKK 061450Z 22007KT 190V250 9999 FEW045 18/06 Q1017=
202406061520 METAR EGKK 061520Z 22008KT 180V250 CAVOK 17/08 Q1017=
202406061550 METAR EGKK 061550Z 21008KT 170V240 CAVOK 17/09 Q1017=
202406061620 METAR EGKK 061620Z 20007KT 170V250 CAVOK 16/08 Q1017=
202406061650 METAR EGKK 061650Z 23006KT 170V260 9999 FEW033 16/08 Q1018=
202406061720 METAR EGKK 061720Z 22007KT 9999 FEW032 16/08 Q1018=
202406061750 METAR EGKK 061750Z 23006KT 9999 FEW049 16/09 Q1018=
202406061820 METAR EGKK 061820Z 21007KT CAVOK 16/09 Q1018=
202406061850 METAR EGKK 061850Z 24007KT CAVOK 15/08 Q1018=
202406061920 METAR EGKK 061920Z 23006KT CAVOK 15/08 Q1018=
202406061950 METAR EGKK 061950Z 23004KT 200V310 CAVOK 14/08 Q1018=
202406062020 METAR EGKK 062020Z 23005KT CAVOK 14/09 Q1018=
202406062050 METAR EGKK 062050Z 21004KT CAVOK 13/09 Q1018=
202406062120 METAR EGKK 062120Z 22004KT CAVOK 13/09 Q1018=
202406062150 METAR EGKK 062150Z 23004KT CAVOK 12/09 Q1018=
202406062220 METAR EGKK 062220Z 23005KT CAVOK 12/09 Q1019=
202406062250 METAR EGKK 062250Z 24004KT CAVOK 11/09 Q1019=
202406062320 METAR EGKK 062320Z 21002KT CAVOK 11/09 Q1019=
202406062350 METAR EGKK 062350Z 21003KT CAVOK 11/08 Q1019=
202406070020 METAR EGKK 070020Z 23003KT CAVOK 11/07 Q1019=
202406070050 METAR EGKK 070050Z 23002KT CAVOK 10/07 Q1019=
202406070120 METAR EGKK 070120Z 18002KT CAVOK 10/07 Q1019=
202406070150 METAR EGKK 070150Z 22002KT CAVOK 09/07 Q1019=
202406070220 METAR EGKK 070220Z 22003KT CAVOK 09/06 Q1019=
202406070250 METAR EGKK 070250Z 24003KT CAVOK 08/06 Q1019=
202406070320 METAR EGKK 070320Z 20003KT CAVOK 08/06 Q1019=
202406070350 METAR EGKK 070350Z 20002KT CAVOK 08/06 Q1019=
202406070420 METAR EGKK 070420Z 19003KT CAVOK 08/06 Q1019=
202406070450 METAR EGKK 070450Z VRB01KT CAVOK 08/07 Q1019=
202406070520 METAR EGKK 070520Z 23003KT CAVOK 09/07 Q1019=
202406070550 METAR EGKK 070550Z 23003KT CAVOK 10/07 Q1019=
202406070620 METAR EGKK 070620Z VRB02KT CAVOK 11/06 Q1020=
202406070650 METAR EGKK 070650Z 22003KT 180V260 CAVOK 12/06 Q1020=
202406070720 METAR EGKK 070720Z 23004KT 190V260 CAVOK 13/07 Q1020=
202406070750 METAR EGKK 070750Z 25006KT 230V290 CAVOK 14/07 Q1020=
202406070820 METAR EGKK 070820Z 25008KT 9999 FEW028 15/05 Q1020=
202406070850 METAR EGKK 070850Z 27007KT 240V300 9999 FEW036 15/05 Q1020=
202406070920 METAR EGKK 070920Z 24006KT 200V280 9999 FEW040 16/06 Q1019=
202406070950 METAR EGKK 070950Z 25007KT 200V300 9999 FEW040 17/06 Q1019=
202406071020 METAR EGKK 071020Z 23008KT 180V260 9999 SCT045 17/06 Q1019=
202406071050 METAR EGKK 071050Z 25009KT 210V270 9999 SCT046 17/06 Q1020=
202406071120 METAR EGKK 071120Z 24009KT 200V270 9999 SCT044 17/07 Q1019=
202406071150 METAR EGKK 071150Z 24008KT 200V270 9999 FEW045 17/06 Q1019=
202406071220 METAR EGKK 071220Z 25009KT 200V280 9999 FEW045 17/07 Q1019=
202406071250 METAR EGKK 071250Z 24009KT 210V270 9999 FEW043 17/07 Q1019=
202406071320 METAR EGKK 071320Z 24011KT 210V270 9999 SCT043 17/08 Q1019=
202406071350 METAR EGKK 071350Z 22009KT 190V260 9999 FEW037 18/09 Q1018=
202406071420 METAR EGKK 071420Z 22009KT 200V260 9999 FEW032 SCT040 18/09 Q1018=
202406071450 METAR EGKK 071450Z 22008KT 170V250 9999 FEW036 SCT043 18/10 Q1018=
202406071520 METAR EGKK 071520Z 23010KT 9999 FEW039 SCT049 17/09 Q1018=
202406071550 METAR EGKK 071550Z 22010KT 9999 FEW042 17/09 Q1017=
202406071620 METAR EGKK 071620Z 23010KT 9999 FEW031 17/10 Q1017=
202406071650 METAR EGKK 071650Z 23009KT 180V260 9999 SCT030 17/10 Q1017=
202406071720 METAR EGKK 071720Z 23009KT 9999 FEW031 17/10 Q1017=
202406071750 METAR EGKK 071750Z 23010KT CAVOK 16/09 Q1017=
202406071820 METAR EGKK 071820Z 23008KT CAVOK 16/10 Q1017=
202406071850 METAR EGKK 071850Z 23009KT CAVOK 16/09 Q1017=
202406071920 METAR EGKK 071920Z 22007KT 180V260 CAVOK 15/10 Q1017=
202406071950 METAR EGKK 071950Z 23010KT CAVOK 15/10 Q1017=
202406072020 METAR EGKK 072020Z 23008KT CAVOK 15/10 Q1017=
202406072050 METAR EGKK 072050Z 23008KT CAVOK 14/10 Q1017=
202406072120 METAR EGKK 072120Z 23006KT CAVOK 14/10 Q1017=
202406072150 METAR EGKK 072150Z 22006KT CAVOK 13/11 Q1017=
202406072220 METAR EGKK 072220Z 21004KT CAVOK 13/11 Q1016=
202406072250 METAR EGKK 072250Z 22004KT CAVOK 13/11 Q1016=
202406072320 METAR EGKK 072320Z 23005KT 9999 FEW032 13/11 Q1016=
202406072350 METAR EGKK 072350Z 23004KT 9999 SCT048 12/11 Q1016=
202406080020 METAR EGKK 080020Z 23005KT 9999 FEW047 12/11 Q1016=
202406080050 METAR EGKK 080050Z 24006KT CAVOK 12/10 Q1015=
202406080120 METAR EGKK 080120Z 25004KT CAVOK 11/10 Q1015=
202406080150 METAR EGKK 080150Z 23003KT CAVOK 11/10 Q1015=
202406080220 METAR EGKK 080220Z 22004KT CAVOK 11/09 Q1014=
202406080250 METAR EGKK 080250Z 21005KT CAVOK 10/09 Q1014=
202406080320 METAR EGKK 080320Z 22005KT CAVOK 10/09 Q1014=
202406080350 METAR EGKK 080350Z 22005KT CAVOK 10/09 Q1014=
202406080420 METAR EGKK 080420Z 20005KT 9999 FEW037 10/09 Q1014=
202406080450 METAR EGKK 080450Z 24004KT CAVOK 10/09 Q1014=
202406080520 METAR EGKK 080520Z 22005KT 9999 FEW031 11/09 Q1013=
202406080550 METAR EGKK 080550Z 22005KT 9999 SCT027 11/09 Q1013=
202406080620 METAR EGKK 080620Z 23007KT 9999 FEW023 SCT045 12/09 Q1014=
202406080650 METAR EGKK 080650Z 23007KT 9999 FEW045 13/09 Q1013=
202406080720 METAR EGKK 080720Z 23007KT 9999 FEW048 13/09 Q1013=
202406080750 METAR EGKK 080750Z 26009KT 9999 FEW020 15/10 Q1013=
202406080820 METAR EGKK 080820Z 27008KT 240V300 9999 FEW020 16/10 Q1013=
202406080850 METAR EGKK 080850Z 24005KT 180V290 9999 SCT024 16/10 Q1013=
202406080920 METAR EGKK 080920Z 28012KT 9999 SCT028 16/09 Q1013=
202406080950 METAR EGKK 080950Z 28013KT 9999 FEW025 SCT042 16/10 Q1013=
202406081020 METAR EGKK 081020Z 26010KT 230V300 9999 SCT038 16/09 Q1012=
202406081050 METAR EGKK 081050Z 27009KT 220V290 9999 SCT035 17/09 Q1012=
202406081120 METAR EGKK 081120Z 25010KT 9999 FEW035 SCT047 17/09 Q1012=
202406081150 METAR EGKK 081150Z 28010KT 9999 FEW035 17/09 Q1012=
202406081220 METAR EGKK 081220Z 28011KT 250V310 9999 SCT035 17/09 Q1012=
202406081250 METAR EGKK 081250Z 30012KT 9999 BKN032 17/09 Q1013=
202406081320 METAR EGKK 081320Z 30008KT 9999 FEW031 BKN042 16/09 Q1013=
202406081350 METAR EGKK 081350Z 31009KT 9999 SCT040 17/08 Q1013=
202406081420 METAR EGKK 081420Z 30009KT 260V330 9999 FEW040 17/09 Q1013=
202406081450 METAR EGKK 081450Z 30007KT 260V350 9999 FEW049 18/08 Q1013=
202406081520 METAR EGKK 081520Z 30009KT 9999 FEW044 18/07 Q1013=
202406081550 METAR EGKK 081550Z 29011KT 9999 FEW044 18/07 Q1013=
202406081620 METAR EGKK 081620Z 32009KT 270V350 9999 FEW049 19/07 Q1013=
202406081650 METAR EGKK 081650Z 35009KT 320V030 9999 FEW047 19/07 Q1013=
202406081720 METAR EGKK 081720Z 32008KT 270V360 9999 FEW048 18/07 Q1013=
202406081750 METAR EGKK 081750Z 33009KT 290V360 9999 FEW048 19/06 Q1013=
202406081820 METAR EGKK 081820Z 32009KT CAVOK 18/05 Q1013=
202406081850 METAR EGKK 081850Z 32008KT CAVOK 18/05 Q1013=
202406081920 METAR EGKK 081920Z 31007KT CAVOK 17/05 Q1013=
202406081950 METAR EGKK 081950Z 31006KT 280V340 CAVOK 17/05 Q1014=
202406082020 METAR EGKK 082020Z 31005KT 280V350 CAVOK 16/05 Q1014=
202406082050 METAR EGKK 082050Z 32005KT 290V360 CAVOK 15/05 Q1014=
202406082120 METAR EGKK 082120Z 32007KT CAVOK 14/05 Q1015=
202406082150 METAR EGKK 082150Z 34007KT 310V030 CAVOK 14/04 Q1015=
202406082220 METAR EGKK 082220Z 33005KT CAVOK 13/04 Q1015=
202406082250 METAR EGKK 082250Z 33003KT 260V010 CAVOK 13/04 Q1015=
202406082320 METAR EGKK 082320Z 33005KT CAVOK 12/04 Q1015=
202406082350 METAR EGKK 082350Z 32004KT CAVOK 11/03 Q1015=
202406090020 METAR EGKK 090020Z 31002KT CAVOK 11/03 Q1015=
202406090050 METAR EGKK 090050Z 33003KT CAVOK 10/03 Q1015=
202406090120 METAR EGKK 090120Z VRB02KT CAVOK 08/04 Q1015=
202406090150 METAR EGKK 090150Z 20003KT 180V340 CAVOK 08/04 Q1015=
202406090220 METAR EGKK 090220Z 18004KT CAVOK 07/04 Q1015=
202406090250 METAR EGKK 090250Z 23002KT CAVOK 07/04 Q1015=
202406090320 METAR EGKK 090320Z VRB01KT CAVOK 06/04 Q1014=
202406090350 METAR EGKK 090350Z VRB02KT CAVOK 06/04 Q1014=
202406090420 METAR EGKK 090420Z VRB01KT CAVOK 06/04 Q1014=
202406090450 METAR EGKK 090450Z 28002KT CAVOK 06/04 Q1014=
202406090520 METAR EGKK 090520Z VRB02KT CAVOK 08/05 Q1014=
202406090550 METAR EGKK 090550Z 29003KT CAVOK 10/05 Q1014=
202406090620 METAR EGKK 090620Z 29005KT CAVOK 11/05 Q1014=
202406090650 METAR EGKK 090650Z 27006KT 230V310 CAVOK 13/04 Q1014=
202406090720 METAR EGKK 090720Z 30007KT CAVOK 14/05 Q1014=
202406090750 METAR EGKK 090750Z 30010KT CAVOK 15/04 Q1014=
202406090820 METAR EGKK 090820Z 26009KT 230V300 9999 FEW040 15/04 Q1013=
202406090850 METAR EGKK 090850Z 26010KT 230V290 9999 FEW045 15/05 Q1013=
202406090920 METAR EGKK 090920Z 26011KT 9999 FEW047 16/05 Q1013=
202406090950 METAR EGKK 090950Z 27012KT 9999 FEW045 17/05 Q1013=
202406091020 METAR EGKK 091020Z 28013KT 240V310 9999 SCT045 17/05 Q1013=
202406091050 METAR EGKK 091050Z 27012KT 250V310 9999 SCT044 16/05 Q1013=
202406091120 METAR EGKK 091120Z 28012KT 9999 SCT045 17/05 Q1013=
202406091150 METAR EGKK 091150Z 30012KT 9999 SCT045 17/05 Q1012=
202406091220 METAR EGKK 091220Z 27011KT 9999 SCT048 18/06 Q1012=
202406091250 METAR EGKK 091250Z 32012KT 280V340 9999 SCT049 17/05 Q1012=
202406091320 METAR EGKK 091320Z 32010KT 290V350 9999 BKN047 17/06 Q1012=
202406091350 METAR EGKK 091350Z 30011KT 9999 SCT046 17/06 Q1012=
202406091420 METAR EGKK 091420Z 30012KT 9999 BKN046 17/06 Q1012=
202406091450 METAR EGKK 091450Z 30011KT 9999 BKN044 16/06 Q1012=
202406091520 METAR EGKK 091520Z 30010KT 9999 BKN043 16/07 Q1012=
202406091550 METAR EGKK 091550Z 31010KT 9999 BKN046 16/07 Q1012=
202406091620 METAR EGKK 091620Z 29009KT 260V330 9999 FEW039 SCT046 16/07 Q1012=
202406091650 METAR EGKK 091650Z 31010KT 9999 SCT039 16/07 Q1012=
202406091720 METAR EGKK 091720Z 29008KT 9999 SCT048 16/07 Q1012=
202406091750 METAR EGKK 091750Z 28007KT 9999 FEW046 16/07 Q1012=
202406091820 METAR EGKK 091820Z 25007KT 220V290 9999 BKN044 15/07 Q1011=
202406091850 METAR EGKK 091850Z 24005KT 9999 BKN040 15/08 Q1011=
202406091920 METAR EGKK 091920Z 22004KT 9999 FEW038 BKN048 15/08 Q1011=
202406091950 METAR EGKK 091950Z 23005KT 9999 SCT039 15/08 Q1011=
202406092020 METAR EGKK 092020Z 23005KT 9999 SCT038 15/08 Q1011=
202406092050 METAR EGKK 092050Z 24005KT 9999 SCT038 14/09 Q1011=
202406092120 METAR EGKK 092120Z 24006KT 9999 FEW034 14/09 Q1011=
202406092150 METAR EGKK 092150Z 25007KT CAVOK 13/09 Q1011=
202406092220 METAR EGKK 092220Z 25008KT CAVOK 13/09 Q1011=
202406092250 METAR EGKK 092250Z 25006KT 9999 SCT048 13/09 Q1010=
202406092320 METAR EGKK 092320Z 24008KT CAVOK 13/09 Q1010=
202406092350 METAR EGKK 092350Z 24007KT CAVOK 13/09 Q1010=
202406100020 METAR EGKK 100020Z 24006KT 9999 -RA NSC 12/10 Q1009=
202406100050 METAR EGKK 100050Z 23005KT 9999 -RA NSC 12/10 Q1009=
202406100120 METAR EGKK 100120Z 23005KT 9999 -RA SCT043 12/10 Q1009=
202406100150 METAR EGKK 100150Z 23006KT 9999 -RA BKN047 12/10 Q1008=
202406100220 METAR EGKK 100220Z 24009KT 5000 -RA SCT019 BKN030 12/10 Q1008=
202406100250 METAR EGKK 100250Z 23007KT 6000 -RA FEW018 BKN027 11/10 Q1008=
202406100320 METAR EGKK 100320Z 23007KT 9999 -RA FEW023 BKN032 11/10 Q1007=
202406100350 METAR EGKK 100350Z 23008KT 9999 -RA BKN018 12/10 Q1007=
202406100420 METAR EGKK 100420Z 24008KT 9999 -RA BKN016 BKN027 12/11 Q1006=
202406100450 METAR EGKK 100450Z 24008KT 9999 -RA BKN017 BKN022 12/11 Q1006=
202406100520 METAR EGKK 100520Z 24009KT 9999 -RA BKN013 BKN020 12/11 Q1006=
202406100550 METAR EGKK 100550Z 26014G25KT 9999 -RA SCT012 BKN016 12/11 Q1007=
202406100620 METAR EGKK 100620Z 31012KT 9999 -RA SCT014 BKN047 11/09 Q1007=
202406100650 METAR EGKK 100650Z 30012KT 9999 -RA FEW015 SCT039 11/09 Q1008=
202406100720 METAR EGKK 100720Z 30015KT 9999 FEW018 SCT026 11/09 Q1008=
202406100750 METAR EGKK 100750Z 31013KT 9999 FEW015 SCT021 11/08 Q1008=
202406100820 METAR EGKK 100820Z 32019KT 9999 SCT020 SCT029 12/08 Q1008=
202406100850 METAR EGKK 100850Z 32015KT 9999 SCT020 SCT028 12/07 Q1009=
202406100920 METAR EGKK 100920Z 33016KT 9999 SCT023 12/07 Q1009=
202406100950 METAR EGKK 100950Z 34017KT 300V010 9999 SCT024 12/06 Q1010=
202406101020 METAR EGKK 101020Z 36014KT 310V030 9999 SCT026 SCT035 13/06 Q1010=
202406101050 METAR EGKK 101050Z 33014KT 9999 SCT028 13/06 Q1011=
202406101120 METAR EGKK 101120Z 33013KT 290V360 9999 SCT030 13/06 Q1011=
202406101150 METAR EGKK 101150Z 31013KT 280V350 9999 FEW031 14/07 Q1012=
202406101220 METAR EGKK 101220Z 32012KT 290V350 9999 FEW030 15/07 Q1012=
202406101250 METAR EGKK 101250Z 32010KT 270V350 9999 FEW035 15/06 Q1012=
202406101320 METAR EGKK 101320Z 31013KT 9999 VCSH FEW039 15/06 Q1012=
202406101350 METAR EGKK 101350Z 32017KT 9999 FEW033 SCT040 16/05 Q1012=
202406101420 METAR EGKK 101420Z 31017KT 290V350 9999 -SHRA FEW020 SCT040 15/07 Q1013=
202406101450 METAR EGKK 101450Z 02010KT 330V060 9999 VCSH FEW019 SCT032 14/07 Q1013=
202406101520 METAR EGKK 101520Z 35010KT 310V040 9999 VCSH FEW034 SCT047TCU 15/07 Q1013=
202406101550 METAR EGKK 101550Z 30013G23KT 9999 -SHRA FEW015 FEW032TCU 14/08 Q1014=
202406101620 METAR EGKK 101620Z 32008KT 9999 FEW015 SCT029 14/06 Q1013=
202406101650 METAR EGKK 101650Z 33009KT 9999 FEW025 15/06 Q1013=
202406101720 METAR EGKK 101720Z 33010KT 300V030 9999 VCSH FEW042 16/06 Q1014=
202406101750 METAR EGKK 101750Z 05011KT 9999 FEW033 14/07 Q1014=
202406101820 METAR EGKK 101820Z 06007KT 030V090 9999 FEW034 13/08 Q1014=
202406101850 METAR EGKK 101850Z 02005KT 360V060 9999 FEW040 13/07 Q1015=
202406101920 METAR EGKK 101920Z VRB04KT CAVOK 13/06 Q1015=
202406101950 METAR EGKK 101950Z 35003KT 300V060 CAVOK 14/06 Q1015=
202406102020 METAR EGKK 102020Z 32003KT 260V010 CAVOK 13/05 Q1015=
202406102050 METAR EGKK 102050Z 27003KT 230V320 CAVOK 12/06 Q1015=
202406102120 METAR EGKK 102120Z VRB01KT CAVOK 10/06 Q1016=
202406102150 METAR EGKK 102150Z 22003KT CAVOK 09/06 Q1016=
202406102220 METAR EGKK 102220Z VRB02KT CAVOK 09/07 Q1016=
202406102250 METAR EGKK 102250Z 21001KT CAVOK 09/07 Q1016=
202406102320 METAR EGKK 102320Z VRB01KT CAVOK 09/07 Q1016=
202406102350 METAR EGKK 102350Z 23003KT CAVOK 08/06 Q1016=
202406110020 METAR EGKK 110020Z VRB02KT 9999 FEW044 08/06 Q1016=
202406110050 METAR EGKK 110050Z 22001KT 9999 FEW044 07/05 Q1016=
202406110120 METAR EGKK 110120Z VRB01KT 9999 FEW039 07/06 Q1016=
202406110150 METAR EGKK 110150Z 19002KT CAVOK 07/06 Q1016=
202406110220 METAR EGKK 110220Z 21002KT CAVOK 07/06 Q1016=
202406110250 METAR EGKK 110250Z 25002KT CAVOK 08/06 Q1016=
202406110320 METAR EGKK 110320Z VRB02KT CAVOK 08/06 Q1016=
202406110350 METAR EGKK 110350Z 29006KT CAVOK 08/05 Q1016=
202406110420 METAR EGKK 110420Z 28004KT CAVOK 08/05 Q1016=
202406110450 METAR EGKK 110450Z 31005KT CAVOK 09/06 Q1017=
202406110520 METAR EGKK 110520Z 31005KT 280V340 CAVOK 09/06 Q1017=
202406110550 METAR EGKK 110550Z 31007KT 290V350 CAVOK 10/06 Q1017=
202406110620 METAR EGKK 110620Z 33008KT CAVOK 10/06 Q1017=
202406110650 METAR EGKK 110650Z 33009KT 280V350 CAVOK 10/06 Q1017=
202406110720 METAR EGKK 110720Z 32008KT 9999 FEW016 10/06 Q1018=
202406110750 METAR EGKK 110750Z 33006KT 290V010 9999 FEW016 11/07 Q1018=
202406110820 METAR EGKK 110820Z 34005KT 290V020 9999 FEW020 11/07 Q1018=
202406110850 METAR EGKK 110850Z 31006KT 280V360 9999 SCT020 13/07 Q1018=
202406110920 METAR EGKK 110920Z 34007KT 280V040 9999 FEW025 SCT032 14/06 Q1018=
202406110950 METAR EGKK 110950Z 30007KT 250V320 9999 FEW029 SCT034 13/06 Q1018=
202406111020 METAR EGKK 111020Z 33007KT 280V020 9999 FEW035 BKN048 14/06 Q1018=
202406111050 METAR EGKK 111050Z 32007KT 290V350 9999 FEW034 14/05 Q1018=
202406111120 METAR EGKK 111120Z 33006KT 290V030 9999 FEW040 15/05 Q1018=
202406111150 METAR EGKK 111150Z 35005KT 290V040 9999 FEW042 15/05 Q1018=
202406111220 METAR EGKK 111220Z 35008KT 310V040 9999 SCT043 15/05 Q1018=
202406111250 METAR EGKK 111250Z 33007KT 280V020 9999 SCT042 16/06 Q1018=
202406111320 METAR EGKK 111320Z 33007KT 270V020 9999 FEW041 16/04 Q1018=
202406111350 METAR EGKK 111350Z 31007KT 280V360 9999 SCT045 16/05 Q1018=
202406111420 METAR EGKK 111420Z 32008KT 290V350 9999 SCT045 16/05 Q1018=
202406111450 METAR EGKK 111450Z 30013KT 9999 VCSH FEW045 15/06 Q1019=
202406111520 METAR EGKK 111520Z 28007KT 250V320 CAVOK 15/06 Q1019=
202406111550 METAR EGKK 111550Z 27011KT 9999 SCT035 15/07 Q1019=
202406111620 METAR EGKK 111620Z 28010KT 9999 FEW037 15/06 Q1019=
202406111650 METAR EGKK 111650Z 28006KT 240V320 9999 FEW042 15/06 Q1019=
202406111720 METAR EGKK 111720Z 34011KT 310V020 9999 VCSH FEW036 14/06 Q1019=
202406111750 METAR EGKK 111750Z 32007KT 290V350 9999 VCSH NSC 14/06 Q1019=
202406111820 METAR EGKK 111820Z 33006KT 290V360 9999 VCSH NSC 14/06 Q1019=
202406111850 METAR EGKK 111850Z 33006KT 300V360 CAVOK 14/05 Q1020=
202406111920 METAR EGKK 111920Z 31008KT 270V330 CAVOK 13/06 Q1020=
202406111950 METAR EGKK 111950Z 31006KT 280V340 CAVOK 13/06 Q1020=
202406112020 METAR EGKK 112020Z 31005KT 9999 FEW042 12/06 Q1020=
202406112050 METAR EGKK 112050Z 32005KT 9999 FEW045 12/06 Q1021=
202406112120 METAR EGKK 112120Z 36005KT 320V050 9999 FEW030 12/07 Q1021=
202406112150 METAR EGKK 112150Z 01003KT CAVOK 11/07 Q1021=
202406112220 METAR EGKK 112220Z 07003KT CAVOK 10/07 Q1021=
202406112250 METAR EGKK 112250Z 18001KT CAVOK 10/08 Q1021=
202406112320 METAR EGKK 112320Z 04004KT CAVOK 11/08 Q1021=
202406112350 METAR EGKK 112350Z 05005KT CAVOK 09/07 Q1021=
202406120020 METAR EGKK 120020Z 35003KT 260V030 CAVOK 10/07 Q1021=
202406120050 METAR EGKK 120050Z 24003KT 190V260 CAVOK 08/06 Q1021=
202406120120 METAR EGKK 120120Z 25002KT CAVOK 08/07 Q1021=
202406120150 METAR EGKK 120150Z VRB01KT CAVOK 09/07 Q1021=
202406120220 METAR EGKK 120220Z 15001KT CAVOK 08/07 Q1021=
202406120250 METAR EGKK 120250Z 12001KT CAVOK 09/07 Q1021=
202406120320 METAR EGKK 120320Z 10003KT CAVOK 09/07 Q1021=
202406120350 METAR EGKK 120350Z VRB02KT CAVOK 09/07 Q1021=
202406120420 METAR EGKK 120420Z VRB02KT CAVOK 09/07 Q1021=
202406120450 METAR EGKK 120450Z VRB01KT CAVOK 09/07 Q1021=
202406120520 METAR EGKK 120520Z VRB01KT CAVOK 10/08 Q1021=
202406120550 METAR EGKK 120550Z 26003KT 200V310 CAVOK 10/08 Q1021=
202406120620 METAR EGKK 120620Z VRB03KT CAVOK 11/08 Q1021=
202406120650 METAR EGKK 120650Z VRB01KT CAVOK 11/08 Q1021=
202406120720 METAR EGKK 120720Z 27003KT 230V310 CAVOK 12/08 Q1022=
202406120750 METAR EGKK 120750Z 29004KT 260V320 CAVOK 12/08 Q1022=
202406120820 METAR EGKK 120820Z 31004KT 240V350 CAVOK 13/08 Q1022=
202406120850 METAR EGKK 120850Z VRB03KT CAVOK 14/06 Q1022=
202406120920 METAR EGKK 120920Z 18003KT 100V240 CAVOK 15/05 Q1021=
202406120950 METAR EGKK 120950Z VRB03KT 9999 FEW042 15/05 Q1021=
202406121020 METAR EGKK 121020Z 29005KT 250V340 9999 FEW045 14/05 Q1021=
202406121050 METAR EGKK 121050Z 31005KT 250V040 9999 FEW045 15/05 Q1021=
202406121120 METAR EGKK 121120Z 26004KT 220V310 9999 FEW036 14/05 Q1021=
202406121150 METAR EGKK 121150Z 23004KT 200V260 9999 FEW040 15/05 Q1021=
202406121220 METAR EGKK 121220Z 14004KT 080V200 9999 SCT042 15/05 Q1021=
202406121250 METAR EGKK 121250Z 21006KT 170V260 9999 SCT038 15/06 Q1021=
202406121320 METAR EGKK 121320Z 22006KT 180V250 9999 SCT037 14/07 Q1021=
202406121350 METAR EGKK 121350Z 23005KT 120V270 9999 SCT035 BKN043 15/07 Q1020=
202406121420 METAR EGKK 121420Z 23008KT 9999 SCT036 17/07 Q1020=
202406121450 METAR EGKK 121450Z 23009KT 200V270 9999 SCT038 16/06 Q1020=
202406121520 METAR EGKK 121520Z 25005KT 220V290 9999 SCT045 15/06 Q1020=
202406121550 METAR EGKK 121550Z 23006KT 190V260 9999 FEW040 16/06 Q1020=
202406121620 METAR EGKK 121620Z 23006KT 9999 FEW046 16/06 Q1020=
202406121650 METAR EGKK 121650Z 20006KT 170V240 9999 FEW042 16/07 Q1019=
202406121720 METAR EGKK 121720Z 23006KT 200V260 9999 FEW041 15/07 Q1019=
202406121750 METAR EGKK 121750Z 23006KT 9999 FEW039 15/07 Q1019=
202406121820 METAR EGKK 121820Z 21006KT 9999 FEW045 15/08 Q1019=
202406121850 METAR EGKK 121850Z 22004KT 180V250 9999 FEW044 15/08 Q1019=
202406121920 METAR EGKK 121920Z 21006KT CAVOK 14/08 Q1019=
202406121950 METAR EGKK 121950Z 19006KT 160V220 CAVOK 14/08 Q1019=
202406122020 METAR EGKK 122020Z 18004KT CAVOK 13/08 Q1019=
202406122050 METAR EGKK 122050Z 20003KT CAVOK 12/08 Q1019=
202406122120 METAR EGKK 122120Z 20004KT CAVOK 11/07 Q1019=
202406122150 METAR EGKK 122150Z 19003KT CAVOK 11/07 Q1019=
202406122220 METAR EGKK 122220Z 17003KT CAVOK 10/07 Q1019=
202406122250 METAR EGKK 122250Z VRB01KT CAVOK 10/07 Q1019=
202406122320 METAR EGKK 122320Z 12001KT CAVOK 09/07 Q1019=
202406122350 METAR EGKK 122350Z VRB01KT CAVOK 08/06 Q1019=
202406130020 METAR EGKK 130020Z 24001KT CAVOK 07/06 Q1019=
202406130050 METAR EGKK 130050Z VRB01KT CAVOK 08/06 Q1018=
202406130120 METAR EGKK 130120Z 27002KT CAVOK 07/05 Q1018=
202406130150 METAR EGKK 130150Z VRB01KT CAVOK 07/05 Q1018=
202406130220 METAR EGKK 130220Z VRB01KT CAVOK 07/06 Q1018=
202406130250 METAR EGKK 130250Z 11001KT CAVOK 07/05 Q1017=
202406130320 METAR EGKK 130320Z 28001KT CAVOK 06/05 Q1017=
202406130350 METAR EGKK 130350Z 19001KT CAVOK 06/05 Q1017=
202406130420 METAR EGKK 130420Z 23001KT CAVOK 06/04 Q1017=
202406130450 METAR EGKK 130450Z VRB01KT CAVOK 06/05 Q1017=
202406130520 METAR EGKK 130520Z VRB02KT CAVOK 09/07 Q1016=
202406130550 METAR EGKK 130550Z VRB01KT 9999 FEW015 10/08 Q1016=
202406130620 METAR EGKK 130620Z VRB01KT CAVOK 11/09 Q1016=
202406130650 METAR EGKK 130650Z 11003KT 060V190 CAVOK 13/10 Q1016=
202406130720 METAR EGKK 130720Z 17004KT 120V210 9999 FEW018 14/10 Q1016=
202406130750 METAR EGKK 130750Z 18008KT 150V220 9999 FEW016 15/10 Q1015=
202406130820 METAR EGKK 130820Z 18007KT 140V230 9999 FEW022 SCT044 15/10 Q1015=
202406130850 METAR EGKK 130850Z 20008KT 160V230 9999 FEW027 SCT037 15/09 Q1015=
202406130920 METAR EGKK 130920Z 21011KT 180V240 9999 SCT041 16/07 Q1015=
202406130950 METAR EGKK 130950Z 21011KT 9999 SCT040 16/06 Q1015=
202406131020 METAR EGKK 131020Z 21011KT 170V230 9999 FEW041 16/06 Q1014=
202406131050 METAR EGKK 131050Z 21011KT 160V240 9999 SCT040 16/06 Q1014=
202406131120 METAR EGKK 131120Z 21011KT 170V240 9999 SCT033 16/07 Q1014=
202406131150 METAR EGKK 131150Z 20011KT 9999 SCT036 16/07 Q1014=
202406131220 METAR EGKK 131220Z 21010KT 170V230 9999 FEW033 SCT042 15/07 Q1013=
202406131250 METAR EGKK 131250Z 20009KT 160V230 9999 SCT029 SCT042 15/09 Q1013=
202406131320 METAR EGKK 131320Z 19011KT 150V220 9999 FEW027 SCT038 15/08 Q1013=
202406131350 METAR EGKK 131350Z 20011KT 160V230 9999 FEW031 SCT039 15/08 Q1012=
202406131420 METAR EGKK 131420Z 19011KT 150V220 9999 SCT044 15/07 Q1012=
202406131450 METAR EGKK 131450Z 19010KT 140V220 CAVOK 15/07 Q1011=
202406131520 METAR EGKK 131520Z 18010KT 150V220 9999 FEW036 15/07 Q1011=
202406131550 METAR EGKK 131550Z 19010KT 9999 SCT044 15/08 Q1011=
202406131620 METAR EGKK 131620Z 18010KT 150V210 9999 -RA SCT045 14/09 Q1010=
202406131650 METAR EGKK 131650Z 17006KT 140V220 9999 -RA FEW045 14/10 Q1010=
202406131720 METAR EGKK 131720Z 18007KT 150V220 9999 -RA SCT048 13/10 Q1010=
202406131750 METAR EGKK 131750Z 18008KT 150V220 9999 -RA SCT039 13/10 Q1009=
202406131820 METAR EGKK 131820Z 18006KT 150V220 9999 -RA SCT024 13/10 Q1009=
202406131850 METAR EGKK 131850Z 19008KT 150V220 9999 -RA FEW017 BKN030 13/11 Q1009=
202406131920 METAR EGKK 131920Z 20012KT 150V220 9999 -SHRA SCT011 SCT024 13/10 Q1008=
202406131950 METAR EGKK 131950Z 20010KT 9999 -RADZ FEW014 SCT027 12/08 Q1008=
202406132020 METAR EGKK 132020Z 20009KT 160V230 8000 -RA FEW013 SCT025 11/10 Q1008=
202406132050 METAR EGKK 132050Z 18009KT 150V210 9999 -RA FEW014 SCT021 11/10 Q1008=
202406132120 METAR EGKK 132120Z 17008KT 130V210 9999 -RA SCT012 BKN018 11/10 Q1007=
202406132150 METAR EGKK 132150Z 18009KT 140V210 6000 -RADZ SCT007 BKN009 11/11 Q1006=
202406132220 METAR EGKK 132220Z 18008KT 140V210 4500 -DZ BKN006 11/11 Q1006=
202406132250 METAR EGKK 132250Z 17009KT 140V210 4500 -RADZ BKN005 BKN015 11/11 Q1006=
202406132320 METAR EGKK 132320Z 18008KT 140V200 4200 -DZ BKN005 BKN014 11/11 Q1005=
202406132350 METAR EGKK 132350Z 18008KT 150V210 4000 -DZRA BKN005 BKN013 12/11 Q1005=
202406140020 METAR EGKK 140020Z 18007KT 4200 -RADZ BKN005 BKN013 12/11 Q1004 REDZ=
202406140050 METAR EGKK 140050Z 19008KT 150V230 4500 -DZ BKN005 12/12 Q1003=
202406140120 METAR EGKK 140120Z 19007KT 150V220 3500 -DZ BKN004 12/12 Q1003=
202406140150 METAR EGKK 140150Z 20008KT 2500 -DZ BKN004 13/12 Q1003=
202406140220 METAR EGKK 140220Z 19007KT 3000 -DZ BKN004 13/13 Q1003=
202406140250 METAR EGKK 140250Z 21007KT 180V240 3500 -DZ BKN004 13/13 Q1002=
202406140320 METAR EGKK 140320Z 22007KT 9999 -DZ FEW004 SCT007 BKN026 13/13 Q1002=
202406140350 METAR EGKK 140350Z 22005KT 9999 FEW006 BKN008 BKN030 13/13 Q1002=
202406140420 METAR EGKK 140420Z 22007KT 9999 FEW006 BKN027 13/12 Q1002=
202406140450 METAR COR EGKK 140450Z 22006KT 9999 FEW006 BKN029 13/12 Q1002=
202406140520 METAR EGKK 140520Z 21006KT 9999 FEW009 BKN035 13/12 Q1002=
202406140550 METAR EGKK 140550Z 21007KT 9999 FEW022 BKN030 14/12 Q1002=
202406140620 METAR EGKK 140620Z 22009KT 9999 FEW011 14/12 Q1002=
202406140650 METAR EGKK 140650Z 22011KT 9999 FEW014 14/12 Q1002=
202406140720 METAR EGKK 140720Z 22011KT 9999 FEW018 SCT048 14/11 Q1002=
202406140750 METAR EGKK 140750Z 22010KT 170V240 9999 FEW018 SCT024 15/12 Q1002=
202406140820 METAR EGKK 140820Z 22010KT 190V250 9999 FEW018 SCT022 15/11 Q1002=
202406140850 METAR EGKK 140850Z 22010KT 9999 SCT024 BKN030 15/10 Q1002=
202406140920 METAR EGKK 140920Z 22013KT 170V240 9999 VCSH FEW023 SCT030 15/11 Q1002=
202406140950 METAR EGKK 140950Z 21011KT 190V250 9999 VCSH FEW022 SCT028 16/11 Q1002=
202406141020 METAR EGKK 141020Z 23012KT 9999 -RA SCT024 SCT030 15/11 Q1002=
202406141050 METAR EGKK 141050Z 22011KT 180V250 9999 FEW025 SCT030 17/11 Q1002=
202406141120 METAR EGKK 141120Z 22012KT 170V240 9999 FEW028 SCT036 17/10 Q1002=
202406141150 METAR EGKK 141150Z 22013KT 180V240 9999 SCT029 SCT043 17/11 Q1002=
202406141220 METAR EGKK 141220Z 23014KT 190V260 9999 SCT029 17/09 Q1002=
202406141250 METAR EGKK 141250Z 21013KT 180V240 9999 FEW023 SCT030 16/10 Q1002=
202406141320 METAR EGKK 141320Z 20014G24KT 160V230 9999 SCT025 17/11 Q1002=
202406141350 METAR EGKK 141350Z 22012G22KT 190V250 9999 SCT022 17/11 Q1002=
202406141420 METAR EGKK 141420Z 22013KT 170V250 9999 SCT031 17/10 Q1001=
202406141450 METAR EGKK 141450Z 22013G23KT 9999 SCT030 18/10 Q1001=
202406141520 METAR EGKK 141520Z 22013KT 9999 SCT034 18/09 Q1001=
202406141550 METAR EGKK 141550Z 22013KT 160V240 9999 SCT033 17/09 Q1001=
202406141620 METAR EGKK 141620Z 21012KT 180V240 9999 BKN032 16/09 Q1001=
202406141650 METAR EGKK 141650Z 22013KT 180V250 9999 SCT034 17/08 Q1001=
202406141720 METAR EGKK 141720Z 22012KT 9999 SCT036 16/08 Q1000=
202406141750 METAR EGKK 141750Z 22011KT 200V260 9999 FEW034 15/08 Q1000=
202406141820 METAR EGKK 141820Z 21009KT 170V250 9999 FEW031 16/09 Q1000=
202406141850 METAR EGKK 141850Z 21011KT 9999 FEW030 15/09 Q1000=
202406141920 METAR EGKK 141920Z 20009KT 170V250 9999 FEW030 15/09 Q1000=
202406141950 METAR EGKK 141950Z 21008KT 9999 FEW030 14/09 Q1000=
202406142020 METAR EGKK 142020Z 21007KT 9999 FEW025 14/10 Q1000=
202406142050 METAR EGKK 142050Z 19006KT 9999 FEW026 13/09 Q1000=
202406142120 METAR EGKK 142120Z 17004KT 130V200 9999 VCSH FEW027 13/10 Q1000=
202406142150 METAR EGKK 142150Z 16005KT 130V200 9999 SCT022 13/10 Q0999=
202406142220 METAR EGKK 142220Z 21009KT 150V240 9000 -TSRA FEW013 BKN041CB 12/10 Q0999 RETSRA RERA=
202406142250 METAR EGKK 142250Z 19006KT 160V220 9999 VCSH FEW015 BKN049 11/10 Q0999 RETSRA=
202406142320 METAR EGKK 142320Z 20007KT 9999 FEW020 BKN031 11/10 Q0999=
202406142350 METAR EGKK 142350Z 20006KT 9999 FEW025 SCT043 11/10 Q0999=
202406150020 METAR EGKK 150020Z 21003KT 9999 FEW048 10/10 Q0998=
202406150050 METAR EGKK 150050Z 21006KT 9999 FEW024 10/09 Q0998=
202406150120 METAR EGKK 150120Z 21006KT 9999 FEW021 10/09 Q0998=
202406150150 METAR EGKK 150150Z 23008KT 9999 BKN018 10/09 Q0999=
202406150220 METAR EGKK 150220Z 23008KT 9999 SCT020 10/09 Q0999=
202406150250 METAR EGKK 150250Z 23007KT 9999 FEW020 10/09 Q0999=
202406150320 METAR EGKK 150320Z 23006KT CAVOK 09/08 Q0999=
202406150350 METAR EGKK 150350Z 23006KT CAVOK 09/08 Q0999=
202406150420 METAR EGKK 150420Z 22006KT CAVOK 09/08 Q1000=
202406150450 METAR EGKK 150450Z 23006KT CAVOK 09/08 Q1000=
202406150520 METAR EGKK 150520Z 22006KT CAVOK 10/09 Q1000=
202406150550 METAR EGKK 150550Z 22007KT CAVOK 11/09 Q1000=
202406150620 METAR EGKK 150620Z 22006KT 180V250 CAVOK 12/09 Q1000=
202406150650 METAR EGKK 150650Z 21008KT 160V240 9999 FEW028 BKN032 13/09 Q1000=
202406150720 METAR EGKK 150720Z 21009KT 9999 VCSH SCT015 BKN020 13/10 Q1000=
202406150750 METAR EGKK 150750Z 19009KT 160V220 8000 -RA BKN011 13/11 Q1000=
202406150820 METAR EGKK 150820Z 19009KT 150V220 8000 -RA BKN010 13/12 Q0999=
202406150850 METAR EGKK 150850Z 21010KT 160V230 7000 -RA BKN010 13/12 Q0999=
202406150920 METAR EGKK 150920Z 21011KT 9999 -RA BKN011 14/12 Q0999=
202406150950 METAR EGKK 150950Z 22011KT 180V250 9999 -RA BKN011 BKN019 14/13 Q0999=
202406151020 METAR EGKK 151020Z 22012KT 9999 SCT012 BKN015 15/13 Q0998=
202406151050 METAR EGKK 151050Z 22014KT 190V250 9999 VCSH BKN016 16/13 Q0998=
202406151120 METAR EGKK 151120Z 23012KT 9999 VCSH SCT019 BKN021 16/12 Q0999=
202406151150 METAR COR EGKK 151150Z 23013KT 180V260 9999 -RA FEW019 BKN027 16/11 Q0999=
202406151220 METAR EGKK 151220Z 22012KT 9999 VCSH FEW027 16/13 Q0999=
202406151250 METAR EGKK 151250Z 22016KT 180V250 9999 VCSH SCT028 SCT035 17/11 Q0999=
202406151320 METAR EGKK 151320Z 24020G32KT 9999 VCSH BKN035 17/09 Q1000=
202406151350 METAR EGKK 151350Z 27017KT 9999 VCSH SCT032 14/09 Q1000=
202406151420 METAR EGKK 151420Z 25011KT 9999 4500SW -SHRA FEW025 SCT032 13/09 Q1000 RESHRA=
202406151450 METAR EGKK 151450Z 22008KT 8000 VCSH SCT025 14/12 Q1001=
202406151520 METAR EGKK 151520Z 23009KT 200V260 9999 VCSH FEW015 SCT025 14/11 Q1001=
202406151550 METAR EGKK 151550Z 22010G20KT 190V260 9999 SCT035 15/11 Q1000=
202406151620 METAR EGKK 151620Z 26016KT 7000 3000E -SHRA FEW018 BKN034CB 12/10 Q1001 RESHRA=
202406151650 METAR EGKK 151650Z 22006KT 9999 FEW035 14/11 Q1001=
202406151720 METAR EGKK 151720Z 23009KT 190V260 9999 FEW030 15/11 Q1001=
202406151750 METAR EGKK 151750Z 23009KT 9999 VCSH FEW032 15/11 Q1001=
202406151820 METAR EGKK 151820Z 22011KT 9999 SCT032 15/10 Q1001=
202406151850 METAR EGKK 151850Z 23009KT 9999 FEW032 14/09 Q1001=
202406151920 METAR EGKK 151920Z 22008KT 190V260 9999 FEW028 14/10 Q1001=
202406151950 METAR EGKK 151950Z 23009KT 9999 FEW028 14/09 Q1001=
202406152020 METAR EGKK 152020Z 23009KT 9999 FEW028 14/09 Q1002=
202406152050 METAR EGKK 152050Z 22007KT 9999 FEW028 13/10 Q1002=
202406152120 METAR EGKK 152120Z 21007KT CAVOK 13/10 Q1002=
202406152150 METAR EGKK 152150Z 20005KT 9999 FEW035 12/10 Q1002=
202406152220 METAR EGKK 152220Z 20004KT 9999 FEW023 BKN028 13/10 Q1002=
202406152250 METAR EGKK 152250Z 20006KT 9999 SCT022 SCT028 13/10 Q1002=
202406152320 METAR EGKK 152320Z 22007KT 9999 SCT021 12/10 Q1002=
202406152350 METAR EGKK 152350Z 21007KT CAVOK 12/10 Q1002=
202406160020 METAR EGKK 160020Z 21006KT 170V250 CAVOK 12/10 Q1002=
202406160050 METAR EGKK 160050Z 20007KT CAVOK 12/10 Q1001=
202406160120 METAR EGKK 160120Z 21006KT 9999 FEW022 12/10 Q1001=
202406160150 METAR EGKK 160150Z 21005KT 9999 SCT021 12/10 Q1001=
202406160220 METAR EGKK 160220Z 22005KT 9999 FEW029 12/10 Q1001=
202406160250 METAR EGKK 160250Z 21005KT 180V250 9999 SCT026 12/10 Q1001=
202406160320 METAR EGKK 160320Z 22007KT 190V250 9999 -RA SCT019 BKN032 12/10 Q1001=
202406160350 METAR EGKK 160350Z 21005KT 180V240 9999 FEW021 SCT032 12/10 Q1001=
202406160420 METAR EGKK 160420Z 22005KT 190V260 9999 SCT019 SCT030 12/10 Q1001=
202406160450 METAR EGKK 160450Z 22004KT 180V240 9999 VCSH FEW018 BKN027 12/11 Q1001=
202406160520 METAR EGKK 160520Z 22008KT 170V240 9999 FEW021 SCT034 13/11 Q1001=
202406160550 METAR EGKK 160550Z 22009KT 190V250 CAVOK 14/10 Q1001=
202406160620 METAR EGKK 160620Z 22009KT 180V250 9999 FEW018 14/10 Q1001=
202406160650 METAR EGKK 160650Z 23010KT 180V250 9999 FEW022 14/10 Q1001=
202406160720 METAR EGKK 160720Z 23010KT 190V260 9999 SCT020 SCT034 15/10 Q1001=
202406160750 METAR EGKK 160750Z 24012KT 9999 VCSH SCT021 SCT027 15/10 Q1001=
202406160820 METAR EGKK 160820Z 24011KT 9999 SCT020 16/11 Q1001=
202406160850 METAR EGKK 160850Z 23009KT 190V260 9999 FEW020 SCT027 16/11 Q1002=
202406160920 METAR COR EGKK 160920Z 24013KT 9999 FEW020 SCT025 16/10 Q1002=
202406160950 METAR EGKK 160950Z 23011KT 200V270 9999 FEW015 SCT028 17/10 Q1002=
202406161020 METAR EGKK 161020Z 25009KT 9999 FEW024 14/12 Q1002=
202406161050 METAR EGKK 161050Z 24010KT 210V290 9999 FEW035 17/11 Q1002=
202406161120 METAR EGKK 161120Z 25009KT 9999 SCT037 17/10 Q1002=
202406161150 METAR EGKK 161150Z 25011KT 9999 SCT040 19/09 Q1002=
202406161220 METAR EGKK 161220Z 25011KT 210V280 9999 FEW046 19/08 Q1002=
202406161250 METAR EGKK 161250Z 24009KT 200V260 9999 FEW045 19/08 Q1003=
202406161320 METAR EGKK 161320Z 24009KT 190V270 9999 FEW045 20/09 Q1003=
202406161350 METAR EGKK 161350Z 22010KT 9999 FEW049 18/10 Q1003=
202406161420 METAR EGKK 161420Z 21012KT 9999 FEW033 19/11 Q1003=
202406161450 METAR EGKK 161450Z 23010KT 180V260 9999 FEW034 19/11 Q1003=
202406161520 METAR EGKK 161520Z 22012KT 9999 FEW037 19/10 Q1003=
202406161550 METAR EGKK 161550Z 23012KT 190V260 9999 FEW038 18/10 Q1004=
202406161620 METAR EGKK 161620Z 22011KT 9999 FEW032 18/10 Q1004=
202406161650 METAR EGKK 161650Z 23012KT 200V260 9999 FEW032 18/10 Q1004=
202406161720 METAR EGKK 161720Z 21010KT 9999 FEW032 18/10 Q1004=
202406161750 METAR EGKK 161750Z 22008KT 9999 FEW032 17/09 Q1005=
202406161820 METAR EGKK 161820Z 23007KT 9999 FEW032 17/09 Q1005=
202406161850 METAR EGKK 161850Z 21005KT CAVOK 16/09 Q1005=
202406161920 METAR EGKK 161920Z 20004KT 160V230 CAVOK 16/09 Q1005=
202406161950 METAR EGKK 161950Z 19004KT 150V240 CAVOK 15/09 Q1005=
202406162020 METAR EGKK 162020Z 19005KT CAVOK 15/09 Q1006=
202406162050 METAR EGKK 162050Z 17004KT CAVOK 14/10 Q1006=
202406162120 METAR EGKK 162120Z 21003KT 170V240 CAVOK 13/10 Q1006=
202406162150 METAR EGKK 162150Z 22003KT CAVOK 13/10 Q1007=
202406162220 METAR EGKK 162220Z 21005KT CAVOK 12/10 Q1007=
202406162250 METAR EGKK 162250Z 21005KT CAVOK 12/10 Q1007=
202406162320 METAR EGKK 162320Z 21006KT CAVOK 12/10 Q1007=
202406162350 METAR EGKK 162350Z 22005KT CAVOK 12/10 Q1007=
202406170020 METAR EGKK 170020Z 26003KT CAVOK 11/10 Q1007=
202406170050 METAR EGKK 170050Z 22004KT 9999 FEW034 11/10 Q1007=
202406170120 METAR EGKK 170120Z 22003KT 9999 FEW038 11/10 Q1007=
202406170150 METAR EGKK 170150Z 23002KT 9999 FEW045 11/10 Q1008=
202406170220 METAR EGKK 170220Z VRB02KT 9999 FEW038 11/10 Q1008=
202406170250 METAR EGKK 170250Z 00000KT 9999 FEW045 10/10 Q1008=
202406170320 METAR COR EGKK 170320Z 16001KT 9999 VCFG FEW045 10/10 Q1008=
202406170350 METAR EGKK 170350Z VRB02KT 9999 BCFG FEW042 10/10 Q1008=
202406170420 METAR EGKK 170420Z 21001KT 9999 VCFG FEW038 09/09 Q1008=
202406170450 METAR EGKK 170450Z VRB02KT 9999 VCFG NSC 10/10 Q1008=
202406170520 METAR EGKK 170520Z VRB01KT 9999 FEW036 11/11 Q1009=
202406170550 METAR EGKK 170550Z VRB01KT 9999 FEW035 12/11 Q1009=
202406170620 METAR EGKK 170620Z 22004KT 190V250 9999 FEW036 13/11 Q1009=
202406170650 METAR EGKK 170650Z 22006KT 9999 FEW033 14/10 Q1009=
202406170720 METAR EGKK 170720Z 24007KT 9999 FEW033 15/10 Q1009=
202406170750 METAR EGKK 170750Z 23006KT 190V270 9999 FEW023 16/10 Q1010=
202406170820 METAR EGKK 170820Z 24008KT 9999 FEW028 16/10 Q1010=
202406170850 METAR EGKK 170850Z 20008KT 180V250 9999 SCT028 17/10 Q1010=
202406170920 METAR EGKK 170920Z 23008KT 200V260 9999 SCT033 17/10 Q1010=
202406170950 METAR EGKK 170950Z 24007KT 200V270 9999 SCT036 18/10 Q1010=
202406171020 METAR EGKK 171020Z 24010KT 9999 SCT040 18/09 Q1010=
202406171050 METAR EGKK 171050Z 24009KT 210V280 9999 SCT045 19/10 Q1010=
202406171120 METAR EGKK 171120Z 25009KT 220V290 9999 SCT039 19/10 Q1010=
202406171150 METAR EGKK 171150Z 23008KT 190V260 9999 SCT041 20/10 Q1011=
202406171220 METAR EGKK 171220Z 25010KT 9999 SCT044 20/09 Q1011=
202406171250 METAR EGKK 171250Z 24010KT 9999 SCT044 20/10 Q1011=
202406171320 METAR EGKK 171320Z 23007KT 180V260 9999 FEW044 19/10 Q1011=
202406171350 METAR EGKK 171350Z 22007KT 180V250 9999 FEW036 20/11 Q1011=
202406171420 METAR EGKK 171420Z 22010KT 190V250 9999 SCT035 20/11 Q1011=
202406171450 METAR EGKK 171450Z 23008KT 200V260 9999 FEW038 20/11 Q1011=
202406171520 METAR EGKK 171520Z 21007KT 170V250 9999 FEW039 19/10 Q1011=
202406171550 METAR EGKK 171550Z 23008KT 190V280 9999 FEW039 20/11 Q1011=
202406171620 METAR EGKK 171620Z 24009KT 9999 FEW038 20/11 Q1011=
202406171650 METAR EGKK 171650Z 21009KT 170V250 9999 FEW044 19/11 Q1011=
202406171720 METAR EGKK 171720Z 21008KT 180V240 9999 FEW032 19/11 Q1011=
202406171750 METAR EGKK 171750Z 22009KT 180V250 9999 FEW032 19/11 Q1012=
202406171820 METAR EGKK 171820Z 21007KT 180V250 CAVOK 19/11 Q1012=
202406171850 METAR EGKK 171850Z 21008KT CAVOK 18/11 Q1012=
202406171920 METAR EGKK 171920Z 21006KT CAVOK 18/10 Q1012=
202406171950 METAR EGKK 171950Z 21005KT CAVOK 17/10 Q1012=
202406172020 METAR EGKK 172020Z 20004KT CAVOK 16/10 Q1013=
202406172050 METAR EGKK 172050Z 21003KT CAVOK 16/10 Q1013=
202406172120 METAR EGKK 172120Z 19002KT CAVOK 16/10 Q1013=
202406172150 METAR EGKK 172150Z 21004KT CAVOK 15/11 Q1013=
202406172220 METAR EGKK 172220Z VRB01KT CAVOK 14/10 Q1013=
202406172250 METAR EGKK 172250Z 25002KT CAVOK 14/10 Q1014=
202406172320 METAR EGKK 172320Z 18003KT CAVOK 13/11 Q1014=
202406172350 METAR EGKK 172350Z 00000KT CAVOK 12/10 Q1014=
202406180020 METAR EGKK 180020Z 21001KT CAVOK 12/10 Q1014=
202406180050 METAR EGKK 180050Z 00000KT CAVOK 12/10 Q1013=
202406180120 METAR EGKK 180120Z 00000KT CAVOK 12/10 Q1013=
202406180150 METAR EGKK 180150Z 27001KT CAVOK 11/10 Q1013=
202406180220 METAR EGKK 180220Z 21001KT CAVOK 11/10 Q1013=
202406180250 METAR EGKK 180250Z VRB02KT CAVOK 11/10 Q1013=
202406180320 METAR EGKK 180320Z 24002KT CAVOK 11/10 Q1013=
202406180350 METAR EGKK 180350Z 21002KT 9999 VCFG NSC 11/10 Q1013=
202406180420 METAR EGKK 180420Z 30001KT CAVOK 11/10 Q1013=
202406180450 METAR EGKK 180450Z VRB03KT CAVOK 13/11 Q1013=
202406180520 METAR EGKK 180520Z VRB03KT CAVOK 13/11 Q1013=
202406180550 METAR EGKK 180550Z 36005KT 320V130 CAVOK 14/11 Q1013=
202406180620 METAR EGKK 180620Z 33005KT CAVOK 14/11 Q1013=
202406180650 METAR EGKK 180650Z 01005KT CAVOK 15/11 Q1013=
202406180720 METAR EGKK 180720Z 02006KT CAVOK 15/11 Q1014=
202406180750 METAR EGKK 180750Z 01007KT 350V060 CAVOK 16/11 Q1014=
202406180820 METAR EGKK 180820Z 02006KT 360V080 CAVOK 16/11 Q1014=
202406180850 METAR EGKK 180850Z 03007KT CAVOK 17/12 Q1014=
202406180920 METAR EGKK 180920Z 02007G17KT 350V100 CAVOK 18/12 Q1014=
202406180950 METAR EGKK 180950Z VRB09G19KT CAVOK 18/12 Q1013=
202406181020 METAR EGKK 181020Z 02009KT CAVOK 18/11 Q1013=
202406181050 METAR EGKK 181050Z 01008KT 340V080 9999 FEW028 19/12 Q1013=
202406181120 METAR EGKK 181120Z 03006KT 330V060 9999 FEW032 20/12 Q1013=
202406181150 METAR EGKK 181150Z 04007KT 330V100 9999 FEW037 21/11 Q1013=
202406181220 METAR EGKK 181220Z 01006G17KT 300V070 9999 SCT038 21/11 Q1013=
202406181250 METAR EGKK 181250Z 08007KT 9999 BKN042 21/12 Q1013=
202406181320 METAR EGKK 181320Z 05007KT 350V120 9999 SCT042 21/11 Q1013=
202406181350 METAR EGKK 181350Z 04006KT 350V130 9999 SCT044 20/11 Q1013=
202406181420 METAR EGKK 181420Z 05007KT 010V090 9999 FEW042 20/12 Q1013=
202406181450 METAR EGKK 181450Z 08006KT 030V130 9999 FEW045 21/12 Q1013=
202406181520 METAR EGKK 181520Z 09006KT 050V130 9999 SCT046 21/12 Q1013=
202406181550 METAR EGKK 181550Z 08006KT 9999 SCT045 20/12 Q1013=
202406181620 METAR EGKK 181620Z 07005KT 9999 SCT044 20/12 Q1013=
202406181650 METAR EGKK 181650Z 09005KT 9999 SCT047 20/12 Q1014=
202406181720 METAR EGKK 181720Z 08005KT 9999 SCT043 20/12 Q1014=
202406181750 METAR EGKK 181750Z 08004KT 040V100 9999 BKN043 20/13 Q1014=
202406181820 METAR EGKK 181820Z 07004KT 9999 SCT037 19/13 Q1014=
202406181850 METAR EGKK 181850Z 02010KT 9999 SCT048 20/11 Q1014=
202406181920 METAR EGKK 181920Z 01008KT 9999 SCT043 19/10 Q1014=
202406181950 METAR EGKK 181950Z 01008KT 9999 SCT045 19/10 Q1014=
202406182020 METAR EGKK 182020Z 07008KT 9999 SCT042 18/12 Q1015=
202406182050 METAR EGKK 182050Z 07009KT 9999 FEW030 BKN039 17/12 Q1016=
202406182120 METAR EGKK 182120Z 06006KT 9999 SCT039 16/12 Q1016=
202406182150 METAR EGKK 182150Z 06006KT CAVOK 16/12 Q1016=
202406182220 METAR EGKK 182220Z 05005KT CAVOK 16/12 Q1016=
202406182250 METAR EGKK 182250Z 04006KT 9999 FEW040 15/12 Q1017=
202406182320 METAR EGKK 182320Z 04005KT 9999 SCT035 15/12 Q1017=
202406182350 METAR EGKK 182350Z 04007KT 9999 SCT035 15/12 Q1017=
202406190020 METAR EGKK 190020Z 07005KT 9999 FEW039 14/11 Q1017=
202406190050 METAR EGKK 190050Z 08005KT 9999 SCT020 13/11 Q1017=
202406190120 METAR EGKK 190120Z 04004KT 9999 SCT019 14/11 Q1017=
202406190150 METAR EGKK 190150Z 06005KT 020V090 9999 FEW019 13/11 Q1017=
202406190220 METAR EGKK 190220Z 02009KT 9999 FEW019 13/11 Q1018=
202406190250 METAR EGKK 190250Z 03007KT 9999 BKN011 12/11 Q1018=
202406190320 METAR EGKK 190320Z 03007KT 9999 BKN010 13/11 Q1018=
202406190350 METAR EGKK 190350Z 02007KT 9999 BKN014 13/11 Q1018=
202406190420 METAR EGKK 190420Z 01009KT 9999 BKN013 13/11 Q1018=
202406190450 METAR EGKK 190450Z 02009KT 9999 BKN014 13/11 Q1018=
202406190520 METAR EGKK 190520Z 02012KT 9999 BKN013 13/11 Q1018=
202406190550 METAR EGKK 190550Z 02010KT 9999 BKN013 13/11 Q1019=
202406190620 METAR EGKK 190620Z 04009KT 9999 BKN013 14/11 Q1019=
202406190650 METAR EGKK 190650Z 04009KT 9999 BKN016 14/10 Q1019=
202406190720 METAR EGKK 190720Z 03010KT 9999 BKN016 14/10 Q1020=
202406190750 METAR EGKK 190750Z 04009KT 9999 BKN016 14/10 Q1020=
202406190820 METAR EGKK 190820Z 04010KT 9999 BKN018 14/10 Q1020=
202406190850 METAR EGKK 190850Z 03009KT 9999 BKN022 15/11 Q1021=
202406190920 METAR EGKK 190920Z 04011KT 9999 BKN022 15/10 Q1021=
202406190950 METAR EGKK 190950Z 03010KT 9999 BKN022 15/10 Q1021=
202406191020 METAR EGKK 191020Z 03010KT 360V080 9999 FEW024 BKN029 16/10 Q1021=
202406191050 METAR EGKK 191050Z 04010KT 010V080 9999 FEW026 BKN033 16/10 Q1021=
202406191120 METAR EGKK 191120Z 05010G24KT 360V150 9999 SCT029 BKN034 17/10 Q1021=
202406191150 METAR EGKK 191150Z 05011KT 9999 BKN031 18/10 Q1021=
202406191220 METAR EGKK 191220Z 05012KT 9999 SCT035 19/09 Q1021=
202406191250 METAR EGKK 191250Z 06010KT 020V090 9999 SCT037 19/09 Q1022=
202406191320 METAR EGKK 191320Z 07010KT 040V110 9999 BKN040 19/09 Q1022=
202406191350 METAR EGKK 191350Z 04009KT 010V070 9999 SCT040 19/09 Q1021=
202406191420 METAR EGKK 191420Z 05009KT 020V110 9999 SCT041 19/10 Q1021=
202406191450 METAR EGKK 191450Z 07010KT 040V110 9999 SCT040 19/10 Q1021=
202406191520 METAR EGKK 191520Z 06010KT 030V100 9999 SCT042 20/10 Q1021=
202406191550 METAR EGKK 191550Z 08011KT 9999 SCT045 19/10 Q1021=
202406191620 METAR EGKK 191620Z 08010KT 9999 FEW036 19/10 Q1021=
202406191650 METAR EGKK 191650Z 09010KT 9999 FEW048 19/11 Q1021=
202406191720 METAR EGKK 191720Z 08011KT 9999 FEW032 18/11 Q1021=
202406191750 METAR EGKK 191750Z 09011KT 9999 FEW032 18/10 Q1021=
202406191820 METAR EGKK 191820Z 09011KT 9999 FEW032 17/10 Q1021=
202406191850 METAR EGKK 191850Z 07010KT CAVOK 17/10 Q1022=
202406191920 METAR EGKK 191920Z 07010KT CAVOK 16/10 Q1022=
202406191950 METAR EGKK 191950Z 07007KT CAVOK 14/09 Q1022=
202406192020 METAR EGKK 192020Z 08008KT CAVOK 14/09 Q1022=
202406192050 METAR EGKK 192050Z 08009KT CAVOK 13/08 Q1022=
202406192120 METAR EGKK 192120Z 07010KT 040V100 CAVOK 13/08 Q1022=
202406192150 METAR EGKK 192150Z 08007KT CAVOK 12/08 Q1023=
202406192220 METAR EGKK 192220Z 08006KT CAVOK 11/08 Q1023=
202406192250 METAR EGKK 192250Z 07004KT CAVOK 10/08 Q1023=
202406192320 METAR EGKK 192320Z 04005KT CAVOK 11/08 Q1023=
202406192350 METAR EGKK 192350Z 04005KT CAVOK 11/08 Q1023=
202406200020 METAR EGKK 200020Z 02004KT CAVOK 10/08 Q1022=
202406200050 METAR EGKK 200050Z 07004KT CAVOK 10/08 Q1022=
202406200120 METAR EGKK 200120Z 06003KT CAVOK 09/08 Q1022=
202406200150 METAR EGKK 200150Z 08003KT CAVOK 09/08 Q1022=
202406200220 METAR EGKK 200220Z 08004KT CAVOK 09/08 Q1022=
202406200250 METAR EGKK 200250Z 09004KT CAVOK 08/08 Q1021=
202406200320 METAR EGKK 200320Z VRB01KT CAVOK 08/08 Q1021=
202406200350 METAR EGKK 200350Z VRB01KT CAVOK 08/08 Q1021=
202406200420 METAR EGKK 200420Z 32003KT 270V350 CAVOK 08/07 Q1021=
202406200450 METAR EGKK 200450Z 34005KT CAVOK 10/08 Q1021=
202406200520 METAR EGKK 200520Z 01006KT CAVOK 11/09 Q1021=
202406200550 METAR EGKK 200550Z 02005KT 340V060 CAVOK 12/10 Q1021=
202406200620 METAR EGKK 200620Z 04005KT 360V110 CAVOK 13/10 Q1021=
202406200650 METAR EGKK 200650Z 05007KT CAVOK 14/10 Q1021=
202406200720 METAR EGKK 200720Z 05006KT 030V090 CAVOK 14/11 Q1021=
202406200750 METAR EGKK 200750Z 05007KT 020V090 CAVOK 15/10 Q1021=
202406200820 METAR EGKK 200820Z 07006KT 040V100 CAVOK 16/09 Q1021=
202406200850 METAR EGKK 200850Z 02005KT 310V090 CAVOK 17/10 Q1020=
202406200920 METAR EGKK 200920Z 05006KT 010V130 CAVOK 18/08 Q1020=
202406200950 METAR EGKK 200950Z 03007G17KT 320V140 CAVOK 19/09 Q1020=
202406201020 METAR EGKK 201020Z 03006G16KT 330V090 9999 FEW036 19/10 Q1020=
202406201050 METAR EGKK 201050Z 06006KT 360V110 9999 FEW036 20/11 Q1020=
202406201120 METAR EGKK 201120Z 04006KT 360V080 9999 FEW036 20/12 Q1019=
202406201150 METAR EGKK 201150Z 05006G18KT 350V120 9999 FEW036 20/11 Q1019=
202406201220 METAR EGKK 201220Z 02006KT 330V060 9999 SCT039 21/12 Q1019=
202406201250 METAR EGKK 201250Z 02007KT 340V080 9999 FEW039 21/11 Q1019=
202406201320 METAR EGKK 201320Z VRB06KT 9999 FEW040 21/11 Q1019=
202406201350 METAR EGKK 201350Z 05007KT 360V100 9999 FEW039 21/11 Q1018=
202406201420 METAR EGKK 201420Z 08006KT 040V140 9999 FEW043 21/11 Q1018=
202406201450 METAR EGKK 201450Z 07006KT 010V120 9999 FEW045 22/11 Q1018=
202406201520 METAR EGKK 201520Z 11003KT 360V170 9999 FEW045 22/11 Q1018=
202406201550 METAR EGKK 201550Z 11004KT 060V180 9999 FEW046 22/10 Q1018=
202406201620 METAR EGKK 201620Z 05003KT 350V100 9999 FEW048 21/10 Q1018=
202406201650 METAR EGKK 201650Z VRB02KT CAVOK 22/10 Q1017=
202406201720 METAR EGKK 201720Z 02004KT 250V060 CAVOK 22/10 Q1017=
202406201750 METAR EGKK 201750Z 06005KT 340V110 CAVOK 22/11 Q1017=
202406201820 METAR EGKK 201820Z 36005KT 320V060 CAVOK 22/10 Q1017=
202406201850 METAR EGKK 201850Z 09004KT CAVOK 21/11 Q1017=
202406201920 METAR EGKK 201920Z 09007KT CAVOK 19/11 Q1017=
202406201950 METAR EGKK 201950Z 10007KT CAVOK 18/11 Q1017=
202406202020 METAR EGKK 202020Z 12005KT CAVOK 18/11 Q1017=
202406202050 METAR EGKK 202050Z 11004KT CAVOK 17/11 Q1018=
202406202120 METAR EGKK 202120Z VRB02KT CAVOK 16/11 Q1017=
202406202150 METAR EGKK 202150Z 10002KT 9999 FEW030 16/11 Q1017=
202406202220 METAR EGKK 202220Z 12003KT 090V160 9999 SCT029 16/11 Q1017=
202406202250 METAR EGKK 202250Z 09004KT 9999 BKN032 15/11 Q1018=
202406202320 METAR EGKK 202320Z 13003KT 090V210 9999 FEW035 15/10 Q1017=
202406202350 METAR EGKK 202350Z 13001KT 9999 FEW034 14/10 Q1017=
202406210020 METAR EGKK 210020Z VRB02KT 9999 FEW035 13/10 Q1017=
202406210050 METAR EGKK 210050Z VRB01KT CAVOK 13/10 Q1017=
202406210120 METAR EGKK 210120Z 18002KT CAVOK 12/10 Q1016=
202406210150 METAR EGKK 210150Z 06001KT CAVOK 11/10 Q1016=
202406210220 METAR EGKK 210220Z 23002KT CAVOK 11/10 Q1016=
202406210250 METAR EGKK 210250Z 23001KT CAVOK 11/10 Q1016=
202406210320 METAR EGKK 210320Z 25001KT CAVOK 11/10 Q1016=
202406210350 METAR EGKK 210350Z 07002KT CAVOK 09/09 Q1015=
202406210420 METAR EGKK 210420Z 22002KT CAVOK 11/09 Q1015=
202406210450 METAR EGKK 210450Z VRB02KT CAVOK 11/10 Q1015=
202406210520 METAR EGKK 210520Z 18001KT CAVOK 12/11 Q1015=
202406210550 METAR EGKK 210550Z VRB02KT CAVOK 14/12 Q1015=
202406210620 METAR EGKK 210620Z VRB01KT CAVOK 15/12 Q1014=
202406210650 METAR EGKK 210650Z VRB02KT CAVOK 17/12 Q1015=
202406210720 METAR EGKK 210720Z VRB03KT CAVOK 18/12 Q1015=
202406210750 METAR EGKK 210750Z 23003KT 180V280 CAVOK 19/12 Q1015=
202406210820 METAR EGKK 210820Z VRB04KT CAVOK 20/12 Q1015=
202406210850 METAR EGKK 210850Z 22004KT 140V290 CAVOK 20/11 Q1014=
202406210920 METAR EGKK 210920Z 20004KT 140V240 9999 FEW044 21/10 Q1014=
202406210950 METAR EGKK 210950Z 23007KT 210V270 9999 FEW044 21/10 Q1014=
202406211020 METAR EGKK 211020Z 26009KT 200V300 9999 FEW045 22/11 Q1014=
202406211050 METAR EGKK 211050Z 25007KT 170V300 9999 SCT048 22/10 Q1014=
202406211120 METAR EGKK 211120Z 24008KT 190V270 9999 FEW048 23/09 Q1013=
202406211150 METAR EGKK 211150Z 25009KT 190V280 9999 FEW049 23/11 Q1013=
202406211220 METAR EGKK 211220Z 24009KT 200V300 9999 FEW045 23/10 Q1013=
202406211250 METAR EGKK 211250Z 24009KT 200V270 9999 FEW048 23/10 Q1013=
202406211320 METAR EGKK 211320Z 24009KT CAVOK 23/10 Q1012=
202406211350 METAR EGKK 211350Z 23011KT CAVOK 23/10 Q1012=
202406211420 METAR EGKK 211420Z 24012KT 9999 FEW047 22/11 Q1012=
202406211450 METAR EGKK 211450Z 22013KT 190V260 9999 FEW048 23/10 Q1012=
202406211520 METAR EGKK 211520Z 24014KT CAVOK 22/10 Q1012=
202406211550 METAR EGKK 211550Z 24014KT 9999 FEW049 22/10 Q1012=
202406211620 METAR EGKK 211620Z 22013KT 190V270 9999 FEW042 21/11 Q1012=
202406211650 METAR EGKK 211650Z 23014KT 9999 FEW040 21/11 Q1012=
202406211720 METAR EGKK 211720Z 24012KT CAVOK 20/11 Q1012=
202406211750 METAR EGKK 211750Z 23011KT CAVOK 19/10 Q1012=
202406211820 METAR EGKK 211820Z 24010KT 9999 FEW028 18/11 Q1012=
202406211850 METAR EGKK 211850Z 23012KT 9999 FEW028 17/10 Q1012=
202406211920 METAR EGKK 211920Z 24009KT CAVOK 16/10 Q1012=
202406211950 METAR EGKK 211950Z 23008KT 9999 FEW027 16/10 Q1012=
202406212020 METAR EGKK 212020Z 24012KT 9999 FEW025 15/10 Q1011=
202406212050 METAR EGKK 212050Z 23009KT 9999 FEW025 15/10 Q1012=
202406212120 METAR EGKK 212120Z 23008KT CAVOK 15/11 Q1012=
202406212150 METAR EGKK 212150Z 23007KT CAVOK 14/11 Q1012=
202406212220 METAR EGKK 212220Z 22005KT 190V250 CAVOK 14/11 Q1012=
202406212250 METAR EGKK 212250Z 22006KT CAVOK 14/11 Q1012=
202406212320 METAR EGKK 212320Z 22006KT 9999 FEW023 SCT035 14/11 Q1012=
202406212350 METAR EGKK 212350Z 22005KT 9999 -RA BKN016 14/12 Q1012=
202406220020 METAR EGKK 220020Z 21005KT 170V230 9999 -RA SCT010 BKN014 14/13 Q1012=
202406220050 METAR EGKK 220050Z 21004KT 9999 -RA FEW008 BKN011 14/13 Q1012=
202406220120 METAR EGKK 220120Z 20004KT 150V230 6000 -DZ FEW007 BKN011 14/13 Q1012=
202406220150 METAR EGKK 220150Z 21005KT 180V240 5000 -DZ BKN006 14/13 Q1011=
202406220220 METAR EGKK 220220Z 21005KT 5000 -DZ BKN005 14/13 Q1011=
202406220250 METAR EGKK 220250Z 22006KT 7000 BKN006 14/13 Q1011=
202406220320 METAR EGKK 220320Z 20007KT 7000 -RA BKN005 14/13 Q1011=
202406220350 METAR EGKK 220350Z 21006KT 9999 SCT006 BKN008 14/13 Q1011=
202406220420 METAR EGKK 220420Z 21004KT 180V240 9999 BKN007 14/13 Q1011=
202406220450 METAR COR EGKK 220450Z 21005KT 8000 VCSH BKN006 14/13 Q1011=
202406220520 METAR EGKK 220520Z 19003KT 150V230 3000 -RADZ BKN004 14/14 Q1011=
202406220550 METAR COR EGKK 220550Z 20005KT 170V240 3000 DZ BKN004 14/14 Q1011=
202406220620 METAR EGKK 220620Z 21005KT 150V240 3000 -DZ BKN004 15/14 Q1011 REDZ=
202406220650 METAR EGKK 220650Z 23006KT 8000 -DZ BKN006 15/14 Q1011=
202406220720 METAR EGKK 220720Z 23005KT 190V260 9999 BKN007 15/14 Q1011=
202406220750 METAR EGKK 220750Z 24005KT 200V260 9999 VCSH BKN010 16/14 Q1012=
202406220820 METAR EGKK 220820Z 25005KT 220V290 9999 3500NE -SHRA SCT009 SCT016 16/14 Q1012=
202406220850 METAR EGKK 220850Z 25004KT 220V280 9999 FEW010 SCT027 16/14 Q1012=
202406220920 METAR EGKK 220920Z 22003KT 180V310 9999 FEW015 SCT033 18/14 Q1012=
202406220950 METAR EGKK 220950Z 25008KT 9999 FEW015 SCT035 17/14 Q1012=
202406221020 METAR EGKK 221020Z 26008KT 240V300 9999 FEW020 SCT038 18/14 Q1012=
202406221050 METAR EGKK 221050Z 26005KT 220V310 9999 FEW022 SCT042 18/14 Q1013=
202406221120 METAR EGKK 221120Z 29010KT 9999 FEW021 SCT030 19/14 Q1013=
202406221150 METAR EGKK 221150Z 28009KT 250V320 9999 FEW022 19/14 Q1013=
202406221220 METAR EGKK 221220Z 27009KT 9999 SCT022 BKN044 19/13 Q1013=
202406221250 METAR EGKK 221250Z 25010KT 9999 FEW023 SCT048 19/13 Q1014=
202406221320 METAR EGKK 221320Z 27011KT 9999 SCT048 19/12 Q1014=
202406221350 METAR EGKK 221350Z 27008KT 9999 FEW032 20/12 Q1014=
202406221420 METAR EGKK 221420Z 28006KT 240V310 9999 FEW032 20/12 Q1014=
202406221450 METAR EGKK 221450Z 28008KT 230V320 9999 FEW043 21/11 Q1014=
202406221520 METAR EGKK 221520Z 31007KT 260V340 9999 SCT045 21/10 Q1014=
202406221550 METAR EGKK 221550Z 28009KT 250V330 9999 FEW047 22/09 Q1014=
202406221620 METAR EGKK 221620Z 29006KT 230V330 9999 FEW048 21/09 Q1014=
202406221650 METAR EGKK 221650Z 28009KT 260V320 CAVOK 22/09 Q1014=
202406221720 METAR EGKK 221720Z 27011KT CAVOK 22/09 Q1014=
202406221750 METAR EGKK 221750Z 27011KT CAVOK 21/09 Q1014=
202406221820 METAR EGKK 221820Z 27011KT CAVOK 21/09 Q1015=
202406221850 METAR EGKK 221850Z 27008KT CAVOK 20/09 Q1015=
202406221920 METAR EGKK 221920Z 27008KT CAVOK 19/09 Q1015=
202406221950 METAR EGKK 221950Z 28008KT CAVOK 19/10 Q1015=
202406222020 METAR EGKK 222020Z 26006KT CAVOK 17/10 Q1016=
202406222050 METAR EGKK 222050Z 24005KT CAVOK 16/11 Q1016=
202406222120 METAR EGKK 222120Z 23005KT CAVOK 16/12 Q1017=
202406222150 METAR EGKK 222150Z 22005KT CAVOK 15/12 Q1017=
202406222220 METAR EGKK 222220Z 24005KT CAVOK 15/12 Q1017=
202406222250 METAR EGKK 222250Z 22004KT CAVOK 14/12 Q1017=
202406222320 METAR EGKK 222320Z 23003KT CAVOK 14/12 Q1017=
202406222350 METAR EGKK 222350Z 22003KT CAVOK 13/12 Q1018=
202406230020 METAR EGKK 230020Z 20002KT CAVOK 13/12 Q1018=
202406230050 METAR EGKK 230050Z 18002KT CAVOK 12/11 Q1018=
202406230120 METAR EGKK 230120Z 19002KT CAVOK 12/11 Q1018=
202406230150 METAR EGKK 230150Z 18001KT CAVOK 12/11 Q1018=
202406230220 METAR EGKK 230220Z 19003KT CAVOK 12/11 Q1018=
202406230250 METAR EGKK 230250Z 19002KT CAVOK 12/11 Q1018=
202406230320 METAR EGKK 230320Z VRB01KT CAVOK 11/10 Q1018=
202406230350 METAR EGKK 230350Z 19002KT CAVOK 11/10 Q1018=
202406230420 METAR EGKK 230420Z 21001KT CAVOK 11/10 Q1019=
202406230450 METAR EGKK 230450Z 25002KT CAVOK 12/10 Q1019=
202406230520 METAR EGKK 230520Z VRB01KT CAVOK 13/10 Q1019=
202406230550 METAR EGKK 230550Z 28003KT 240V330 CAVOK 14/11 Q1019=
202406230620 METAR EGKK 230620Z 29006KT CAVOK 15/12 Q1019=
202406230650 METAR EGKK 230650Z 30006KT 270V330 CAVOK 16/12 Q1019=
202406230720 METAR EGKK 230720Z 29005KT 250V340 9999 FEW020 17/12 Q1019=
202406230750 METAR EGKK 230750Z 32004KT 280V010 9999 FEW023 18/12 Q1019=
202406230820 METAR EGKK 230820Z 28004KT 210V330 9999 FEW026 18/12 Q1020=
202406230850 METAR EGKK 230850Z 21003KT 160V270 9999 FEW029 19/12 Q1020=
202406230920 METAR EGKK 230920Z 23006KT 180V270 9999 SCT027 19/12 Q1020=
202406230950 METAR EGKK 230950Z 23005KT 190V300 9999 SCT028 20/13 Q1020=
202406231020 METAR EGKK 231020Z 22004KT 130V270 9999 SCT030 20/13 Q1020=
202406231050 METAR EGKK 231050Z 22006KT 190V290 9999 SCT028 21/13 Q1020=
202406231120 METAR EGKK 231120Z 23006KT 190V270 9999 SCT031 20/13 Q1020=
202406231150 METAR EGKK 231150Z 23006KT 210V300 9999 SCT033 20/13 Q1020=
202406231220 METAR EGKK 231220Z 22005KT 160V270 9999 SCT032 21/13 Q1020=
202406231250 METAR EGKK 231250Z 22007KT 160V260 9999 BKN031 21/14 Q1020=
202406231320 METAR EGKK 231320Z 24007KT 200V270 9999 BKN033 21/14 Q1020=
202406231350 METAR EGKK 231350Z 23006KT 190V260 9999 BKN036 21/14 Q1020=
202406231420 METAR EGKK 231420Z 21005KT 180V250 9999 BKN039 21/14 Q1020=
202406231450 METAR EGKK 231450Z 24008KT 9999 BKN032 21/14 Q1020=
202406231520 METAR EGKK 231520Z 22007KT 190V260 9999 BKN033 20/14 Q1020=
202406231550 METAR EGKK 231550Z 20006KT 9999 BKN038 21/15 Q1020=
202406231620 METAR EGKK 231620Z 21006KT 170V250 9999 BKN043 21/15 Q1020=
202406231650 METAR EGKK 231650Z 23008KT 190V270 9999 SCT043 21/14 Q1020=
202406231720 METAR EGKK 231720Z 23007KT 190V260 9999 FEW043 21/15 Q1020=
202406231750 METAR EGKK 231750Z 22005KT 170V250 9999 FEW043 21/15 Q1020=
202406231820 METAR EGKK 231820Z 23007KT 9999 SCT045 21/15 Q1020=
202406231850 METAR EGKK 231850Z 21004KT 180V250 9999 FEW044 20/15 Q1020=
202406231920 METAR EGKK 231920Z 21004KT 180V240 9999 FEW046 20/15 Q1020=
202406231950 METAR EGKK 231950Z 18004KT 9999 FEW046 19/15 Q1020=
202406232020 METAR EGKK 232020Z 20004KT 170V230 9999 FEW045 19/15 Q1021=
202406232050 METAR EGKK 232050Z 17004KT 140V220 9999 FEW046 18/15 Q1021=
202406232120 METAR EGKK 232120Z 17004KT 9999 BKN046 17/15 Q1021=
202406232150 METAR EGKK 232150Z 18005KT 9999 BKN045 17/14 Q1021=
202406232220 METAR EGKK 232220Z 18004KT 140V210 9999 BKN046 17/14 Q1021=
202406232250 METAR EGKK 232250Z 19003KT 160V230 9999 BKN046 17/14 Q1021=
202406232320 METAR EGKK 232320Z VRB02KT 9999 BKN046 17/14 Q1021=
202406232350 METAR EGKK 232350Z 25002KT 9999 BKN046 16/14 Q1021=
202406240020 METAR EGKK 240020Z 26001KT 9999 BKN045 16/14 Q1021=
202406240050 METAR EGKK 240050Z 26002KT 9999 BKN045 16/14 Q1021=
202406240120 METAR EGKK 240120Z VRB01KT 9999 SCT046 16/14 Q1021=
202406240150 METAR EGKK 240150Z 23002KT 9999 SCT046 15/14 Q1021=
202406240220 METAR EGKK 240220Z 20002KT 9999 FEW046 15/13 Q1020=
202406240250 METAR EGKK 240250Z VRB01KT CAVOK 14/14 Q1020=
202406240320 METAR EGKK 240320Z VRB01KT 9999 MIFG NSC 14/13 Q1020=
202406240350 METAR EGKK 240350Z 18001KT 9999 MIFG NSC 14/13 Q1020=
202406240420 METAR EGKK 240420Z 24002KT CAVOK 13/12 Q1020=
202406240450 METAR EGKK 240450Z 20001KT CAVOK 14/13 Q1020=
202406240520 METAR EGKK 240520Z VRB01KT CAVOK 15/14 Q1020=
202406240550 METAR EGKK 240550Z VRB02KT CAVOK 16/14 Q1020=
202406240620 METAR EGKK 240620Z 24003KT 190V280 CAVOK 17/15 Q1020=
202406240650 METAR EGKK 240650Z VRB02KT CAVOK 18/15 Q1021=
202406240720 METAR EGKK 240720Z VRB01KT CAVOK 20/15 Q1021=
202406240750 METAR EGKK 240750Z VRB02KT CAVOK 20/15 Q1020=
202406240820 METAR EGKK 240820Z VRB03KT 9999 FEW021 21/16 Q1020=
202406240850 METAR EGKK 240850Z 12003KT 050V180 9999 FEW027 22/16 Q1020=
202406240920 METAR EGKK 240920Z VRB03KT 9999 SCT027 23/16 Q1020=
202406240950 METAR EGKK 240950Z VRB02KT 9999 SCT028 22/16 Q1020=
202406241020 METAR EGKK 241020Z 12003KT 050V180 9999 SCT031 22/15 Q1020=
202406241050 METAR EGKK 241050Z VRB04KT 9999 SCT031 24/15 Q1020=
202406241120 METAR EGKK 241120Z 13005KT 070V200 9999 SCT034 24/15 Q1020=
202406241150 METAR EGKK 241150Z 10004KT 050V150 9999 SCT034 23/15 Q1019=
202406241220 METAR EGKK 241220Z 11004KT 040V150 9999 SCT035 23/15 Q1019=
202406241250 METAR EGKK 241250Z VRB02KT 9999 SCT034 23/15 Q1019=
202406241320 METAR EGKK 241320Z 17006KT 140V210 9999 SCT034 23/16 Q1019=
202406241350 METAR EGKK 241350Z 19005KT 160V220 9999 SCT039 23/16 Q1019=
202406241420 METAR EGKK 241420Z 17004KT 100V220 9999 SCT034 24/16 Q1018=
202406241450 METAR EGKK 241450Z 16003KT 060V220 9999 SCT041 24/15 Q1018=
202406241520 METAR EGKK 241520Z VRB02KT 9999 FEW036 24/16 Q1018=
202406241550 METAR EGKK 241550Z 10004KT 060V140 9999 FEW039 24/15 Q1018=
202406241620 METAR COR EGKK 241620Z 16004KT 080V250 9999 FEW040 25/15 Q1018=
202406241650 METAR EGKK 241650Z 18006KT 140V240 9999 FEW042 24/14 Q1018=
202406241720 METAR EGKK 241720Z 21005KT 140V240 9999 FEW042 24/14 Q1017=
202406241750 METAR EGKK 241750Z 19006KT 160V220 CAVOK 24/14 Q1017=
202406241820 METAR EGKK 241820Z 18005KT 140V220 CAVOK 23/14 Q1017=
202406241850 METAR EGKK 241850Z 17004KT 150V210 CAVOK 23/14 Q1017=
202406241920 METAR EGKK 241920Z 20004KT 160V230 CAVOK 22/14 Q1017=
202406241950 METAR EGKK 241950Z 17003KT CAVOK 21/14 Q1017=
202406242020 METAR EGKK 242020Z VRB02KT CAVOK 20/14 Q1017=
202406242050 METAR EGKK 242050Z 22002KT CAVOK 19/14 Q1018=
202406242120 METAR EGKK 242120Z VRB01KT CAVOK 18/13 Q1018=
202406242150 METAR EGKK 242150Z 19001KT CAVOK 17/13 Q1018=
202406242220 METAR EGKK 242220Z 22002KT CAVOK 16/13 Q1018=
202406242250 METAR EGKK 242250Z 19001KT CAVOK 16/13 Q1018=
202406242320 METAR EGKK 242320Z 27001KT CAVOK 15/13 Q1018=
202406242350 METAR EGKK 242350Z 22001KT CAVOK 14/13 Q1018=
202406250020 METAR EGKK 250020Z 00000KT CAVOK 13/12 Q1017=
202406250050 METAR EGKK 250050Z 09001KT CAVOK 13/13 Q1017=
202406250120 METAR EGKK 250120Z 00000KT CAVOK 13/12 Q1017=
202406250150 METAR EGKK 250150Z 24002KT CAVOK 13/12 Q1017=
202406250220 METAR EGKK 250220Z 25002KT CAVOK 13/11 Q1017=
202406250250 METAR EGKK 250250Z VRB01KT CAVOK 13/12 Q1017=
202406250320 METAR EGKK 250320Z 08002KT CAVOK 13/12 Q1017=
202406250350 METAR EGKK 250350Z VRB01KT CAVOK 12/11 Q1017=
202406250420 METAR EGKK 250420Z 19001KT CAVOK 12/11 Q1017=
202406250450 METAR EGKK 250450Z VRB01KT CAVOK 13/12 Q1017=
202406250520 METAR EGKK 250520Z VRB01KT CAVOK 15/13 Q1017=
202406250550 METAR EGKK 250550Z VRB01KT CAVOK 16/13 Q1017=
202406250620 METAR EGKK 250620Z VRB02KT CAVOK 17/14 Q1016=
202406250650 METAR EGKK 250650Z VRB02KT CAVOK 19/14 Q1016=
202406250720 METAR EGKK 250720Z VRB03KT CAVOK 20/14 Q1016=
202406250750 METAR EGKK 250750Z 08003KT 350V150 CAVOK 21/14 Q1016=
202406250820 METAR EGKK 250820Z VRB02KT CAVOK 22/15 Q1016=
202406250850 METAR EGKK 250850Z VRB02KT CAVOK 23/15 Q1016=
202406250920 METAR EGKK 250920Z 09004KT 020V150 CAVOK 24/14 Q1016=
202406250950 METAR EGKK 250950Z VRB04KT CAVOK 25/15 Q1016=
202406251020 METAR EGKK 251020Z VRB04KT CAVOK 25/15 Q1016=
202406251050 METAR EGKK 251050Z 05005KT 320V080 9999 FEW048 25/15 Q1016=
202406251120 METAR EGKK 251120Z VRB04KT CAVOK 25/14 Q1016=
202406251150 METAR EGKK 251150Z 07004KT 330V140 9999 FEW048 26/15 Q1016=
202406251220 METAR EGKK 251220Z 07007KT 030V120 9999 SCT048 27/15 Q1015=
202406251250 METAR EGKK 251250Z 02006G17KT 340V120 9999 SCT049 27/15 Q1015=
202406251320 METAR EGKK 251320Z 02007KT 330V050 9999 SCT049 27/15 Q1015=
202406251350 METAR EGKK 251350Z 07006KT 010V100 CAVOK 27/15 Q1015=
202406251420 METAR EGKK 251420Z 05007KT 020V090 CAVOK 27/14 Q1014=
202406251450 METAR EGKK 251450Z 07007KT 040V120 CAVOK 26/15 Q1014=
202406251520 METAR EGKK 251520Z 08006KT 010V150 CAVOK 28/15 Q1014=
202406251550 METAR EGKK 251550Z 09005KT 040V150 CAVOK 26/14 Q1014=
202406251620 METAR EGKK 251620Z 08003KT 030V140 CAVOK 27/14 Q1014=
202406251650 METAR EGKK 251650Z 08007KT CAVOK 26/15 Q1014=
202406251720 METAR EGKK 251720Z 11005KT 060V160 CAVOK 27/14 Q1014=
202406251750 METAR EGKK 251750Z 08006KT CAVOK 26/15 Q1014=
202406251820 METAR EGKK 251820Z 08006KT CAVOK 25/15 Q1014=
202406251850 METAR EGKK 251850Z 09005KT CAVOK 25/15 Q1014=
202406251920 METAR EGKK 251920Z 11004KT CAVOK 25/15 Q1014=
202406251950 METAR EGKK 251950Z 26003KT 230V290 CAVOK 24/16 Q1014=
202406252020 METAR EGKK 252020Z VRB02KT CAVOK 23/15 Q1014=
202406252050 METAR EGKK 252050Z 09004KT CAVOK 21/15 Q1014=
202406252120 METAR EGKK 252120Z 08006KT CAVOK 20/14 Q1014=
202406252150 METAR EGKK 252150Z 08003KT CAVOK 20/14 Q1014=
202406252220 METAR EGKK 252220Z VRB01KT CAVOK 20/14 Q1015=
202406252250 METAR EGKK 252250Z 07002KT CAVOK 20/14 Q1015=
202406252320 METAR EGKK 252320Z 08003KT CAVOK 19/14 Q1015=
202406252350 METAR EGKK 252350Z 09004KT CAVOK 18/14 Q1015=
202406260020 METAR EGKK 260020Z 10002KT CAVOK 18/14 Q1015=
202406260050 METAR EGKK 260050Z VRB02KT CAVOK 17/13 Q1014=
202406260120 METAR EGKK 260120Z 09003KT CAVOK 17/13 Q1014=
202406260150 METAR EGKK 260150Z 10003KT CAVOK 17/13 Q1014=
202406260220 METAR EGKK 260220Z 10003KT CAVOK 16/13 Q1014=
202406260250 METAR EGKK 260250Z 07001KT CAVOK 15/13 Q1014=
202406260320 METAR EGKK 260320Z VRB01KT CAVOK 14/13 Q1013=
202406260350 METAR EGKK 260350Z 08002KT CAVOK 14/13 Q1013=
202406260420 METAR EGKK 260420Z 05002KT CAVOK 15/13 Q1013=
202406260450 METAR EGKK 260450Z VRB02KT CAVOK 15/13 Q1013=
202406260520 METAR EGKK 260520Z VRB01KT CAVOK 16/14 Q1013=
202406260550 METAR EGKK 260550Z VRB02KT CAVOK 18/14 Q1013=
202406260620 METAR EGKK 260620Z VRB03KT CAVOK 19/14 Q1013=
202406260650 METAR EGKK 260650Z 06006KT 020V100 CAVOK 20/15 Q1013=
202406260720 METAR EGKK 260720Z 05006KT 010V080 CAVOK 21/15 Q1013=
202406260750 METAR EGKK 260750Z 03006KT 340V050 CAVOK 22/15 Q1013=
202406260820 METAR EGKK 260820Z 06006KT 010V090 CAVOK 22/15 Q1013=
202406260850 METAR EGKK 260850Z 03005KT 340V080 CAVOK 23/16 Q1013=
202406260920 METAR EGKK 260920Z 07005KT 020V110 CAVOK 24/16 Q1013=
202406260950 METAR EGKK 260950Z 04005KT 350V110 CAVOK 25/16 Q1012=
202406261020 METAR EGKK 261020Z 11005KT 040V160 CAVOK 25/15 Q1012=
202406261050 METAR EGKK 261050Z VRB05KT 9999 FEW040 26/16 Q1012=
202406261120 METAR EGKK 261120Z VRB03KT 9999 FEW043 26/15 Q1012=
202406261150 METAR EGKK 261150Z VRB02KT 9999 SCT045 26/16 Q1012=
202406261220 METAR EGKK 261220Z 29004KT 240V350 9999 FEW044 26/15 Q1012=
202406261250 METAR EGKK 261250Z 35004KT 290V070 9999 FEW047 27/16 Q1011=
202406261320 METAR EGKK 261320Z 29004KT 230V010 9999 FEW048 27/16 Q1011=
202406261350 METAR EGKK 261350Z 22005KT 140V270 CAVOK 28/15 Q1011=
202406261420 METAR EGKK 261420Z 17003KT 110V210 CAVOK 27/15 Q1011=
202406261450 METAR EGKK 261450Z VRB03KT CAVOK 27/15 Q1010=
202406261520 METAR EGKK 261520Z 20004KT 140V250 CAVOK 28/15 Q1010=
202406261550 METAR EGKK 261550Z 25007KT CAVOK 28/15 Q1010=
202406261620 METAR EGKK 261620Z 19006KT 140V220 CAVOK 28/15 Q1010=
202406261650 METAR EGKK 261650Z 21006KT 170V260 CAVOK 28/15 Q1010=
202406261720 METAR EGKK 261720Z 20007KT CAVOK 27/15 Q1010=
202406261750 METAR EGKK 261750Z 20008KT 170V230 CAVOK 27/15 Q1009=
202406261820 METAR EGKK 261820Z 20007KT 160V230 CAVOK 26/15 Q1009=
202406261850 METAR EGKK 261850Z 22007KT CAVOK 25/14 Q1009=
202406261920 METAR EGKK 261920Z 20006KT 170V230 CAVOK 24/14 Q1009=
202406261950 METAR EGKK 261950Z 21006KT CAVOK 23/14 Q1009=
202406262020 METAR EGKK 262020Z 20004KT 170V230 CAVOK 22/14 Q1010=
202406262050 METAR EGKK 262050Z 18004KT CAVOK 21/14 Q1010=
202406262120 METAR EGKK 262120Z 18003KT CAVOK 20/14 Q1010=
202406262150 METAR EGKK 262150Z 17004KT CAVOK 20/14 Q1010=
202406262220 METAR EGKK 262220Z 18005KT CAVOK 19/14 Q1009=
202406262250 METAR EGKK 262250Z 18003KT 150V210 CAVOK 19/14 Q1010=
202406262320 METAR EGKK 262320Z VRB02KT CAVOK 18/15 Q1010=
202406262350 METAR EGKK 262350Z 19002KT CAVOK 18/15 Q1010=
202406270020 METAR EGKK 270020Z 22003KT 180V240 8000 NSC 18/15 Q1010=
202406270050 METAR EGKK 270050Z 23003KT 200V270 9000 NSC 17/15 Q1010=
202406270120 METAR EGKK 270120Z 21003KT 160V240 9000 NSC 17/15 Q1009=
202406270150 METAR EGKK 270150Z 22002KT 9000 NSC 16/15 Q1009=
202406270220 METAR EGKK 270220Z 26003KT 8000 NSC 16/14 Q1009=
202406270250 METAR EGKK 270250Z 20003KT 160V240 8000 NSC 16/15 Q1009=
202406270320 METAR EGKK 270320Z 20002KT 7000 NSC 16/14 Q1009=
202406270350 METAR EGKK 270350Z 27002KT 7000 NSC 15/14 Q1008=
202406270420 METAR EGKK 270420Z 04001KT 8000 NSC 15/14 Q1008=
202406270450 METAR EGKK 270450Z 24002KT 8000 NSC 16/15 Q1008=
202406270520 METAR EGKK 270520Z 25003KT 9000 NSC 17/15 Q1008=
202406270550 METAR EGKK 270550Z 21004KT 180V240 CAVOK 18/14 Q1008=
202406270620 METAR EGKK 270620Z 21005KT CAVOK 19/14 Q1008=
202406270650 METAR EGKK 270650Z 24008KT CAVOK 19/14 Q1009=
202406270720 METAR EGKK 270720Z 24008KT 9999 FEW015 SCT049 19/14 Q1009=
202406270750 METAR EGKK 270750Z 25007KT 9999 BKN016 18/15 Q1009=
202406270820 METAR EGKK 270820Z 26006KT 190V300 9999 FEW016 SCT017 18/15 Q1009=
202406270850 METAR EGKK 270850Z 23006KT 170V280 9999 SCT017 19/15 Q1009=
202406270920 METAR EGKK 270920Z 23007KT 170V310 9999 FEW020 20/15 Q1009=
202406270950 METAR EGKK 270950Z 24008KT 170V280 9999 FEW027 21/14 Q1009=
202406271020 METAR EGKK 271020Z 24008KT 210V280 9999 FEW030 22/14 Q1009=
202406271050 METAR EGKK 271050Z 24009G19KT 180V310 9999 SCT031 22/14 Q1009=
202406271120 METAR EGKK 271120Z 26011KT 9999 BKN030 22/15 Q1009=
202406271150 METAR EGKK 271150Z 26011KT 230V290 9999 SCT040 22/15 Q1009=
202406271220 METAR EGKK 271220Z 26012KT 9999 SCT029 22/15 Q1009=
202406271250 METAR EGKK 271250Z 24011KT 9999 SCT037 23/14 Q1009=
202406271320 METAR EGKK 271320Z 24011KT 9999 SCT036 23/13 Q1009=
202406271350 METAR EGKK 271350Z 25012KT 9999 SCT040 23/13 Q1009=
202406271420 METAR EGKK 271420Z 25012KT 190V270 9999 SCT041 24/13 Q1009=
202406271450 METAR EGKK 271450Z 23011KT 200V270 9999 SCT038 23/14 Q1009=
202406271520 METAR EGKK 271520Z 22012KT 9999 SCT036 22/14 Q1009=
202406271550 METAR EGKK 271550Z 23012KT 190V260 9999 FEW036 22/14 Q1009=
202406271620 METAR EGKK 271620Z 22011KT 9999 FEW038 22/13 Q1009=
202406271650 METAR EGKK 271650Z 22011KT 180V240 9999 FEW038 22/13 Q1009=
202406271720 METAR EGKK 271720Z 23012KT 9999 FEW036 21/13 Q1009=
202406271750 METAR EGKK 271750Z 23012KT 9999 FEW045 21/12 Q1009=
202406271820 METAR EGKK 271820Z 23011KT 9999 FEW045 20/11 Q1009=
202406271850 METAR EGKK 271850Z 23010KT 9999 FEW048 20/12 Q1009=
202406271920 METAR EGKK 271920Z 23009KT 9999 FEW044 20/12 Q1010=
202406271950 METAR EGKK 271950Z 27013KT 9999 FEW048 19/10 Q1010=
202406272020 METAR EGKK 272020Z 29012KT 9999 FEW047 18/10 Q1011=
202406272050 METAR EGKK 272050Z 28012KT 9999 FEW046 17/10 Q1011=
202406272120 METAR EGKK 272120Z 27012KT 9999 FEW046 16/10 Q1012=
202406272150 METAR EGKK 272150Z 27011KT 9999 FEW046 15/09 Q1012=
202406272220 METAR EGKK 272220Z 26011KT CAVOK 14/09 Q1013=
202406272250 METAR EGKK 272250Z 25010KT CAVOK 14/08 Q1013=
202406272320 METAR EGKK 272320Z 25008KT CAVOK 14/08 Q1013=
202406272350 METAR EGKK 272350Z 25007KT CAVOK 13/08 Q1013=
202406280020 METAR EGKK 280020Z 25010KT CAVOK 12/08 Q1013=
202406280050 METAR EGKK 280050Z 25010KT CAVOK 13/08 Q1013=
202406280120 METAR EGKK 280120Z 25011KT CAVOK 12/08 Q1013=
202406280150 METAR EGKK 280150Z 24007KT CAVOK 12/08 Q1013=
202406280220 METAR EGKK 280220Z 24007KT CAVOK 12/08 Q1014=
202406280250 METAR EGKK 280250Z 24007KT CAVOK 12/08 Q1014=
202406280320 METAR EGKK 280320Z 23006KT CAVOK 11/08 Q1014=
202406280350 METAR EGKK 280350Z 23006KT CAVOK 11/08 Q1014=
202406280420 METAR EGKK 280420Z 22005KT CAVOK 12/08 Q1014=
202406280450 METAR EGKK 280450Z 22006KT CAVOK 12/09 Q1015=
202406280520 METAR EGKK 280520Z 23007KT 9999 FEW039 13/09 Q1015=
202406280550 METAR EGKK 280550Z 23007KT 9999 FEW045 14/10 Q1015=
202406280620 METAR EGKK 280620Z 24009KT 9999 FEW044 14/10 Q1016=
202406280650 METAR EGKK 280650Z 26009KT 9999 FEW021 15/10 Q1016=
202406280720 METAR EGKK 280720Z 24010KT 9999 FEW020 16/10 Q1016=
202406280750 METAR EGKK 280750Z 25012KT 220V280 9999 FEW027 SCT046 17/10 Q1016=
202406280820 METAR EGKK 280820Z 25013KT 9999 FEW028 SCT042 17/09 Q1016=
202406280850 METAR EGKK 280850Z 29011KT 9999 SCT033 17/09 Q1016=
202406280920 METAR EGKK 280920Z 28013KT 9999 SCT033 18/09 Q1016=
202406280950 METAR EGKK 280950Z 25012KT 210V280 9999 SCT033 17/09 Q1017=
202406281020 METAR EGKK 281020Z 25011KT 9999 BKN041 17/09 Q1017=
202406281050 METAR EGKK 281050Z 26011KT 9999 BKN037 18/09 Q1017=
202406281120 METAR EGKK 281120Z 24011KT 9999 BKN044 17/09 Q1017=
202406281150 METAR EGKK 281150Z 24012KT 9999 FEW034 BKN045 18/09 Q1017=
202406281220 METAR EGKK 281220Z 23010KT 9999 FEW035 BKN045 18/09 Q1017=
202406281250 METAR EGKK 281250Z 23011KT 200V270 9999 FEW034 BKN046 18/09 Q1017=
202406281320 METAR EGKK 281320Z 25009KT 210V300 9999 FEW035 SCT042 19/10 Q1017=
202406281350 METAR EGKK 281350Z 23009KT 190V270 9999 SCT038 SCT045 19/09 Q1017=
202406281420 METAR EGKK 281420Z 24010KT 9999 BKN042 19/09 Q1017=
202406281450 METAR EGKK 281450Z 24010KT 9999 BKN042 19/10 Q1017=
202406281520 METAR EGKK 281520Z 25009KT 210V280 9999 BKN045 19/10 Q1017=
202406281550 METAR EGKK 281550Z 25010KT 220V290 9999 BKN042 19/10 Q1017=
202406281620 METAR EGKK 281620Z 25008KT 210V280 9999 BKN044 19/10 Q1017=
202406281650 METAR EGKK 281650Z 24009KT 9999 BKN045 19/09 Q1017=
202406281720 METAR EGKK 281720Z 24009KT 210V290 9999 BKN044 19/09 Q1017=
202406281750 METAR EGKK 281750Z 27009KT 9999 BKN045 19/09 Q1017=
202406281820 METAR EGKK 281820Z 25008KT 9999 SCT042 18/10 Q1017=
202406281850 METAR EGKK 281850Z 24006KT 9999 SCT046 18/10 Q1017=
202406281920 METAR EGKK 281920Z 24005KT 200V260 9999 FEW045 18/10 Q1017=
202406281950 METAR EGKK 281950Z 25005KT 9999 FEW045 17/10 Q1017=
202406282020 METAR EGKK 282020Z 22004KT 9999 FEW045 16/10 Q1017=
202406282050 METAR EGKK 282050Z 22003KT 9999 FEW045 16/10 Q1018=
202406282120 METAR EGKK 282120Z 23003KT 9999 FEW044 15/10 Q1018=
202406282150 METAR EGKK 282150Z 22003KT CAVOK 14/10 Q1018=
202406282220 METAR EGKK 282220Z 21004KT CAVOK 14/11 Q1018=
202406282250 METAR EGKK 282250Z 22005KT CAVOK 14/11 Q1018=
202406282320 METAR EGKK 282320Z 23005KT CAVOK 13/11 Q1018=
202406282350 METAR EGKK 282350Z 23004KT CAVOK 13/11 Q1017=
202406290020 METAR EGKK 290020Z 25003KT CAVOK 12/10 Q1017=
202406290050 METAR EGKK 290050Z 20003KT CAVOK 12/11 Q1017=
202406290120 METAR EGKK 290120Z VRB01KT CAVOK 11/10 Q1017=
202406290150 METAR EGKK 290150Z 19002KT CAVOK 11/10 Q1017=
202406290220 METAR EGKK 290220Z VRB02KT CAVOK 11/10 Q1017=
202406290250 METAR EGKK 290250Z 20001KT CAVOK 10/09 Q1016=
202406290320 METAR EGKK 290320Z 26002KT CAVOK 11/09 Q1016=
202406290350 METAR EGKK 290350Z VRB02KT CAVOK 10/09 Q1016=
202406290420 METAR EGKK 290420Z VRB01KT CAVOK 11/08 Q1016=
202406290450 METAR EGKK 290450Z VRB02KT CAVOK 11/08 Q1016=
202406290520 METAR EGKK 290520Z VRB02KT CAVOK 12/08 Q1016=
202406290550 METAR EGKK 290550Z 31003KT 250V020 CAVOK 13/08 Q1016=
202406290620 METAR EGKK 290620Z VRB02KT CAVOK 14/08 Q1016=
202406290650 METAR EGKK 290650Z 31003KT 220V030 CAVOK 15/08 Q1016=
202406290720 METAR EGKK 290720Z VRB02KT CAVOK 16/09 Q1016=
202406290750 METAR EGKK 290750Z VRB02KT CAVOK 17/09 Q1016=
202406290820 METAR EGKK 290820Z VRB02KT CAVOK 18/09 Q1016=
202406290850 METAR EGKK 290850Z VRB03KT CAVOK 18/09 Q1015=
202406290920 METAR EGKK 290920Z 28005KT 240V300 9999 FEW036 19/10 Q1015=
202406290950 METAR EGKK 290950Z 26004KT 220V020 9999 FEW040 19/09 Q1015=
202406291020 METAR EGKK 291020Z VRB04KT CAVOK 19/09 Q1015=
202406291050 METAR EGKK 291050Z 24005KT 170V300 9999 FEW040 20/10 Q1015=
202406291120 METAR EGKK 291120Z VRB02KT 9999 FEW041 20/10 Q1014=
202406291150 METAR EGKK 291150Z 29006KT 230V340 9999 FEW040 21/09 Q1014=
202406291220 METAR EGKK 291220Z VRB03KT CAVOK 21/09 Q1014=
202406291250 METAR EGKK 291250Z VRB04KT CAVOK 22/10 Q1013=
202406291320 METAR EGKK 291320Z VRB04KT CAVOK 22/10 Q1013=
202406291350 METAR EGKK 291350Z VRB05KT CAVOK 22/10 Q1013=
202406291420 METAR EGKK 291420Z VRB03KT CAVOK 22/10 Q1012=
202406291450 METAR EGKK 291450Z VRB02KT CAVOK 22/09 Q1012=
202406291520 METAR EGKK 291520Z VRB05KT CAVOK 22/09 Q1011=
202406291550 METAR EGKK 291550Z VRB02KT CAVOK 22/10 Q1011=
202406291620 METAR EGKK 291620Z 09003KT 040V150 CAVOK 22/10 Q1011=
202406291650 METAR EGKK 291650Z 22005KT 170V240 CAVOK 21/12 Q1011=
202406291720 METAR EGKK 291720Z 22005KT CAVOK 21/12 Q1011=
202406291750 METAR EGKK 291750Z 22004KT CAVOK 21/13 Q1011=
202406291820 METAR EGKK 291820Z 23006KT CAVOK 21/13 Q1011=
202406291850 METAR EGKK 291850Z 23004KT CAVOK 20/13 Q1010=
202406291920 METAR EGKK 291920Z 23004KT CAVOK 20/13 Q1010=
202406291950 METAR EGKK 291950Z 24004KT CAVOK 19/13 Q1010=
202406292020 METAR EGKK 292020Z 22004KT CAVOK 18/13 Q1010=
202406292050 METAR EGKK 292050Z 22003KT 200V260 CAVOK 18/13 Q1010=
202406292120 METAR EGKK 292120Z 15004KT 120V190 CAVOK 17/13 Q1011=
202406292150 METAR EGKK 292150Z VRB02KT CAVOK 17/13 Q1011=
202406292220 METAR EGKK 292220Z 16002KT CAVOK 16/13 Q1011=
202406292250 METAR EGKK 292250Z 18001KT CAVOK 16/13 Q1011=
202406292320 METAR EGKK 292320Z 25001KT CAVOK 15/12 Q1011=
202406292350 METAR EGKK 292350Z 00000KT CAVOK 15/13 Q1011=
202406300020 METAR EGKK 300020Z 25003KT CAVOK 14/12 Q1011=
202406300050 METAR EGKK 300050Z 21001KT CAVOK 14/12 Q1011=
202406300120 METAR EGKK 300120Z 25002KT CAVOK 14/12 Q1010=
202406300150 METAR EGKK 300150Z VRB02KT CAVOK 13/11 Q1010=
202406300220 METAR EGKK 300220Z 19002KT CAVOK 13/12 Q1010=
202406300250 METAR EGKK 300250Z 26002KT CAVOK 13/12 Q1010=
202406300320 METAR EGKK 300320Z 31005KT CAVOK 16/12 Q1010=
202406300350 METAR EGKK 300350Z 31004KT 260V330 CAVOK 15/12 Q1010=
202406300420 METAR EGKK 300420Z 32004KT 300V360 CAVOK 16/12 Q1010=
202406300450 METAR EGKK 300450Z 32006KT CAVOK 16/12 Q1011=
202406300520 METAR EGKK 300520Z 31006KT 9999 SCT040 17/13 Q1011=
202406300550 METAR EGKK 300550Z 31006KT 280V350 9999 FEW020 SCT038 16/14 Q1011=
202406300620 METAR EGKK 300620Z 32006KT 280V360 9999 FEW039 17/14 Q1011=
202406300650 METAR EGKK 300650Z 33007KT 9999 FEW032 17/14 Q1012=
202406300720 METAR EGKK 300720Z 30009KT 270V340 9999 FEW012 SCT039 18/14 Q1012=
202406300750 METAR EGKK 300750Z 31008KT 9999 FEW013 SCT034 18/14 Q1012=
202406300820 METAR EGKK 300820Z 31011KT 270V340 9999 FEW016 SCT027 18/14 Q1012=
202406300850 METAR EGKK 300850Z 32012KT 9999 FEW016 BKN027 17/13 Q1012=
202406300920 METAR EGKK 300920Z 31010KT 9999 BKN022 16/13 Q1013=
202406300950 METAR EGKK 300950Z 33011KT 290V350 9999 FEW011 BKN020 16/13 Q1013=
202406301020 METAR EGKK 301020Z 31012KT 9999 FEW015 BKN023 16/12 Q1013=
202406301050 METAR EGKK 301050Z 32011KT 9999 -RADZ BKN013 15/13 Q1014=
202406301120 METAR EGKK 301120Z 32008KT 280V360 9999 VCSH FEW013 BKN016 15/12 Q1014=
202406301150 METAR EGKK 301150Z 34010KT 9999 SCT014 BKN025 16/12 Q1014=
202406301220 METAR EGKK 301220Z 32009KT 280V350 9999 SCT017 BKN025 16/12 Q1014=
202406301250 METAR EGKK 301250Z 32009KT 9999 VCSH SCT021 BKN037 17/11 Q1014=
202406301320 METAR EGKK 301320Z 31005KT 260V010 9999 SCT027 SCT040 18/11 Q1014=
202406301350 METAR EGKK 301350Z 32007KT 270V010 9999 SCT026 SCT033 19/11 Q1014=
202406301420 METAR EGKK 301420Z 30008KT 260V350 9999 SCT035 20/10 Q1013=
202406301450 METAR EGKK 301450Z 31006KT 250V020 9999 SCT040 20/10 Q1013=
202406301520 METAR EGKK 301520Z 30008KT 270V330 9999 SCT040 19/10 Q1013=
202406301550 METAR EGKK 301550Z 32005KT 290V360 9999 BKN043 19/09 Q1013=
202406301620 METAR EGKK 301620Z 33010KT 290V010 9999 BKN047 19/09 Q1014=
202406301650 METAR COR EGKK 301650Z 33011KT 310V010 9999 SCT044 19/09 Q1014=
202406301720 METAR EGKK 301720Z 31011KT 9999 FEW040 19/09 Q1014=
202406301750 METAR EGKK 301750Z 31011KT 9999 FEW048 19/08 Q1014=
202406301820 METAR EGKK 301820Z 34010KT 9999 FEW045 18/09 Q1014=
202406301850 METAR EGKK 301850Z 34009KT 300V020 CAVOK 18/09 Q1015=
202406301920 METAR EGKK 301920Z 33007KT 290V350 CAVOK 17/09 Q1015=
202406301950 METAR EGKK 301950Z 33008KT 280V360 CAVOK 17/09 Q1015=
202406302020 METAR EGKK 302020Z 31006KT CAVOK 17/09 Q1015=
202406302050 METAR EGKK 302050Z 32006KT CAVOK 16/09 Q1015=
202406302120 METAR EGKK 302120Z 32006KT CAVOK 16/09 Q1016=
202406302150 METAR EGKK 302150Z 32007KT 300V360 CAVOK 16/09 Q1016=
202406302220 METAR EGKK 302220Z 33008KT 290V360 CAVOK 16/09 Q1016=
202406302250 METAR EGKK 302250Z 33007KT CAVOK 15/09 Q1016=
202406302320 METAR EGKK 302320Z 30005KT 260V340 CAVOK 15/09 Q1016=
202406302350 METAR EGKK 302350Z 33006KT CAVOK 15/09 Q1016=
202407010020 METAR EGKK 010020Z 32006KT CAVOK 15/09 Q1017=
202407010050 METAR EGKK 010050Z 31004KT 280V360 CAVOK 15/09 Q1017=
202407010120 METAR EGKK 010120Z 34004KT 280V010 CAVOK 15/09 Q1017=
202407010150 METAR EGKK 010150Z 28003KT 250V320 CAVOK 14/09 Q1017=
202407010220 METAR EGKK 010220Z 29004KT CAVOK 14/10 Q1017=
202407010250 METAR EGKK 010250Z 29004KT 270V330 CAVOK 14/09 Q1017=
202407010320 METAR EGKK 010320Z 32003KT 270V360 CAVOK 14/09 Q1017=
202407010350 METAR EGKK 010350Z 32007KT CAVOK 14/10 Q1017=
202407010420 METAR EGKK 010420Z 30006KT CAVOK 14/10 Q1017=
202407010450 METAR EGKK 010450Z 30005KT CAVOK 14/10 Q1017=
202407010520 METAR EGKK 010520Z 31006KT 270V340 CAVOK 14/10 Q1017=
202407010550 METAR EGKK 010550Z 30008KT CAVOK 14/09 Q1017=
202407010620 METAR EGKK 010620Z 30008KT CAVOK 14/10 Q1018=
202407010650 METAR EGKK 010650Z 30009KT CAVOK 15/09 Q1018=
202407010720 METAR EGKK 010720Z 29006KT 260V320 9999 FEW028 16/09 Q1018=
202407010750 METAR EGKK 010750Z 30007KT 210V350 9999 FEW029 SCT049 16/09 Q1018=
202407010820 METAR EGKK 010820Z 29009KT 9999 FEW028 SCT041 16/08 Q1018=
202407010850 METAR EGKK 010850Z 31008KT 260V340 9999 FEW032 SCT041 16/09 Q1018=
202407010920 METAR EGKK 010920Z 29009KT 9999 SCT042 17/09 Q1018=
202407010950 METAR EGKK 010950Z 29009KT 9999 FEW033 SCT043 17/08 Q1018=
202407011020 METAR EGKK 011020Z AUTO 29012KT 270V330 9999 BKN038/// 17/08 Q1018=
202407011050 METAR EGKK 011050Z 31010KT 280V350 9999 FEW039 BKN045 18/08 Q1019=
202407011120 METAR EGKK 011120Z 30008KT 250V010 9999 SCT040 19/08 Q1019=
202407011150 METAR EGKK 011150Z 30007KT 250V350 9999 FEW040 SCT046 19/09 Q1019=
202407011220 METAR COR EGKK 011220Z 26008KT 240V300 9999 BKN042 19/09 Q1018=
202407011250 METAR EGKK 011250Z 28010KT 250V320 9999 BKN042 19/09 Q1018=
202407011320 METAR EGKK 011320Z 27007KT 230V330 9999 BKN041 20/09 Q1018=
202407011350 METAR EGKK 011350Z 26010KT 230V300 9999 BKN041 20/10 Q1018=
202407011420 METAR EGKK 011420Z 27009KT 230V300 9999 BKN041 20/10 Q1018=
202407011450 METAR EGKK 011450Z 28009KT 9999 BKN040 19/10 Q1018=
202407011520 METAR EGKK 011520Z 26011KT 9999 BKN041 19/10 Q1018=
202407011550 METAR EGKK 011550Z 26011KT 9999 BKN041 19/10 Q1018=
202407011620 METAR EGKK 011620Z 26012KT 9999 BKN036 19/11 Q1018=
202407011650 METAR EGKK 011650Z 26009KT 9999 BKN034 18/11 Q1018=
202407011720 METAR EGKK 011720Z 27010KT 9999 BKN029 18/11 Q1018=
202407011750 METAR EGKK 011750Z 27009KT 9999 BKN031 18/12 Q1018=
202407011820 METAR EGKK 011820Z 25008KT 9999 BKN030 18/12 Q1018=
202407011850 METAR EGKK 011850Z 25006KT 9999 BKN030 17/12 Q1018=
202407011920 METAR EGKK 011920Z 27006KT 9999 BKN036 17/12 Q1018=
202407011950 METAR EGKK 011950Z 27005KT 9999 BKN032 17/12 Q1018=
202407012020 METAR EGKK 012020Z 28005KT 9999 BKN035 17/11 Q1018=
202407012050 METAR EGKK 012050Z 26003KT 9999 BKN040 17/11 Q1018=
202407012120 METAR EGKK 012120Z 30006KT 9999 BKN039 17/11 Q1018=
202407012150 METAR EGKK 012150Z 26005KT 9999 BKN037 17/11 Q1018=
202407012220 METAR EGKK 012220Z 26004KT 9999 SCT029 BKN036 16/11 Q1018=
202407012250 METAR EGKK 012250Z 30005KT 9999 FEW029 BKN032 16/11 Q1019=
202407012320 METAR EGKK 012320Z 30006KT 9999 SCT024 BKN031 16/12 Q1019=
202407012350 METAR EGKK 012350Z 30005KT 9999 -RA SCT030 15/12 Q1018=
202407020020 METAR EGKK 020020Z 22004KT 9999 BKN035 15/13 Q1018=
202407020050 METAR EGKK 020050Z 23004KT 9999 SCT036 15/13 Q1018=
202407020120 METAR EGKK 020120Z 23004KT 9999 SCT022 15/13 Q1018=
202407020150 METAR EGKK 020150Z 22004KT 9999 FEW024 15/13 Q1018=
202407020220 METAR EGKK 020220Z 24003KT 9999 FEW022 15/13 Q1018=
202407020250 METAR EGKK 020250Z 26003KT 9999 SCT018 15/13 Q1018=
202407020320 METAR EGKK 020320Z 31006KT 270V340 9999 BKN017 15/13 Q1018=
202407020350 METAR EGKK 020350Z 31012KT 9999 FEW017 BKN025 15/11 Q1018=
202407020420 METAR EGKK 020420Z 32011KT 9999 BKN023 14/09 Q1018=
202407020450 METAR EGKK 020450Z 32006KT 270V340 9999 SCT025 14/09 Q1018=
202407020520 METAR EGKK 020520Z 31007KT 270V330 9999 FEW020 14/09 Q1018=
202407020550 METAR EGKK 020550Z 31008KT 280V350 9999 FEW031 14/09 Q1018=
202407020620 METAR EGKK 020620Z 30008KT 9999 FEW031 14/09 Q1018=
202407020650 METAR EGKK 020650Z 30012KT 9999 FEW020 14/09 Q1018=
202407020720 METAR EGKK 020720Z 31011KT 280V350 9999 SCT021 14/09 Q1018=
202407020750 METAR EGKK 020750Z 32011KT 9999 BKN024 14/09 Q1019=
202407020820 METAR EGKK 020820Z 34011KT 310V010 9999 BKN021 15/09 Q1018=
202407020850 METAR EGKK 020850Z 32010KT 290V360 9999 SCT022 15/09 Q1018=
202407020920 METAR EGKK 020920Z 32012KT 9999 BKN023 16/10 Q1018=
202407020950 METAR EGKK 020950Z 32012KT 9999 BKN021 16/10 Q1018=
202407021020 METAR EGKK 021020Z 33011KT 9999 BKN020 16/10 Q1018=
202407021050 METAR EGKK 021050Z 33010KT 290V010 9999 VCSH BKN018 15/11 Q1018=
202407021120 METAR EGKK 021120Z 33011KT 300V360 9999 VCSH BKN017 15/11 Q1019=
202407021150 METAR EGKK 021150Z 31011KT 270V330 9999 SCT015 BKN020 16/11 Q1019=
202407021220 METAR EGKK 021220Z 34011KT 300V360 9000 4000E VCSH BKN012 15/12 Q1019=
202407021250 METAR EGKK 021250Z 33008KT 7000 -RADZ SCT007 BKN010 14/13 Q1019=
202407021320 METAR EGKK 021320Z 33008KT 290V350 9999 SCT008 BKN035 15/13 Q1019=
202407021350 METAR EGKK 021350Z 33008KT 9999 -RA SCT008 15/12 Q1019=
202407021420 METAR EGKK 021420Z 33007KT 280V010 9999 FEW013 SCT034 16/12 Q1018=
202407021450 METAR EGKK 021450Z 01006KT 300V060 9999 FEW019 16/12 Q1018=
202407021520 METAR EGKK 021520Z 36006KT 300V060 9999 SCT023 SCT044 18/11 Q1018=
202407021550 METAR EGKK 021550Z 33007KT 290V020 9999 SCT022 SCT038 17/11 Q1018=
202407021620 METAR EGKK 021620Z 36005KT 280V070 9999 SCT029 18/11 Q1017=
202407021650 METAR EGKK 021650Z 33005KT 290V020 9999 FEW032 18/10 Q1017=
202407021720 METAR EGKK 021720Z 32008KT 280V360 9999 FEW035 18/09 Q1017=
202407021750 METAR EGKK 021750Z 32007KT 280V350 9999 FEW038 18/09 Q1017=
202407021820 METAR EGKK 021820Z 30011KT 9999 BKN043 18/08 Q1017=
202407021850 METAR EGKK 021850Z 32009KT CAVOK 18/07 Q1017=
202407021920 METAR EGKK 021920Z 30007KT CAVOK 18/07 Q1017=
202407021950 METAR EGKK 021950Z 29006KT CAVOK 16/08 Q1016=
202407022020 METAR EGKK 022020Z 27005KT CAVOK 15/08 Q1017=
202407022050 METAR EGKK 022050Z VRB02KT CAVOK 14/08 Q1017=
202407022120 METAR EGKK 022120Z 20002KT CAVOK 14/08 Q1016=
202407022150 METAR EGKK 022150Z 20003KT CAVOK 13/08 Q1016=
202407022220 METAR EGKK 022220Z 20002KT CAVOK 13/08 Q1016=
202407022250 METAR EGKK 022250Z 19003KT CAVOK 13/09 Q1016=
202407022320 METAR EGKK 022320Z 18002KT CAVOK 13/09 Q1015=
202407022350 METAR EGKK 022350Z 20003KT CAVOK 13/10 Q1015=
202407030020 METAR EGKK 030020Z 21004KT CAVOK 14/10 Q1014=
202407030050 METAR EGKK 030050Z 24004KT CAVOK 13/10 Q1014=
202407030120 METAR EGKK 030120Z 23003KT 9999 FEW048 13/10 Q1014=
202407030150 METAR EGKK 030150Z 22003KT 9999 FEW048 13/10 Q1014=
202407030220 METAR EGKK 030220Z 21003KT CAVOK 13/10 Q1013=
202407030250 METAR EGKK 030250Z 24004KT 9999 FEW048 13/10 Q1013=
202407030320 METAR EGKK 030320Z 24003KT 9999 SCT045 13/10 Q1013=
202407030350 METAR EGKK 030350Z 26003KT 230V290 9999 -RA FEW047 13/11 Q1013=
202407030420 METAR EGKK 030420Z VRB02KT 9999 FEW048 12/11 Q1012=
202407030450 METAR EGKK 030450Z 21002KT CAVOK 13/11 Q1012=
202407030520 METAR EGKK 030520Z VRB02KT 9999 FEW047 13/10 Q1012=
202407030550 METAR EGKK 030550Z 22003KT 9999 FEW047 13/10 Q1012=
202407030620 METAR EGKK 030620Z 18002KT CAVOK 13/10 Q1012=
202407030650 METAR EGKK 030650Z 16003KT 120V210 CAVOK 14/10 Q1011=
202407030720 METAR EGKK 030720Z 12003KT 090V150 CAVOK 14/10 Q1011=
202407030750 METAR EGKK 030750Z 13004KT CAVOK 14/11 Q1011=
202407030820 METAR EGKK 030820Z 15004KT CAVOK 15/11 Q1011=
202407030850 METAR EGKK 030850Z 15005KT 120V210 9999 FEW025 16/10 Q1010=
202407030920 METAR EGKK 030920Z 18007KT 140V240 9999 FEW025 17/10 Q1010=
202407030950 METAR EGKK 030950Z 18009KT 130V220 9999 SCT024 17/10 Q1009=
202407031020 METAR EGKK 031020Z 19008KT 160V220 9999 5000W -SHRA SCT021 SCT033 16/11 Q1009=
202407031050 METAR EGKK 031050Z 22008KT 9999 FEW018 SCT028 16/13 Q1009=
202407031120 METAR EGKK 031120Z 23010KT 190V260 9999 FEW015 BKN030 17/12 Q1009=
202407031150 METAR EGKK 031150Z 22011KT 9999 SCT024 SCT042 17/12 Q1008=
202407031220 METAR EGKK 031220Z 23010G20KT 190V260 9999 SCT022 SCT036 18/12 Q1008=
202407031250 METAR EGKK 031250Z 23011KT 9999 -SHRA SCT022 SCT033 16/13 Q1008=
202407031320 METAR EGKK 031320Z 21011KT 9999 SCT017 SCT022 18/13 Q1008=
202407031350 METAR EGKK 031350Z 22012KT 9999 SCT020 BKN030 18/13 Q1007=
202407031420 METAR EGKK 031420Z 22010KT 9999 VCSH SCT022 BKN032 18/13 Q1007=
202407031450 METAR EGKK 031450Z 23011KT 9999 SCT027 SCT033 19/12 Q1007=
202407031520 METAR EGKK 031520Z 22012KT 9999 SCT029 BKN036 19/12 Q1007=
202407031550 METAR EGKK 031550Z 24011KT 9999 SCT027 BKN037 18/12 Q1007=
202407031620 METAR EGKK 031620Z 22010KT 9999 SCT025 BKN033 18/13 Q1007=
202407031650 METAR EGKK 031650Z 23008KT 9999 BKN022 18/13 Q1006=
202407031720 METAR EGKK 031720Z 23009KT 9999 BKN017 17/14 Q1006=
202407031750 METAR EGKK 031750Z 24010KT 9999 BKN018 18/14 Q1006=
202407031820 METAR EGKK 031820Z 23008KT 190V260 9999 FEW013 SCT018 18/14 Q1006=
202407031850 METAR EGKK 031850Z 22007KT 9999 SCT018 18/14 Q1006=
202407031920 METAR EGKK 031920Z 21006KT 190V250 9999 FEW017 17/14 Q1006=
202407031950 METAR EGKK 031950Z 22008KT 9999 FEW035 17/14 Q1006=
202407032020 METAR EGKK 032020Z 22007KT 9999 FEW033 17/14 Q1006=
202407032050 METAR EGKK 032050Z 22006KT 9999 SCT013 17/14 Q1006=
202407032120 METAR EGKK 032120Z 22007KT 9999 SCT012 16/15 Q1006=
202407032150 METAR EGKK 032150Z 23006KT 9999 FEW011 SCT023 16/15 Q1006=
202407032220 METAR EGKK 032220Z 24008KT CAVOK 16/14 Q1006=
202407032250 METAR EGKK 032250Z 22003KT 180V260 CAVOK 15/13 Q1006=
202407032320 METAR EGKK 032320Z 25007KT 9999 FEW033 15/12 Q1006=
202407032350 METAR EGKK 032350Z 25008KT 9999 FEW018 SCT033 15/12 Q1006=
202407040020 METAR EGKK 040020Z 25007KT 9999 FEW017 14/12 Q1006=
202407040050 METAR EGKK 040050Z 25007KT 9999 FEW016 14/12 Q1006=
202407040120 METAR EGKK 040120Z 25007KT CAVOK 14/12 Q1006=
202407040150 METAR EGKK 040150Z AUTO 24005KT 9999 NCD 14/12 Q1007=
202407040220 METAR EGKK 040220Z AUTO 26005KT 9999 NCD 13/11 Q1007=
202407040250 METAR EGKK 040250Z AUTO 26006KT 9999 NCD 13/11 Q1007=
202407040320 METAR EGKK 040320Z 25005KT CAVOK 13/11 Q1007=
202407040350 METAR EGKK 040350Z 25006KT CAVOK 12/10 Q1008=
202407040420 METAR EGKK 040420Z 25007KT 230V290 CAVOK 12/10 Q1008=
202407040450 METAR EGKK 040450Z 27006KT CAVOK 12/09 Q1009=
202407040520 METAR EGKK 040520Z 29008KT CAVOK 13/08 Q1009=
202407040550 METAR EGKK 040550Z 29009KT CAVOK 14/07 Q1009=
202407040620 METAR EGKK 040620Z 29008KT 9999 FEW027 14/08 Q1010=
202407040650 METAR EGKK 040650Z 29012KT 9999 FEW027 14/07 Q1010=
202407040720 METAR EGKK 040720Z 30011KT 9999 SCT030 15/07 Q1010=
202407040750 METAR EGKK 040750Z 30012KT 9999 SCT033 15/07 Q1010=
202407040820 METAR EGKK 040820Z 29011KT 9999 SCT035 16/07 Q1010=
202407040850 METAR EGKK 040850Z 26011KT 9999 SCT036 16/06 Q1010=
202407040920 METAR EGKK 040920Z 30012KT 9999 SCT040 17/06 Q1010=
202407040950 METAR EGKK 040950Z 26011KT 220V320 9999 SCT040 17/06 Q1010=
202407041020 METAR EGKK 041020Z 27012KT 230V300 9999 SCT044 17/06 Q1010=
202407041050 METAR EGKK 041050Z 26011KT 220V290 9999 SCT049 18/06 Q1011=
202407041120 METAR EGKK 041120Z 27013KT 240V300 9999 FEW049 18/05 Q1010=
202407041150 METAR EGKK 041150Z 27016KT CAVOK 19/05 Q1010=
202407041220 METAR EGKK 041220Z 25016KT CAVOK 19/05 Q1011=
202407041250 METAR EGKK 041250Z 28016KT CAVOK 19/05 Q1010=
202407041320 METAR EGKK 041320Z 26014KT 240V310 CAVOK 19/05 Q1010=
202407041350 METAR EGKK 041350Z 26017KT CAVOK 20/05 Q1010=
202407041420 METAR EGKK 041420Z 27019KT CAVOK 20/05 Q1010=
202407041450 METAR EGKK 041450Z 26017KT CAVOK 21/06 Q1010=
202407041520 METAR EGKK 041520Z 28017KT CAVOK 20/06 Q1010=
202407041550 METAR EGKK 041550Z 28018KT CAVOK 20/04 Q1010=
202407041620 METAR EGKK 041620Z 28017KT CAVOK 20/04 Q1010=
202407041650 METAR EGKK 041650Z 27019KT CAVOK 20/04 Q1010=
202407041720 METAR EGKK 041720Z 27016KT CAVOK 20/04 Q1010=
202407041750 METAR EGKK 041750Z 26018KT CAVOK 19/04 Q1010=
202407041820 METAR EGKK 041820Z 26015KT CAVOK 18/04 Q1010=
202407041850 METAR EGKK 041850Z 27013KT CAVOK 18/05 Q1011=
202407041920 METAR EGKK 041920Z 26012KT CAVOK 18/05 Q1010=
202407041950 METAR EGKK 041950Z 26010KT CAVOK 17/06 Q1011=
202407042020 METAR EGKK 042020Z 26011KT CAVOK 17/07 Q1011=
202407042050 METAR EGKK 042050Z 25007KT 9999 SCT048 16/07 Q1011=
202407042120 METAR EGKK 042120Z 25013KT 9999 BKN043 16/08 Q1011=
202407042150 METAR EGKK 042150Z 25010KT 9999 BKN046 16/09 Q1011=
202407042220 METAR EGKK 042220Z 25009KT 9999 SCT036 15/09 Q1011=
202407042250 METAR EGKK 042250Z 25011KT CAVOK 15/09 Q1011=
202407042320 METAR EGKK 042320Z 24008KT CAVOK 15/09 Q1011=
202407042350 METAR EGKK 042350Z 24006KT CAVOK 15/10 Q1011=
202407050020 METAR EGKK 050020Z 24008KT 9999 BKN048 15/10 Q1011=
202407050050 METAR EGKK 050050Z 23006KT 9999 BKN045 15/10 Q1011=
202407050120 METAR EGKK 050120Z 23006KT 9999 FEW048 15/10 Q1010=
202407050150 METAR EGKK 050150Z 24006KT 9999 SCT030 SCT038 15/10 Q1010=
202407050220 METAR EGKK 050220Z 23007KT 9999 FEW034 BKN043 15/10 Q1010=
202407050250 METAR EGKK 050250Z 22006KT 9999 BKN038 15/10 Q1010=
202407050320 METAR EGKK 050320Z 23005KT 200V260 9999 VCSH SCT021 BKN036 14/11 Q1010=
202407050350 METAR EGKK 050350Z 22005KT 7000 -RA SCT014 BKN022 13/12 Q1009=
202407050420 METAR EGKK 050420Z VRB02KT 8000 -RA SCT010 BKN015 13/12 Q1009=
202407050450 METAR EGKK 050450Z 19004KT 130V210 7000 -RA SCT006 BKN019 13/13 Q1009=
202407050520 METAR EGKK 050520Z 20006KT 170V240 3800 -RA BKN006 14/13 Q1008=
202407050550 METAR EGKK 050550Z 21008KT 180V240 3500 -RA SCT005 BKN037 14/14 Q1008=
202407050620 METAR EGKK 050620Z 20007KT 2500 -RADZ SCT005 BKN006 14/14 Q1008=
202407050650 METAR EGKK 050650Z 21009KT 170V250 3000 -RA BKN007 15/14 Q1007=
202407050720 METAR EGKK 050720Z 20008KT 2500 -RA BKN007 15/14 Q1007=
202407050750 METAR EGKK 050750Z 20008KT 5000 -RA BKN007 15/15 Q1007=
202407050820 METAR EGKK 050820Z 21008KT 9000 -RA BKN007 16/15 Q1007=
202407050850 METAR EGKK 050850Z 22009KT 8000 -RA BKN007 16/16 Q1007=
202407050920 METAR EGKK 050920Z 22008KT 7000 VCSH BKN006 17/16 Q1007=
202407050950 METAR EGKK 050950Z 22008KT 4000 -RA BKN006 17/16 Q1007=
202407051020 METAR EGKK 051020Z 22008KT 6000 -RA BKN007 18/17 Q1007=
202407051050 METAR EGKK 051050Z 23009KT 9000 FEW005 BKN008 18/17 Q1007 RERA=
202407051120 METAR EGKK 051120Z 23010KT 190V260 9999 BKN009 18/17 Q1007=
202407051150 METAR EGKK 051150Z 22010KT 9999 -RA BKN009 19/18 Q1007=
202407051220 METAR EGKK 051220Z 22010KT 9999 BKN010 19/17 Q1006=
202407051250 METAR EGKK 051250Z 22011KT 190V250 9999 BKN011 19/16 Q1006=
202407051320 METAR EGKK 051320Z 22010KT 190V250 9999 BKN015 19/16 Q1006=
202407051350 METAR EGKK 051350Z 21012KT 170V240 9999 BKN016 19/16 Q1006=
202407051420 METAR EGKK 051420Z 22010KT 170V250 9999 SCT018 SCT025 20/16 Q1006=
202407051450 METAR EGKK 051450Z 20012KT 160V230 9999 SCT017 SCT025 20/16 Q1006=
202407051520 METAR EGKK 051520Z 21009KT 170V240 9999 SCT021 SCT027 20/15 Q1006=
202407051550 METAR EGKK 051550Z 22011KT 180V240 9999 SCT020 19/15 Q1005=
202407051620 METAR COR EGKK 051620Z 22011KT 8000 -SHRA BKN012 18/15 Q1005=
202407051650 METAR EGKK 051650Z 21008KT 6000 -DZ VCSH BKN007 17/16 Q1005=
202407051720 METAR EGKK 051720Z 21011KT 9999 VCSH BKN007 17/16 Q1004=
202407051750 METAR EGKK 051750Z 22012KT 5000 -DZ BKN008 17/16 Q1004=
202407051820 METAR EGKK 051820Z 22013G23KT 6000 -DZ BKN009 17/16 Q1004=
202407051850 METAR EGKK 051850Z 22010KT 8000 -DZ VCSH BKN009 17/16 Q1004 REDZ=
202407051920 METAR EGKK 051920Z 21009KT 170V240 9000 BKN011 17/15 Q1003=
202407051950 METAR EGKK 051950Z 21011KT 190V250 3000 -DZRA OVC007 17/16 Q1003=
202407052020 METAR EGKK 052020Z 21012KT 4000 -RADZ BKN007 BKN015 17/16 Q1002 RERA REDZ=
202407052050 METAR EGKK 052050Z 21013KT 6000 -RA BKN008 17/16 Q1002=
202407052120 METAR EGKK 052120Z 21012G22KT 9999 -RADZ BKN007 BKN015 17/16 Q1002=
202407052150 METAR EGKK 052150Z 21013KT 6000 RA BKN007 BKN015 17/16 Q1002 REDZ=
202407052220 METAR EGKK 052220Z 22013KT 6000 RA BKN007 BKN016 17/16 Q1001 RERA=
202407052250 METAR EGKK 052250Z 22012KT 190V260 9999 -RA BKN007 16/16 Q1001 RERA=
202407052320 METAR EGKK 052320Z 21011KT 9999 -RA BKN006 16/16 Q1000=
202407052350 METAR EGKK 052350Z 22012KT 9999 BKN007 16/16 Q1000=
202407060020 METAR EGKK 060020Z 22012KT 9999 -SHRA BKN006 BKN015 16/16 Q1000=
202407060050 METAR EGKK 060050Z 20009KT 180V240 9999 BKN006 16/15 Q0999=
202407060120 METAR EGKK 060120Z 22009KT 9999 BKN007 16/15 Q0999=
202407060150 METAR EGKK 060150Z 22011KT 190V250 9999 BKN010 16/15 Q0998=
202407060220 METAR EGKK 060220Z 22007KT 9999 SCT008 BKN013 16/15 Q0998=
202407060250 METAR EGKK 060250Z 22009KT 9999 BKN009 16/15 Q0997=
202407060320 METAR EGKK 060320Z 23011KT 9999 -RA BKN008 16/15 Q0997=
202407060350 METAR EGKK 060350Z 22010KT 9999 FEW015 SCT019 BKN024 16/14 Q0997=
202407060420 METAR EGKK 060420Z 22010KT 9999 FEW013 SCT017 15/14 Q0997=
202407060450 METAR EGKK 060450Z 22010KT 9999 FEW012 SCT017 15/14 Q0996=
202407060520 METAR EGKK 060520Z 22010KT 9999 FEW010 SCT014 15/14 Q0996=
202407060550 METAR EGKK 060550Z 26010KT 9999 FEW011 SCT020 15/13 Q0997=
202407060620 METAR EGKK 060620Z 26014KT 9999 -SHRA SCT009 BKN015 14/12 Q0997=
202407060650 METAR EGKK 060650Z 25017KT 8000 -SHRA FEW015 BKN023 13/12 Q0998=
202407060720 METAR EGKK 060720Z 26017KT 9999 VCSH FEW012 SCT020 13/11 Q0999=
202407060750 METAR EGKK 060750Z 26017KT 9999 SCT015 13/11 Q0999=
202407060820 METAR EGKK 060820Z 26018KT 9999 SCT023 13/09 Q1000=
202407060850 METAR EGKK 060850Z 26020KT 9999 BKN026 13/09 Q1001=
202407060920 METAR EGKK 060920Z 26020KT 9999 SCT026 14/08 Q1001=
202407060950 METAR EGKK 060950Z 25018KT 9999 VCSH FEW010 BKN026 13/09 Q1002=
202407061020 METAR EGKK 061020Z 27015KT 9999 BKN018 13/11 Q1002=
202407061050 METAR EGKK 061050Z 27015KT 9999 FEW023 SCT028 14/10 Q1002=
202407061120 METAR EGKK 061120Z 28018G29KT 9999 SCT026 SCT034 15/08 Q1003=
202407061150 METAR EGKK 061150Z 27020KT 9999 FEW025 SCT034 16/08 Q1003=
202407061220 METAR EGKK 061220Z 27017KT 240V300 9999 VCSH SCT038 17/09 Q1003=
202407061250 METAR EGKK 061250Z 24018G32KT 200V280 9999 VCSH FEW022 SCT031 13/10 Q1004 RESHRA=
202407061320 METAR EGKK 061320Z 26017KT 9999 SHRA FEW019 SCT039CB 14/11 Q1004=
202407061350 METAR EGKK 061350Z 26015KT 9999 VCSH FEW019 SCT036 15/11 Q1005 RESHRA=
202407061420 METAR EGKK 061420Z 26017G28KT 9999 VCSH FEW017 SCT041 15/09 Q1006=
202407061450 METAR EGKK 061450Z 25015KT 9999 FEW014 SCT048 16/10 Q1006=
202407061520 METAR EGKK 061520Z 26017KT 9999 VCSH FEW014 SCT048 17/09 Q1006=
202407061550 METAR COR EGKK 061550Z 28010KT 9999 VCSH SCT040CB 15/11 Q1006=
202407061620 METAR EGKK 061620Z 29013KT 9999 VCSH SCT043CB 16/09 Q1007=
202407061650 METAR EGKK 061650Z 29015KT 9999 FEW035 SCT047CB 16/09 Q1007=
202407061720 METAR EGKK 061720Z 29012KT 9999 FEW047 17/09 Q1007=
202407061750 METAR EGKK 061750Z 28010KT 9999 FEW048 17/09 Q1007=
202407061820 METAR EGKK 061820Z 27010KT 250V310 9999 FEW049 17/07 Q1007=
202407061850 METAR EGKK 061850Z 27013KT 9999 FEW049 17/04 Q1007=
202407061920 METAR EGKK 061920Z 27010KT CAVOK 16/05 Q1008=
202407061950 METAR EGKK 061950Z 26006KT 240V330 CAVOK 14/06 Q1008=
202407062020 METAR EGKK 062020Z 24006KT CAVOK 14/06 Q1008=
202407062050 METAR EGKK 062050Z 20003KT CAVOK 13/07 Q1009=
202407062120 METAR EGKK 062120Z 22006KT CAVOK 13/09 Q1009=
202407062150 METAR EGKK 062150Z 22006KT CAVOK 13/09 Q1009=
202407062220 METAR EGKK 062220Z 21005KT CAVOK 13/09 Q1009=
202407062250 METAR EGKK 062250Z 20003KT CAVOK 12/09 Q1009=
202407062320 METAR EGKK 062320Z 20003KT 160V230 CAVOK 12/10 Q1009=
202407062350 METAR EGKK 062350Z 21003KT CAVOK 12/10 Q1010=
202407070020 METAR EGKK 070020Z 21004KT CAVOK 12/10 Q1010=
202407070050 METAR EGKK 070050Z 20003KT CAVOK 11/10 Q1010=
202407070120 METAR EGKK 070120Z 25003KT CAVOK 11/09 Q1009=
202407070150 METAR EGKK 070150Z 21003KT CAVOK 11/10 Q1009=
202407070220 METAR EGKK 070220Z 22004KT CAVOK 11/10 Q1009=
202407070250 METAR EGKK 070250Z 22007KT CAVOK 12/10 Q1009=
202407070320 METAR EGKK 070320Z 22005KT CAVOK 11/10 Q1009=
202407070350 METAR EGKK 070350Z 22005KT CAVOK 11/10 Q1009=
202407070420 METAR EGKK 070420Z 23005KT CAVOK 11/10 Q1009=
202407070450 METAR EGKK 070450Z 23004KT CAVOK 12/10 Q1009=
202407070520 METAR EGKK 070520Z 21005KT 170V240 CAVOK 12/10 Q1009=
202407070550 METAR EGKK 070550Z 22005KT CAVOK 13/10 Q1009=
202407070620 METAR EGKK 070620Z 22006KT CAVOK 13/10 Q1009=
202407070650 METAR EGKK 070650Z 23006KT CAVOK 14/10 Q1010=
202407070720 METAR EGKK 070720Z 22006KT 9999 FEW042 14/11 Q1010=
202407070750 METAR EGKK 070750Z 21007KT 180V250 9999 -SHRA FEW040 13/12 Q1010=
202407070820 METAR EGKK 070820Z 21006KT 170V240 9999 FEW048 13/12 Q1010=
202407070850 METAR EGKK 070850Z 21007KT 160V240 9999 SCT018 15/12 Q1010=
202407070920 METAR EGKK 070920Z 22010KT 9999 SCT019 16/12 Q1010=
202407070950 METAR EGKK 070950Z 22011KT 9999 SCT024 SCT034 16/11 Q1010=
202407071020 METAR EGKK 071020Z 22008KT 9999 VCSH SCT018 SCT035 15/13 Q1010=
202407071050 METAR EGKK 071050Z 22012KT 180V250 9999 VCSH SCT017 SCT024 16/13 Q1010=
202407071120 METAR EGKK 071120Z 26014KT 8000 -SHRA SCT023CB SCT032 16/11 Q1010=
202407071150 METAR EGKK 071150Z 22006KT 9999 VCSH SCT024CB SCT030 14/11 Q1010=
202407071220 METAR EGKK 071220Z 21008KT 170V240 9999 SCT023 FEW035CB 17/13 Q1010=
202407071250 METAR EGKK 071250Z 22013KT 9999 FEW024 SCT033 17/12 Q1010=
202407071320 METAR EGKK 071320Z 20011KT 170V240 9999 VCSH FEW028 SCT044 18/12 Q1010=
202407071350 METAR EGKK 071350Z 23014KT 9999 VCSH FEW029CB SCT036 18/10 Q1010=
202407071420 METAR EGKK 071420Z 29010KT 9999 -TSRA SCT029CB BKN033 16/11 Q1010 RETSRA=
202407071450 METAR EGKK 071450Z 27005KT 240V310 9999 VCSH BKN029CB 16/12 Q1010 RETSRA=
202407071520 METAR COR EGKK 071520Z 28013KT 9999 3000NE VCSH FEW021 SCT026CB BKN031 15/12 Q1010=
202407071550 METAR EGKK 071550Z 26013KT 9999 VCSH SCT042CB 16/12 Q1011=
202407071620 METAR EGKK 071620Z 23008KT 9999 -RA FEW016 SCT048 14/11 Q1011=
202407071650 METAR EGKK 071650Z 23008KT 9999 FEW049 15/12 Q1011=
202407071720 METAR EGKK 071720Z 23004KT 9999 -SHRA SCT024CB 15/12 Q1011=
202407071750 METAR EGKK 071750Z 23004KT 190V260 9999 -SHRA FEW015 SCT033CB BKN047 13/11 Q1011=
202407071820 METAR EGKK 071820Z 24006KT 9999 VCSH FEW015 SCT031 14/12 Q1012=
202407071850 METAR EGKK 071850Z 23004KT 9999 SCT038 14/11 Q1012=
202407071920 METAR EGKK 071920Z 21003KT 9999 FEW021 SCT032 14/12 Q1012=
202407071950 METAR EGKK 071950Z 19003KT 9999 VCSH NSC 14/12 Q1012=
202407072020 METAR EGKK 072020Z 21003KT 9999 FEW025 14/12 Q1012=
202407072050 METAR EGKK 072050Z 20005KT CAVOK 14/12 Q1013=
202407072120 METAR EGKK 072120Z 21005KT CAVOK 14/12 Q1013=
202407072150 METAR EGKK 072150Z 21005KT CAVOK 13/12 Q1013=
202407072220 METAR EGKK 072220Z 21004KT 170V240 CAVOK 13/11 Q1013=
202407072250 METAR EGKK 072250Z 21004KT CAVOK 13/11 Q1013=
202407072320 METAR EGKK 072320Z 21005KT CAVOK 12/11 Q1013=
202407072350 METAR EGKK 072350Z 21006KT CAVOK 12/11 Q1014=
202407080020 METAR EGKK 080020Z 21004KT CAVOK 12/11 Q1014=
202407080050 METAR EGKK 080050Z 20001KT CAVOK 11/10 Q1014=
202407080120 METAR EGKK 080120Z VRB01KT 9999 FEW008 11/11 Q1014=
202407080150 METAR EGKK 080150Z VRB01KT CAVOK 11/10 Q1014=
202407080220 METAR EGKK 080220Z VRB01KT CAVOK 10/10 Q1014=
202407080250 METAR COR EGKK 080250Z 15001KT 9999 VCFG NSC 10/10 Q1014=
202407080320 METAR EGKK 080320Z 20001KT 9999 1000W R26L/P1500N PRFG NSC 09/09 Q1014=
202407080350 METAR EGKK 080350Z VRB01KT 9999 1000W R26L/P1500N PRFG NSC 08/08 Q1014=
202407080420 METAR EGKK 080420Z 18001KT 9999 1500W PRFG NSC 09/09 Q1014=
202407080450 METAR EGKK 080450Z 21001KT 9999 1500W PRFG NSC 09/09 Q1015=
202407080520 METAR EGKK 080520Z VRB01KT 9999 1900W PRFG NSC 10/10 Q1015=
202407080550 METAR EGKK 080550Z VRB01KT 9999 VCFG FEW001 12/12 Q1015=
202407080620 METAR EGKK 080620Z VRB01KT 9999 VCFG FEW001 13/12 Q1015=
202407080650 METAR EGKK 080650Z VRB01KT CAVOK 14/13 Q1015=
202407080720 METAR EGKK 080720Z 16003KT 100V190 9999 FEW010 15/13 Q1015=
202407080750 METAR EGKK 080750Z 16004KT 120V190 9999 FEW011 16/12 Q1015=
202407080820 METAR EGKK 080820Z 17003KT 120V210 9999 FEW015 16/12 Q1016=
202407080850 METAR EGKK 080850Z 17004KT 130V200 9999 SCT016 16/13 Q1016=
202407080920 METAR EGKK 080920Z 18005KT 140V230 9999 SCT016 SCT033 17/13 Q1016=
202407080950 METAR EGKK 080950Z 17006KT 130V200 9999 VCSH SCT020 BKN029 17/13 Q1016=
202407081020 METAR EGKK 081020Z 16007KT 130V210 9999 SCT020 BKN035 17/12 Q1016=
202407081050 METAR EGKK 081050Z 19003KT 130V220 9999 BKN030 16/12 Q1016=
202407081120 METAR EGKK 081120Z 18004KT 140V230 9999 -SHRA FEW018 SCT030 BKN044 16/13 Q1016=
202407081150 METAR EGKK 081150Z 14006KT 110V200 9999 SCT017 BKN034 16/13 Q1016=
202407081220 METAR EGKK 081220Z 15005KT 100V200 9999 SCT017 BKN028 17/13 Q1016=
202407081250 METAR EGKK 081250Z 14005KT 110V200 9999 FEW018 BKN038 17/13 Q1016=
202407081320 METAR EGKK 081320Z 18007KT 140V210 9999 FEW025 SCT038 18/12 Q1016=
202407081350 METAR EGKK 081350Z 18006KT 130V230 9999 FEW026 SCT040 18/12 Q1016=
202407081420 METAR EGKK 081420Z 19007KT 130V220 9999 FEW026 SCT032 18/12 Q1015=
202407081450 METAR EGKK 081450Z 17006KT 120V210 9999 FEW028 18/12 Q1015=
202407081520 METAR EGKK 081520Z 17005KT 130V210 9999 FEW030 18/12 Q1015=
202407081550 METAR EGKK 081550Z 16007KT 130V210 9999 -SHRA FEW028 17/12 Q1015=
202407081620 METAR EGKK 081620Z 13005KT 100V170 9999 FEW025 17/12 Q1015=
202407081650 METAR EGKK 081650Z 12004KT 100V160 9999 FEW030 17/11 Q1015=
202407081720 METAR EGKK 081720Z 12003KT 9999 -RA NSC 16/13 Q1015=
202407081750 METAR EGKK 081750Z 10005KT 9999 -RA NSC 16/13 Q1015=
202407081820 METAR EGKK 081820Z 10005KT 9999 -RA BKN046 16/14 Q1015=
202407081850 METAR EGKK 081850Z 10004KT 9999 -RA BKN045 15/14 Q1015=
202407081920 METAR EGKK 081920Z 10004KT 9000 -RA BKN038 15/14 Q1015=
202407081950 METAR EGKK 081950Z 09005KT 9999 -RA BKN032 15/14 Q1015=
202407082020 METAR EGKK 082020Z 08005KT 9999 -RA FEW024 BKN030 14/14 Q1015=
202407082050 METAR EGKK 082050Z 08007KT 9999 -RA FEW020 SCT047 14/14 Q1014=
202407082120 METAR EGKK 082120Z 08006KT 9999 -RA FEW009 BKN035 14/14 Q1014=
202407082150 METAR EGKK 082150Z 09007KT 9999 -RA FEW009 BKN033 14/14 Q1014=
202407082220 METAR EGKK 082220Z 10007KT 8000 -RA FEW006 BKN031 14/14 Q1014=
202407082250 METAR EGKK 082250Z 09008KT 9999 -RA FEW006 SCT035 14/14 Q1014=
202407082320 METAR EGKK 082320Z 09008KT 9000 -RA SCT006 BKN020 14/14 Q1013=
202407082350 METAR EGKK 082350Z 10008KT 9000 -RA FEW009 BKN040 15/14 Q1013=
202407090020 METAR EGKK 090020Z 11006KT 7000 -RA SCT007 BKN032 15/14 Q1013=
202407090050 METAR EGKK 090050Z 10008KT 9000 -RA SCT006 BKN020 15/15 Q1012=
202407090120 METAR EGKK 090120Z 08007KT 9999 -RA BKN043 15/15 Q1012=
202407090150 METAR EGKK 090150Z 10005KT 9999 FEW009 BKN041 15/15 Q1011=
202407090220 METAR EGKK 090220Z 09006KT 9999 BKN042 15/15 Q1011=
202407090250 METAR EGKK 090250Z 10005KT 9999 -RA BKN039 15/14 Q1010=
202407090320 METAR EGKK 090320Z 09006KT 9999 BKN035 15/14 Q1010=
202407090350 METAR EGKK 090350Z 09004KT 020V150 9999 BKN032 15/14 Q1010=
202407090420 METAR EGKK 090420Z 11004KT 9999 SCT028 15/14 Q1010=
202407090450 METAR EGKK 090450Z 12005KT 090V160 9999 FEW021 16/14 Q1010=
202407090520 METAR EGKK 090520Z 14003KT 110V190 9999 FEW046 16/14 Q1010=
202407090550 METAR EGKK 090550Z 15005KT 120V180 9999 SCT024 16/15 Q1010=
202407090620 METAR EGKK 090620Z 16005KT 120V190 9999 SCT018 16/15 Q1010=
202407090650 METAR EGKK 090650Z 15004KT 120V180 9999 BKN017 17/15 Q1010=
202407090720 METAR EGKK 090720Z 15004KT 120V200 9999 BKN014 17/16 Q1010=
202407090750 METAR EGKK 090750Z 16005KT 140V200 9999 BKN011 17/16 Q1010=
202407090820 METAR EGKK 090820Z 16006KT 130V200 9999 BKN010 18/16 Q1010=
202407090850 METAR EGKK 090850Z 18006KT 140V220 9999 -RA BKN010 18/16 Q1010=
202407090920 METAR EGKK 090920Z 18007KT 150V210 9999 BKN009 18/17 Q1010=
202407090950 METAR EGKK 090950Z 19007KT 150V220 9999 -RA BKN008 18/17 Q1011=
202407091020 METAR EGKK 091020Z 18007KT 140V230 9999 -RA BKN008 18/17 Q1011=
202407091050 METAR EGKK 091050Z 19007KT 9999 -RA BKN008 18/17 Q1011=
202407091120 METAR EGKK 091120Z 18007KT 140V210 9999 -DZRA BKN008 18/17 Q1010=
202407091150 METAR EGKK 091150Z 19006KT 140V220 9999 VCSH BKN007 19/18 Q1010=
202407091220 METAR EGKK 091220Z 18008KT 4200 RA BKN009 BKN022 18/17 Q1010 RERA=
202407091250 METAR EGKK 091250Z 18006KT 150V210 4000 RA BKN006 BKN015 18/17 Q1010=
202407091320 METAR EGKK 091320Z 18007KT 150V210 9000 -RA BKN007 18/17 Q1010 RERA=
202407091350 METAR EGKK 091350Z 19007KT 150V220 2800 RA FEW004 BKN009 18/17 Q1010=
202407091420 METAR EGKK 091420Z 19007KT 150V210 9999 -RA BKN008 18/17 Q1010 RERA=
202407091450 METAR EGKK 091450Z 19007KT 160V230 9999 BKN007 18/18 Q1010=
202407091520 METAR EGKK 091520Z 20008KT 9999 FEW007 BKN012 19/17 Q1010=
202407091550 METAR EGKK 091550Z 21009KT 180V240 7000 -RA BKN009 18/17 Q1010=
202407091620 METAR EGKK 091620Z 20008KT 170V250 7000 -RA BKN008 18/17 Q1010=
202407091650 METAR EGKK 091650Z 21006KT 170V240 9000 -RA BKN009 18/17 Q1010=
202407091720 METAR EGKK 091720Z 20007KT 170V240 6000 -RA SCT010 BKN030 17/17 Q1010=
202407091750 METAR EGKK 091750Z 19008KT 170V230 8000 -RA FEW007 BKN011 17/16 Q1010=
202407091820 METAR EGKK 091820Z 19007KT 150V230 5000 -RADZ BKN006 17/16 Q1010=
202407091850 METAR EGKK 091850Z 20007KT 170V230 7000 -RA BKN006 17/16 Q1010=
202407091920 METAR EGKK 091920Z 20004KT 160V230 6000 -RA BKN006 17/17 Q1010=
202407091950 METAR EGKK 091950Z 19004KT 150V220 8000 -RA BKN006 17/17 Q1010=
202407092050 METAR EGKK 092050Z 20005KT 160V220 9999 BKN017 17/16 Q1011=
202407092120 METAR EGKK 092120Z 19005KT 160V230 6000 -RA FEW007 BKN032 17/16 Q1011=
202407092150 METAR EGKK 092150Z 20004KT 160V230 9999 SCT006 BKN030 17/16 Q1011=
202407092220 METAR COR EGKK 092220Z 23002KT 9999 SCT007 BKN011 16/16 Q1011=
202407092250 METAR EGKK 092250Z 19004KT 9999 BKN006 SCT034 16/16 Q1011=
202407092320 METAR EGKK 092320Z 19006KT 9999 SCT007 BKN034 17/16 Q1011=
202407092350 METAR EGKK 092350Z 20005KT 160V260 9999 SCT012 BKN032 16/16 Q1011=
202407100020 METAR EGKK 100020Z 20005KT 160V230 9999 FEW011 BKN031 16/15 Q1011=
202407100050 METAR EGKK 100050Z 20005KT 160V240 9999 SCT010 BKN030 16/15 Q1010=
202407100120 METAR EGKK 100120Z 21007KT 9999 SCT009 BKN013 16/15 Q1010=
202407100150 METAR EGKK 100150Z 20007KT 9999 SCT013 16/15 Q1011=
202407100220 METAR EGKK 100220Z 21007KT 9999 FEW014 SCT020 15/14 Q1010=
202407100250 METAR EGKK 100250Z 21008KT 9999 BKN010 15/15 Q1010=
202407100320 METAR EGKK 100320Z 22007KT 9999 FEW007 BKN013 15/15 Q1010=
202407100350 METAR EGKK 100350Z 22006KT 180V250 9999 BKN009 15/14 Q1011=
202407100420 METAR EGKK 100420Z 24006KT 9999 FEW009 BKN020 15/14 Q1011=
202407100450 METAR EGKK 100450Z 23004KT 190V260 9999 FEW021 BKN032 15/14 Q1011=
202407100520 METAR EGKK 100520Z 20005KT 170V230 9999 FEW020 BKN031 15/14 Q1012=
202407100550 METAR EGKK 100550Z VRB04KT 9999 FEW014 OVC028 15/14 Q1012=
202407100620 METAR EGKK 100620Z 20006G16KT 160V250 9999 FEW014 BKN033 16/14 Q1012=
202407100650 METAR EGKK 100650Z 21005KT 170V260 9999 FEW012 BKN032 16/14 Q1012=
202407100720 METAR EGKK 100720Z 21006KT 180V240 9999 SCT010 BKN038 16/15 Q1012=
202407100750 METAR EGKK 100750Z 23006KT 190V270 9999 SCT013 SCT043 17/15 Q1012=
202407100820 METAR EGKK 100820Z 22010KT 9999 SCT015 BKN041 17/14 Q1012=
202407100850 METAR EGKK 100850Z 22009KT 180V250 9999 SCT017 SCT034 17/14 Q1013=
202407100920 METAR EGKK 100920Z 21009KT 180V250 9999 SCT015 SCT034 17/14 Q1013=
202407100950 METAR EGKK 100950Z 21011KT 170V240 9999 SCT018 SCT038 19/14 Q1013=
202407101020 METAR EGKK 101020Z 21010KT 180V250 9999 SCT021 BKN036 18/14 Q1013=
202407101050 METAR EGKK 101050Z 21009KT 9999 SCT018 BKN041 18/14 Q1013=
202407101120 METAR EGKK 101120Z 20010KT 170V240 9999 BKN016 BKN038 BKN048 18/14 Q1013=
202407101150 METAR EGKK 101150Z 22012KT 180V250 9999 BKN018 BKN028 BKN043 19/15 Q1013=
202407101220 METAR COR EGKK 101220Z 21013KT 170V240 9999 SCT032 SCT046 20/14 Q1013=
202407101250 METAR EGKK 101250Z 23011KT 180V250 9999 SCT025 SCT043 20/14 Q1013=
202407101320 METAR EGKK 101320Z 23011KT 9999 SCT023 20/14 Q1013=
202407101350 METAR EGKK 101350Z 22011KT 190V250 9999 SCT024 19/13 Q1013=
202407101420 METAR EGKK 101420Z 22011KT 9999 SCT025 20/13 Q1013=
202407101450 METAR EGKK 101450Z 22013KT 9999 SCT027 20/13 Q1014=
202407101520 METAR EGKK 101520Z 21012KT 9999 SCT026 20/14 Q1014=
202407101550 METAR EGKK 101550Z 21013KT 9999 SCT026 20/13 Q1014=
202407101620 METAR EGKK 101620Z 21011KT 180V240 9999 FEW024 19/13 Q1014=
202407101650 METAR EGKK 101650Z 21012KT 170V240 9999 FEW025 20/13 Q1014=
202407101720 METAR EGKK 101720Z 22011KT 190V250 9999 SCT025 19/13 Q1014=
202407101750 METAR EGKK 101750Z 21011KT 180V240 9999 FEW028 19/13 Q1014=
202407101820 METAR EGKK 101820Z 22009KT 9999 FEW027 19/13 Q1014=
202407101850 METAR EGKK 101850Z 21007KT 130V240 9999 FEW026 18/13 Q1015=
202407101920 METAR EGKK 101920Z 21007KT 180V240 9999 FEW034 17/13 Q1015=
202407101950 METAR EGKK 101950Z 23008KT 200V260 9999 FEW030 17/13 Q1015=
202407102020 METAR EGKK 102020Z 24008KT 9999 SCT025 17/13 Q1015=
202407102050 METAR EGKK 102050Z 25009KT 9999 FEW037 16/11 Q1016=
202407102120 METAR EGKK 102120Z 25007KT 9999 FEW048 15/10 Q1016=
202407102150 METAR EGKK 102150Z 25007KT 9999 FEW048 15/11 Q1016=
202407102220 METAR EGKK 102220Z 24007KT 9999 FEW048 15/11 Q1016=
202407102250 METAR EGKK 102250Z 24007KT 9999 BKN046 15/11 Q1016=
202407102320 METAR COR EGKK 102320Z 25006KT 9999 SCT046 15/11 Q1017=
202407102350 METAR EGKK 102350Z 25008KT 9999 FEW035 SCT047 15/11 Q1017=
202407110020 METAR EGKK 110020Z 25007KT 9999 SCT034 15/11 Q1017=
202407110050 METAR EGKK 110050Z 24006KT 9999 SCT034 14/11 Q1017=
202407110120 METAR EGKK 110120Z 24005KT 9999 SCT036 14/11 Q1017=
202407110150 METAR EGKK 110150Z 24004KT CAVOK 13/11 Q1017=
202407110220 METAR EGKK 110220Z 22005KT CAVOK 12/11 Q1017=
202407110250 METAR EGKK 110250Z 23005KT CAVOK 12/11 Q1017=
202407110320 METAR EGKK 110320Z 24005KT CAVOK 12/11 Q1017=
202407110350 METAR EGKK 110350Z 24003KT CAVOK 12/11 Q1017=
202407110420 METAR EGKK 110420Z 22005KT CAVOK 12/11 Q1017=
202407110450 METAR EGKK 110450Z 23004KT CAVOK 12/11 Q1017=
202407110520 METAR EGKK 110520Z 23005KT CAVOK 12/11 Q1017=
202407110550 METAR EGKK 110550Z 23006KT CAVOK 13/11 Q1017=
202407110620 METAR EGKK 110620Z 24004KT CAVOK 14/12 Q1018=
202407110650 METAR EGKK 110650Z 26005KT CAVOK 15/12 Q1018=
202407110720 METAR EGKK 110720Z 26006KT CAVOK 16/12 Q1018=
202407110750 METAR EGKK 110750Z 26005KT 230V290 CAVOK 17/11 Q1018=
202407110820 METAR EGKK 110820Z 26006KT 230V310 CAVOK 17/11 Q1018=
202407110850 METAR EGKK 110850Z 27006KT 200V330 9999 FEW027 18/12 Q1017=
202407110920 METAR EGKK 110920Z 24008KT 200V300 9999 FEW029 19/12 Q1017=
202407110950 METAR EGKK 110950Z VRB07KT 9999 SCT032 19/11 Q1017=
202407111020 METAR EGKK 111020Z 25007KT 220V280 9999 SCT036 20/11 Q1018=
202407111050 METAR EGKK 111050Z 24007KT 200V290 9999 SCT038 20/11 Q1018=
202407111120 METAR EGKK 111120Z VRB05KT 9999 SCT042 SCT048 20/10 Q1018=
202407111150 METAR EGKK 111150Z VRB03KT 9999 SCT045 21/10 Q1017=
202407111220 METAR EGKK 111220Z 29007KT 220V330 9999 SCT046 20/10 Q1017=
202407111250 METAR EGKK 111250Z 24005KT 150V300 9999 SCT048 20/10 Q1017=
202407111320 METAR EGKK 111320Z 24005KT 190V270 9999 FEW048 21/10 Q1017=
202407111350 METAR EGKK 111350Z 22007KT CAVOK 21/11 Q1017=
202407111420 METAR EGKK 111420Z VRB05KT 9999 FEW045 22/11 Q1017=
202407111450 METAR EGKK 111450Z VRB05KT 9999 FEW046 22/10 Q1017=
202407111520 METAR EGKK 111520Z 25006KT 220V290 9999 FEW048 22/11 Q1017=
202407111550 METAR EGKK 111550Z 30005KT 270V350 9999 FEW048 21/10 Q1017=
202407111620 METAR EGKK 111620Z 19008KT 150V220 9999 FEW037 20/12 Q1017=
202407111650 METAR EGKK 111650Z 21008KT 170V250 9999 FEW046 21/12 Q1017=
202407111720 METAR EGKK 111720Z 21008KT 9999 FEW047 20/11 Q1017=
202407111750 METAR EGKK 111750Z 21007KT 170V250 CAVOK 20/10 Q1017=
202407111820 METAR EGKK 111820Z 20006KT CAVOK 20/10 Q1017=
202407111850 METAR EGKK 111850Z 21006KT CAVOK 19/10 Q1017=
202407111920 METAR EGKK 111920Z 21006KT CAVOK 19/11 Q1017=
202407111950 METAR EGKK 111950Z 21004KT 170V240 CAVOK 18/12 Q1016=
202407112020 METAR EGKK 112020Z 21004KT CAVOK 18/12 Q1016=
202407112050 METAR EGKK 112050Z VRB02KT CAVOK 17/12 Q1016=
202407112120 METAR EGKK 112120Z VRB02KT CAVOK 17/12 Q1016=
202407112150 METAR EGKK 112150Z 11004KT 9999 SCT046 17/12 Q1016=
202407112220 METAR EGKK 112220Z 07005KT 9999 SCT032 16/12 Q1016=
202407112250 METAR EGKK 112250Z 04007KT 9999 FEW039 17/12 Q1016=
202407112320 METAR EGKK 112320Z 05009KT CAVOK 16/13 Q1016=
202407112350 METAR EGKK 112350Z 06010KT 9999 FEW017 16/14 Q1016=
202407120020 METAR EGKK 120020Z 06008KT 9999 BKN016 16/14 Q1016=
202407120050 METAR EGKK 120050Z 05011KT 9999 BKN017 16/13 Q1016=
202407120120 METAR EGKK 120120Z 05011KT 9999 BKN015 15/13 Q1016=
202407120150 METAR EGKK 120150Z 05011KT 9999 BKN012 15/13 Q1016=
202407120220 METAR EGKK 120220Z 04011KT 9999 BKN009 15/13 Q1016=
202407120250 METAR EGKK 120250Z 04009KT 9999 BKN009 14/13 Q1016=
202407120320 METAR EGKK 120320Z 04009KT 9999 BKN009 14/12 Q1016=
202407120350 METAR EGKK 120350Z 03007KT 9000 -RA BKN010 14/13 Q1016=
202407120420 METAR EGKK 120420Z 03005KT 360V060 9999 -RA BKN010 14/13 Q1016=
202407120450 METAR EGKK 120450Z 02006KT 9999 BKN011 14/13 Q1016=
202407120520 METAR EGKK 120520Z 03007KT 9999 BKN011 14/12 Q1016=
202407120550 METAR EGKK 120550Z 02008KT 9999 BKN010 14/12 Q1016=
202407120620 METAR EGKK 120620Z 02008KT 9999 BKN010 14/12 Q1016=
202407120650 METAR EGKK 120650Z 02008KT 350V070 9999 BKN010 14/12 Q1016=
202407120720 METAR EGKK 120720Z 02010KT 9999 BKN010 14/12 Q1016=
202407120750 METAR EGKK 120750Z 01009KT 9999 BKN010 14/12 Q1016=
202407120820 METAR EGKK 120820Z 03009KT 010V120 9999 BKN013 14/12 Q1016=
202407120850 METAR EGKK 120850Z 02010KT 9999 BKN018 14/11 Q1016=
202407120920 METAR EGKK 120920Z 01010KT 9999 BKN018 15/11 Q1016=
202407120950 METAR EGKK 120950Z 03009KT 360V070 9999 BKN020 15/11 Q1017=
202407121020 METAR EGKK 121020Z 02009G19KT 350V160 9999 SCT035 15/10 Q1017=
202407121050 METAR EGKK 121050Z 03009KT 310V070 9999 BKN031 16/10 Q1017=
202407121120 METAR EGKK 121120Z 01008KT 260V060 9999 BKN027 17/10 Q1017=
202407121150 METAR EGKK 121150Z 02010KT 360V080 9999 SCT030 17/10 Q1017=
202407121220 METAR EGKK 121220Z 01007KT 260V060 9999 BKN030 17/10 Q1016=
202407121250 METAR EGKK 121250Z 01008KT 330V060 9999 BKN037 18/09 Q1016=
202407121320 METAR COR EGKK 121320Z 01008KT 330V060 9999 BKN036 18/09 Q1016=
202407121350 METAR EGKK 121350Z 36009KT 330V060 9999 SCT033 18/09 Q1016=
202407121420 METAR EGKK 121420Z 03007KT 350V060 9999 VCSH FEW029 SCT039 18/09 Q1016=
202407121450 METAR EGKK 121450Z 36011KT 330V030 9999 VCSH SCT039 18/09 Q1016=
202407121520 METAR EGKK 121520Z 03009KT 350V060 9999 SCT046 18/10 Q1016=
202407121550 METAR EGKK 121550Z 02009KT 350V050 9999 SCT043 18/09 Q1016=
202407121620 METAR EGKK 121620Z 01007KT 310V050 9999 FEW041 18/09 Q1016=
202407121650 METAR EGKK 121650Z 36008KT 320V030 9999 FEW042 18/08 Q1016=
202407121720 METAR EGKK 121720Z 01007KT 340V040 9999 FEW038 18/08 Q1016=
202407121750 METAR EGKK 121750Z 34005KT 280V030 9999 FEW046 17/08 Q1016=
202407121820 METAR EGKK 121820Z VRB05KT 9999 FEW042 17/08 Q1016=
202407121850 METAR EGKK 121850Z 04005KT 010V110 9999 FEW040 17/08 Q1016=
202407121920 METAR EGKK 121920Z 05004KT 340V090 9999 FEW041 17/08 Q1016=
202407121950 METAR EGKK 121950Z VRB05KT 9999 FEW041 16/09 Q1016=
202407122020 METAR EGKK 122020Z 32005KT 250V350 CAVOK 16/09 Q1016=
202407122050 METAR EGKK 122050Z 31005KT 270V360 CAVOK 15/09 Q1016=
202407122120 METAR EGKK 122120Z 31005KT CAVOK 15/09 Q1016=
202407122150 METAR EGKK 122150Z VRB02KT CAVOK 15/09 Q1016=
202407122220 METAR EGKK 122220Z 19001KT 9999 FEW034 BKN046 14/10 Q1016=
202407122250 METAR EGKK 122250Z 33004KT 290V010 9999 BKN033 14/10 Q1016=
202407122320 METAR EGKK 122320Z 03005KT 9999 SCT029 14/10 Q1016=
202407122350 METAR EGKK 122350Z 02006KT 9999 SCT034 14/10 Q1016=
202407130020 METAR EGKK 130020Z 02004KT 350V050 9999 SCT029 14/09 Q1016=
202407130050 METAR EGKK 130050Z 36005KT CAVOK 14/08 Q1016=
202407130120 METAR EGKK 130120Z 34005KT CAVOK 13/08 Q1015=
202407130150 METAR EGKK 130150Z 33004KT CAVOK 13/08 Q1015=
202407130220 METAR EGKK 130220Z 31004KT CAVOK 13/08 Q1015=
202407130250 METAR EGKK 130250Z 25004KT CAVOK 12/08 Q1015=
202407130320 METAR EGKK 130320Z 26003KT CAVOK 12/08 Q1015=
202407130350 METAR EGKK 130350Z 26005KT 9999 FEW040 11/08 Q1015=
202407130420 METAR EGKK 130420Z 26004KT 9999 SCT041 11/09 Q1015=
202407130450 METAR EGKK 130450Z 27003KT 240V310 9999 FEW042 12/08 Q1015=
202407130520 METAR EGKK 130520Z VRB02KT 9999 FEW046 12/09 Q1015=
202407130550 METAR EGKK 130550Z 29003KT 250V360 9999 -SHRA FEW046 13/09 Q1015=
202407130620 METAR EGKK 130620Z 27003KT 200V310 CAVOK 13/09 Q1015=
202407130650 METAR EGKK 130650Z 27005KT 230V320 CAVOK 13/10 Q1015=
202407130720 METAR EGKK 130720Z 29005KT 250V340 CAVOK 14/10 Q1015=
202407130750 METAR EGKK 130750Z 31006KT 270V350 9999 FEW032 15/10 Q1015=
202407130820 METAR EGKK 130820Z 31007KT 280V360 9999 FEW024 15/10 Q1014=
202407130850 METAR EGKK 130850Z 31005KT 250V340 9999 FEW023 16/10 Q1014=
202407130920 METAR EGKK 130920Z 32005KT 240V040 9999 SCT024 16/10 Q1014=
202407130950 METAR EGKK 130950Z 26004KT 170V310 9999 SCT024 16/11 Q1014=
202407131020 METAR EGKK 131020Z 29007KT 250V330 9999 SCT027 SCT035 17/11 Q1014=
202407131050 METAR EGKK 131050Z 27006KT 220V310 9999 SCT030 17/10 Q1014=
202407131120 METAR EGKK 131120Z 29006KT 240V320 9999 SCT032 18/10 Q1014=
202407131150 METAR EGKK 131150Z 27008KT 220V320 9999 SCT035 19/10 Q1014=
202407131220 METAR EGKK 131220Z 28007KT 220V340 9999 SCT038 19/10 Q1013=
202407131250 METAR EGKK 131250Z 32007KT 260V010 9999 SCT041 20/10 Q1013=
202407131320 METAR EGKK 131320Z 28005KT 190V340 9999 SCT045 20/09 Q1013=
202407131350 METAR EGKK 131350Z 29005KT 190V360 9999 VCSH SCT039TCU 19/09 Q1013=
202407131420 METAR EGKK 131420Z 30006KT 260V360 9999 SCT035 19/10 Q1013=
202407131450 METAR EGKK 131450Z 30006KT 250V350 9999 VCSH BKN037 19/11 Q1013=
202407131520 METAR EGKK 131520Z 23012KT 9000 SHRA FEW010 SCT024TCU 16/13 Q1013=
202407131550 METAR EGKK 131550Z 24010KT 9999 4800E -RA FEW011 SCT045TCU 15/13 Q1013 RESHRA=
202407131620 METAR EGKK 131620Z 24006KT 9999 4000NW -SHRA FEW016 SCT039 15/13 Q1013=
202407131650 METAR EGKK 131650Z 27006KT 9999 VCSH FEW019 SCT042 15/13 Q1013=
202407131720 METAR EGKK 131720Z 24004KT 200V270 9999 VCSH FEW056TCU 16/14 Q1013=
202407131750 METAR EGKK 131750Z 22003KT 170V270 9999 VCSH NSC 16/14 Q1013=
202407131820 METAR EGKK 131820Z 25004KT CAVOK 15/13 Q1013=
202407131850 METAR EGKK 131850Z 25003KT CAVOK 15/13 Q1013=
202407131920 METAR EGKK 131920Z VRB02KT 9999 VCSH NSC 15/14 Q1013=
202407131950 METAR EGKK 131950Z 24002KT CAVOK 15/14 Q1013=
202407132020 METAR EGKK 132020Z 25003KT CAVOK 15/13 Q1013=
202407132050 METAR EGKK 132050Z 24004KT CAVOK 14/13 Q1013=
202407132120 METAR EGKK 132120Z 23003KT 190V250 CAVOK 14/13 Q1013=
202407132150 METAR EGKK 132150Z 21002KT CAVOK 14/13 Q1013=
202407132220 METAR EGKK 132220Z 24003KT CAVOK 14/13 Q1013=
202407132250 METAR EGKK 132250Z 19002KT CAVOK 13/13 Q1013=
202407132320 METAR EGKK 132320Z 21002KT CAVOK 12/12 Q1013=
202407132350 METAR EGKK 132350Z 24002KT CAVOK 12/11 Q1013=
202407140020 METAR EGKK 140020Z 18002KT 9999 MIFG NSC 12/12 Q1013=
202407140050 METAR EGKK 140050Z 21001KT 9999 MIFG NSC 12/11 Q1012=
202407140120 METAR EGKK 140120Z 21002KT CAVOK 11/11 Q1012=
202407140150 METAR EGKK 140150Z 20004KT CAVOK 12/12 Q1012=
202407140220 METAR EGKK 140220Z 25003KT 190V300 9000 NSC 12/12 Q1012=
202407140250 METAR EGKK 140250Z VRB02KT 8000 NSC 12/11 Q1012=
202407140320 METAR EGKK 140320Z VRB02KT 8000 VCFG NSC 11/11 Q1012=
202407140350 METAR EGKK 140350Z 20002KT 9000 BCFG NSC 11/11 Q1012=
202407140420 METAR EGKK 140420Z VRB02KT 9000 2000W BCFG NSC 11/11 Q1012=
202407140450 METAR EGKK 140450Z VRB02KT 9999 2500NW PRFG NSC 11/11 Q1012=
202407140520 METAR EGKK 140520Z 20003KT 9999 3500N VCFG NSC 12/12 Q1012=
202407140550 METAR EGKK 140550Z 24003KT 200V290 9999 VCFG NSC 13/12 Q1012=
202407140620 METAR EGKK 140620Z 23004KT 9999 VCFG NSC 14/13 Q1012=
202407140650 METAR EGKK 140650Z 23005KT 9999 FEW010 15/13 Q1012=
202407140720 METAR EGKK 140720Z 23005KT 200V270 9999 FEW010 15/13 Q1012=
202407140750 METAR EGKK 140750Z 22003KT 150V280 9999 FEW010 16/14 Q1012=
202407140820 METAR EGKK 140820Z 24006KT 210V270 9999 SCT017 17/13 Q1012=
202407140850 METAR EGKK 140850Z 26006KT 210V300 9999 SCT022 18/12 Q1012=
202407140920 METAR EGKK 140920Z 24007KT 210V300 9999 FEW028 18/12 Q1012=
202407140950 METAR EGKK 140950Z 26008KT 230V290 9999 SCT031 18/12 Q1012=
202407141020 METAR EGKK 141020Z 22006KT 180V270 9999 SCT034 19/11 Q1012=
202407141050 METAR EGKK 141050Z 21008KT 160V250 9999 SCT034 20/11 Q1012=
202407141120 METAR EGKK 141120Z 24008KT 9999 FEW036 20/11 Q1012=
202407141150 METAR EGKK 141150Z 23007KT 190V270 9999 FEW040 20/11 Q1012=
202407141220 METAR EGKK 141220Z 23006KT 200V260 9999 SCT037 20/12 Q1012=
202407141250 METAR EGKK 141250Z 22007KT 170V250 9999 SCT034 20/12 Q1012=
202407141320 METAR EGKK 141320Z 20009KT 170V230 9999 SCT033 19/12 Q1012=
202407141350 METAR EGKK 141350Z 19008KT 160V230 9999 FEW033 19/12 Q1012=
202407141420 METAR EGKK 141420Z 22008KT 170V250 9999 FEW036 20/12 Q1012=
202407141450 METAR EGKK 141450Z 23008KT 190V260 9999 FEW036 21/11 Q1012=
202407141520 METAR EGKK 141520Z 24007KT 190V290 9999 SCT041 21/10 Q1012=
202407141550 METAR EGKK 141550Z 24008KT 9999 SCT041 20/11 Q1012=
202407141620 METAR EGKK 141620Z 21008KT 170V270 9999 FEW042 21/11 Q1012=
202407141650 METAR EGKK 141650Z 23008KT 9999 FEW044 21/11 Q1012=
202407141720 METAR EGKK 141720Z 23008KT 190V250 9999 FEW044 21/10 Q1012=
202407141750 METAR EGKK 141750Z 23008KT 180V260 9999 FEW041 20/11 Q1012=
202407141820 METAR EGKK 141820Z 24007KT CAVOK 20/10 Q1012=
202407141850 METAR EGKK 141850Z 23007KT CAVOK 20/10 Q1012=
202407141920 METAR EGKK 141920Z 21004KT 170V240 CAVOK 19/11 Q1012=
202407141950 METAR EGKK 141950Z 18006KT CAVOK 18/13 Q1012=
202407142020 METAR EGKK 142020Z 19004KT CAVOK 17/12 Q1012=
202407142050 METAR EGKK 142050Z 19004KT CAVOK 16/12 Q1012=
202407142120 METAR EGKK 142120Z 20004KT CAVOK 15/13 Q1012=
202407142150 METAR EGKK 142150Z 22004KT CAVOK 15/13 Q1012=
202407142220 METAR EGKK 142220Z 26003KT CAVOK 13/12 Q1012=
202407142250 METAR EGKK 142250Z 25002KT CAVOK 13/12 Q1012=
202407142320 METAR EGKK 142320Z VRB01KT CAVOK 13/12 Q1012=
202407142350 METAR EGKK 142350Z VRB01KT CAVOK 13/12 Q1012=
202407150020 METAR EGKK 150020Z VRB01KT 9999 MIFG NSC 12/12 Q1012=
202407150050 METAR EGKK 150050Z VRB02KT 8000 MIFG NSC 11/11 Q1012=
202407150120 METAR EGKK 150120Z 18001KT CAVOK 11/10 Q1012=
202407150150 METAR EGKK 150150Z 00000KT 9999 MIFG NSC 10/10 Q1012=
202407150220 METAR EGKK 150220Z 10002KT 9999 MIFG NSC 11/10 Q1011=
202407150250 METAR EGKK 150250Z 10002KT 9999 MIFG NSC 11/10 Q1011=
202407150320 METAR EGKK 150320Z 06003KT 9999 MIFG NSC 09/09 Q1011=
202407150350 METAR EGKK 150350Z 06002KT 5000 1500NE MIFG FEW002 10/10 Q1010=
202407150420 METAR EGKK 150420Z 09001KT 6000 MIFG NSC 10/10 Q1010=
202407150450 METAR EGKK 150450Z 05002KT 7000 MIFG NSC 10/10 Q1010=
202407150520 METAR EGKK 150520Z 06002KT 9999 5000N VCFG NSC 11/11 Q1010=
202407150550 METAR EGKK 150550Z 07005KT 9999 VCFG NSC 12/11 Q1010=
202407150620 METAR EGKK 150620Z 07004KT 9999 VCFG NSC 12/12 Q1010=
202407150650 METAR EGKK 150650Z 08003KT 9999 VCFG NSC 14/12 Q1010=
202407150720 METAR EGKK 150720Z 07003KT 030V090 CAVOK 15/13 Q1010=
202407150750 METAR EGKK 150750Z 07004KT CAVOK 15/13 Q1010=
202407150820 METAR EGKK 150820Z VRB04KT CAVOK 16/14 Q1010=
202407150850 METAR EGKK 150850Z 07005KT CAVOK 17/14 Q1009=
202407150920 METAR EGKK 150920Z 08005KT 050V110 CAVOK 18/14 Q1009=
202407150950 METAR EGKK 150950Z VRB05KT CAVOK 19/14 Q1009=
202407151020 METAR EGKK 151020Z 08005KT CAVOK 19/15 Q1009=
202407151050 METAR EGKK 151050Z 08005KT 020V110 9999 SCT029 19/15 Q1008=
202407151120 METAR EGKK 151120Z 08006KT 9999 FEW029 20/16 Q1008=
202407151150 METAR EGKK 151150Z 08006KT 9999 FEW039 20/16 Q1007=
202407151220 METAR EGKK 151220Z 15008KT 9999 FEW039 20/14 Q1008=
202407151250 METAR EGKK 151250Z 14006KT 110V170 9999 FEW021 19/15 Q1007=
202407151320 METAR EGKK 151320Z 11005KT 9999 FEW022 19/15 Q1007=
202407151350 METAR EGKK 151350Z 11005KT 060V130 9999 FEW012 20/15 Q1007=
202407151420 METAR EGKK 151420Z 12007KT 9999 FEW041 21/15 Q1007=
202407151450 METAR EGKK 151450Z 13011KT 110V180 9999 SCT031 21/14 Q1007=
202407151520 METAR EGKK 151520Z 15011KT 120V180 9999 BKN030 21/14 Q1006=
202407151550 METAR EGKK 151550Z 14008KT 100V180 9999 SCT029 21/15 Q1006=
202407151620 METAR EGKK 151620Z 13008KT 110V170 9999 FEW030 21/15 Q1005=
202407151650 METAR EGKK 151650Z 14008KT 9999 VCSH FEW020 SCT027 20/15 Q1005=
202407151720 METAR EGKK 151720Z 14006KT 090V180 9999 VCSH FEW013 BKN023 20/15 Q1005=
202407151750 METAR EGKK 151750Z 16007KT 9999 3500S VCSH BKN020 19/15 Q1005=
202407151820 METAR EGKK 151820Z 18005KT 140V210 5000 RA BKN018CB 18/16 Q1005 RETSRA=
202407151850 METAR COR EGKK 151850Z 18004KT 150V210 6000 RA SCT006 BKN010CB 17/17 Q1005 RERA=
202407151920 METAR EGKK 151920Z 17003KT 130V210 3000 -RA FEW005 BKN013 17/16 Q1005 RERA=
202407151950 METAR EGKK 151950Z 24003KT 200V270 7000 RA FEW005 BKN020 17/16 Q1005=
202407152020 METAR EGKK 152020Z 13003KT 8000 -RA FEW006 BKN014 17/17 Q1005 RERA=
202407152050 METAR EGKK 152050Z 18004KT 140V220 9000 VCSH FEW008 BKN011 17/16 Q1005=
202407152120 METAR EGKK 152120Z 20004KT 160V220 9999 FEW008 BKN011 17/17 Q1005=
202407152150 METAR EGKK 152150Z 22009KT 180V240 9999 FEW006 BKN021 17/16 Q1005=
202407152220 METAR EGKK 152220Z 25011KT 9999 SCT009 SCT015 16/15 Q1006=
202407152250 METAR EGKK 152250Z 24006KT CAVOK 16/15 Q1006=
202407152320 METAR EGKK 152320Z 24006KT 9999 BKN007 15/15 Q1006=
202407152350 METAR EGKK 152350Z 23006KT 9999 BKN006 15/14 Q1006=
202407160020 METAR EGKK 160020Z 22007KT 9999 SCT008 15/14 Q1006=
202407160050 METAR EGKK 160050Z 22005KT 190V250 9999 SCT008 15/14 Q1006=
202407160120 METAR EGKK 160120Z 21007KT 9999 SCT016 15/14 Q1006=
202407160150 METAR EGKK 160150Z 21006KT 9999 FEW009 15/14 Q1006=
202407160220 METAR EGKK 160220Z 22004KT 180V240 9999 SCT008 15/14 Q1006=
202407160250 METAR EGKK 160250Z 21005KT 9999 SCT007 15/14 Q1006=
202407160320 METAR EGKK 160320Z 23004KT 190V260 9999 SCT007 15/14 Q1006=
202407160350 METAR EGKK 160350Z 23002KT 9999 VCSH SCT007 14/14 Q1006=
202407160420 METAR EGKK 160420Z 22003KT 180V250 9999 SCT007 BKN048 15/14 Q1006=
202407160450 METAR EGKK 160450Z 20003KT 160V230 9999 FEW030 SCT048 15/14 Q1006=
202407160520 METAR EGKK 160520Z 21006KT 9999 FEW046 15/14 Q1007=
202407160550 METAR EGKK 160550Z 21006KT 180V240 CAVOK 15/14 Q1007=
202407160620 METAR EGKK 160620Z 22006KT 180V250 9999 FEW011 16/15 Q1007=
202407160650 METAR EGKK 160650Z 23006KT 190V270 9999 SCT011 BKN013 17/15 Q1007=
202407160720 METAR EGKK 160720Z 20006KT 160V240 9999 FEW013 SCT018 17/15 Q1007=
202407160750 METAR EGKK 160750Z 22005KT 140V260 9999 FEW012 BKN018 18/15 Q1007=
202407160820 METAR EGKK 160820Z 20005KT 160V240 9999 VCSH SCT015 SCT018 17/14 Q1007=
202407160850 METAR EGKK 160850Z 24004KT 9999 FEW014 SCT022 16/15 Q1007=
202407160920 METAR EGKK 160920Z 24006KT 200V270 9999 -SHRA FEW011 BKN020 17/15 Q1008=
202407160950 METAR EGKK 160950Z 25007KT 9999 FEW014 SCT040 17/15 Q1008=
202407161020 METAR EGKK 161020Z 27009KT 9999 FEW018 SCT020 18/15 Q1008=
202407161050 METAR EGKK 161050Z 24013KT 9999 FEW018 SCT020 19/15 Q1009=
202407161120 METAR EGKK 161120Z 25010KT 9999 SCT018 SCT042 18/14 Q1009=
202407161150 METAR EGKK 161150Z 24010KT 9999 FEW022 BKN047 19/15 Q1009=
202407161220 METAR EGKK 161220Z 25010KT 9999 FEW019 BKN032 18/14 Q1010=
202407161250 METAR EGKK 161250Z 25010KT 9999 VCSH BKN020 17/15 Q1010=
202407161320 METAR EGKK 161320Z 26011KT 9999 BKN012 18/16 Q1011=
202407161350 METAR EGKK 161350Z 25009KT 220V290 9999 SCT016 20/16 Q1011=
202407161420 METAR EGKK 161420Z 25009KT 9999 SCT023 SCT031 20/15 Q1011=
202407161450 METAR COR EGKK 161450Z 26011KT 9999 FEW023 SCT028 20/15 Q1011=
202407161520 METAR EGKK 161520Z 26010KT 9999 FEW023 SCT040 21/15 Q1012=
202407161550 METAR EGKK 161550Z 27012KT 250V310 9999 -SHRA SCT031 20/15 Q1012=
202407161620 METAR EGKK 161620Z 27008KT 9999 SCT025 20/15 Q1012=
202407161650 METAR EGKK 161650Z 31007KT 9999 VCSH BKN026 20/15 Q1012=
202407161720 METAR EGKK 161720Z 30009KT 9999 SCT028 21/15 Q1013=
202407161750 METAR EGKK 161750Z 30008KT 9999 SCT027 20/15 Q1013=
202407161820 METAR EGKK 161820Z 23007KT 9999 SCT027 20/15 Q1014=
202407161850 METAR EGKK 161850Z 23004KT 9999 SCT028 19/16 Q1014=
202407161920 METAR EGKK 161920Z 22005KT 9999 FEW027 19/16 Q1014=
202407161950 METAR EGKK 161950Z 24007KT 9999 FEW026 18/16 Q1015=
202407162020 METAR EGKK 162020Z 24005KT CAVOK 18/16 Q1015=
202407162050 METAR EGKK 162050Z 22004KT CAVOK 17/16 Q1015=
202407162120 METAR EGKK 162120Z 22005KT CAVOK 17/16 Q1016=
202407162150 METAR EGKK 162150Z 23004KT CAVOK 17/15 Q1016=
202407162220 METAR EGKK 162220Z 23003KT 9999 FEW027 17/15 Q1016=
202407162250 METAR EGKK 162250Z 22004KT 9999 FEW026 16/15 Q1016=
202407162320 METAR EGKK 162320Z 24004KT CAVOK 16/14 Q1017=
202407162350 METAR EGKK 162350Z 26005KT 9999 FEW040 16/14 Q1017=
202407170020 METAR EGKK 170020Z 27004KT 9999 FEW045 15/13 Q1017=
202407170050 METAR EGKK 170050Z 26002KT CAVOK 15/13 Q1017=
202407170120 METAR EGKK 170120Z 28005KT CAVOK 14/13 Q1018=
202407170150 METAR EGKK 170150Z 29004KT CAVOK 14/13 Q1018=
202407170220 METAR EGKK 170220Z VRB02KT CAVOK 14/12 Q1018=
202407170250 METAR EGKK 170250Z VRB02KT CAVOK 13/12 Q1018=
202407170320 METAR EGKK 170320Z 17003KT CAVOK 13/12 Q1018=
202407170350 METAR COR EGKK 170350Z 17003KT 9999 VCFG NSC 13/12 Q1018=
202407170420 METAR EGKK 170420Z VRB02KT 9999 VCFG NSC 13/12 Q1019=
202407170450 METAR EGKK 170450Z 18002KT CAVOK 12/12 Q1019=
202407170520 METAR EGKK 170520Z VRB01KT CAVOK 13/12 Q1019=
202407170550 METAR EGKK 170550Z VRB02KT CAVOK 14/13 Q1020=
202407170620 METAR EGKK 170620Z VRB02KT CAVOK 15/13 Q1020=
202407170650 METAR EGKK 170650Z 29004KT 260V320 CAVOK 16/13 Q1020=
202407170720 METAR EGKK 170720Z 29004KT 260V350 CAVOK 17/14 Q1020=
202407170750 METAR EGKK 170750Z 33004KT 260V020 9999 FEW016 18/14 Q1021=
202407170820 METAR EGKK 170820Z 30004KT 260V350 9999 FEW018 18/13 Q1021=
202407170850 METAR EGKK 170850Z 25004KT 200V310 9999 FEW021 19/13 Q1021=
202407170920 METAR EGKK 170920Z 25005KT 210V300 9999 FEW027 19/13 Q1021=
202407170950 METAR EGKK 170950Z 24004KT 150V290 9999 SCT031 20/13 Q1021=
202407171020 METAR EGKK 171020Z 22008KT 180V250 9999 SCT031 21/13 Q1021=
202407171050 METAR EGKK 171050Z 25005KT 150V310 9999 SCT033 20/12 Q1021=
202407171120 METAR EGKK 171120Z 24006KT 200V310 9999 SCT038 21/12 Q1021=
202407171150 METAR EGKK 171150Z 24006KT 180V300 9999 SCT042 21/12 Q1021=
202407171220 METAR EGKK 171220Z 24007KT 190V270 9999 SCT037 21/12 Q1021=
202407171250 METAR EGKK 171250Z 25005KT 190V310 9999 FEW042 22/13 Q1021=
202407171320 METAR EGKK 171320Z 27005KT 220V330 9999 SCT042 21/12 Q1021=
202407171350 METAR EGKK 171350Z 25005KT 190V320 9999 SCT039 22/13 Q1021=
202407171420 METAR EGKK 171420Z 26004KT 160V310 9999 SCT042 23/12 Q1021=
202407171450 METAR EGKK 171450Z 27003KT 200V340 9999 SCT042 23/13 Q1021=
202407171520 METAR EGKK 171520Z 23007KT 9999 SCT042 22/13 Q1021=
202407171550 METAR EGKK 171550Z 20007KT 150V260 CAVOK 23/14 Q1021=
202407171620 METAR EGKK 171620Z 23006KT 160V270 9999 FEW039 22/14 Q1021=
202407171650 METAR EGKK 171650Z 20007KT 170V250 9999 FEW039 22/14 Q1021=
202407171720 METAR EGKK 171720Z 20007KT 160V240 CAVOK 21/14 Q1021=
202407171750 METAR EGKK 171750Z 22007KT CAVOK 21/13 Q1021=
202407171820 METAR EGKK 171820Z 20006KT 170V240 CAVOK 20/13 Q1021=
202407171850 METAR EGKK 171850Z 20006KT CAVOK 20/13 Q1021=
202407171920 METAR EGKK 171920Z 21006KT CAVOK 19/14 Q1021=
202407171950 METAR EGKK 171950Z 17003KT 140V200 CAVOK 19/14 Q1021=
202407172020 METAR EGKK 172020Z 19003KT CAVOK 18/14 Q1021=
202407172050 METAR EGKK 172050Z 17003KT 130V200 CAVOK 17/14 Q1022=
202407172120 METAR EGKK 172120Z 17003KT CAVOK 16/14 Q1022=
202407172150 METAR EGKK 172150Z 16002KT CAVOK 16/14 Q1021=
202407172220 METAR EGKK 172220Z 17002KT CAVOK 16/14 Q1021=
202407172250 METAR EGKK 172250Z VRB01KT CAVOK 15/13 Q1021=
202407172320 METAR EGKK 172320Z VRB01KT CAVOK 14/13 Q1021=
202407172350 METAR EGKK 172350Z VRB01KT CAVOK 14/13 Q1021=
202407180020 METAR EGKK 180020Z VRB02KT CAVOK 13/12 Q1021=
202407180050 METAR EGKK 180050Z 10002KT CAVOK 13/12 Q1021=
202407180120 METAR EGKK 180120Z 09003KT CAVOK 12/12 Q1021=
202407180150 METAR EGKK 180150Z 09003KT CAVOK 12/12 Q1021=
202407180220 METAR EGKK 180220Z 06002KT CAVOK 12/12 Q1021=
202407180250 METAR EGKK 180250Z 10003KT 9000 NSC 12/12 Q1021=
202407180320 METAR EGKK 180320Z 08003KT 9000 NSC 12/12 Q1021=
202407180350 METAR EGKK 180350Z 08003KT 9000 FEW048 12/12 Q1021=
202407180420 METAR EGKK 180420Z 07002KT 9000 SCT049 12/12 Q1021=
202407180450 METAR EGKK 180450Z 09002KT 9000 FEW049 13/12 Q1021=
202407180520 METAR EGKK 180520Z 11003KT CAVOK 13/12 Q1021=
202407180550 METAR EGKK 180550Z VRB02KT CAVOK 14/13 Q1021=
202407180620 METAR EGKK 180620Z 36003KT 320V120 CAVOK 15/13 Q1021=
202407180650 METAR EGKK 180650Z 10003KT CAVOK 15/14 Q1021=
202407180720 METAR EGKK 180720Z 10003KT 060V130 CAVOK 16/14 Q1021=
202407180750 METAR EGKK 180750Z 10003KT 050V140 CAVOK 18/14 Q1021=
202407180820 METAR EGKK 180820Z 09003KT 060V130 CAVOK 19/15 Q1021=
202407180850 METAR EGKK 180850Z 05003KT 9999 FEW033 20/16 Q1021=
202407180920 METAR EGKK 180920Z VRB02KT CAVOK 21/17 Q1020=
202407180950 METAR EGKK 180950Z 17004KT 090V210 CAVOK 22/16 Q1020=
202407181020 METAR EGKK 181020Z VRB04KT CAVOK 23/16 Q1020=
202407181050 METAR EGKK 181050Z 17005KT 090V230 CAVOK 23/16 Q1020=
202407181120 METAR EGKK 181120Z 17007KT 120V200 CAVOK 24/16 Q1020=
202407181150 METAR EGKK 181150Z 19008KT 130V220 CAVOK 25/14 Q1020=
202407181220 METAR EGKK 181220Z 18007KT 140V220 9999 FEW040 25/15 Q1020=
202407181250 METAR EGKK 181250Z 18008KT 140V230 9999 FEW046 26/14 Q1020=
202407181320 METAR EGKK 181320Z 17007KT 140V210 9999 FEW048 26/14 Q1020=
202407181350 METAR EGKK 181350Z 19008KT 150V230 9999 FEW048 26/14 Q1020=
202407181420 METAR EGKK 181420Z 19006KT 130V220 9999 FEW048 27/14 Q1020=
202407181450 METAR EGKK 181450Z 21008KT 160V240 CAVOK 26/14 Q1020=
202407181520 METAR EGKK 181520Z 19008KT 160V230 CAVOK 26/14 Q1020=
202407181550 METAR EGKK 181550Z 18008KT 140V220 CAVOK 26/13 Q1020=
202407181620 METAR EGKK 181620Z 19007KT 130V240 CAVOK 26/13 Q1019=
202407181650 METAR EGKK 181650Z 17006KT 130V210 CAVOK 26/12 Q1019=
202407181720 METAR EGKK 181720Z 16007KT CAVOK 26/13 Q1019=
202407181750 METAR EGKK 181750Z 15006KT 120V190 CAVOK 26/13 Q1019=
202407181820 METAR EGKK 181820Z 18006KT 140V200 CAVOK 25/13 Q1019=
202407181850 METAR EGKK 181850Z 18005KT 140V220 CAVOK 25/13 Q1019=
202407181920 METAR EGKK 181920Z 15004KT 130V210 CAVOK 24/14 Q1019=
202407181950 METAR EGKK 181950Z 14003KT 110V170 CAVOK 23/14 Q1020=
202407182020 METAR EGKK 182020Z 14002KT CAVOK 22/14 Q1020=
202407182050 METAR EGKK 182050Z 15002KT CAVOK 21/14 Q1020=
202407182120 METAR EGKK 182120Z VRB02KT CAVOK 20/15 Q1020=
202407182150 METAR EGKK 182150Z 16003KT CAVOK 20/14 Q1020=
202407182220 METAR EGKK 182220Z 09002KT CAVOK 19/14 Q1020=
202407182250 METAR EGKK 182250Z 09004KT CAVOK 19/14 Q1020=
202407182320 METAR EGKK 182320Z 08003KT CAVOK 18/14 Q1019=
202407182350 METAR EGKK 182350Z 09002KT CAVOK 18/14 Q1019=
202407190020 METAR EGKK 190020Z 08004KT CAVOK 17/14 Q1019=
202407190050 METAR EGKK 190050Z 09003KT CAVOK 17/14 Q1019=
202407190120 METAR EGKK 190120Z 09002KT CAVOK 16/14 Q1019=
202407190150 METAR EGKK 190150Z 08003KT CAVOK 16/14 Q1019=
202407190220 METAR EGKK 190220Z 07002KT CAVOK 16/14 Q1018=
202407190250 METAR EGKK 190250Z 09003KT CAVOK 16/14 Q1018=
202407190320 METAR EGKK 190320Z 07002KT CAVOK 15/14 Q1018=
202407190350 METAR EGKK 190350Z 08003KT CAVOK 15/14 Q1018=
202407190420 METAR EGKK 190420Z 06003KT CAVOK 15/14 Q1018=
202407190450 METAR EGKK 190450Z 07002KT CAVOK 15/14 Q1018=
202407190520 METAR EGKK 190520Z 07003KT CAVOK 15/14 Q1018=
202407190550 METAR EGKK 190550Z 07002KT CAVOK 16/15 Q1018=
202407190620 METAR EGKK 190620Z 08003KT CAVOK 17/15 Q1018=
202407190650 METAR EGKK 190650Z 07004KT CAVOK 19/16 Q1017=
202407190720 METAR EGKK 190720Z 06003KT 020V090 CAVOK 20/16 Q1017=
202407190750 METAR EGKK 190750Z 05004KT 020V100 CAVOK 22/17 Q1017=
202407190820 METAR EGKK 190820Z 08004KT 030V120 CAVOK 23/18 Q1017=
202407190850 METAR EGKK 190850Z 08006KT CAVOK 25/18 Q1017=
202407190920 METAR EGKK 190920Z 13004KT 080V180 CAVOK 27/17 Q1017=
202407190950 METAR EGKK 190950Z 11005KT 080V140 CAVOK 27/16 Q1016=
202407191020 METAR EGKK 191020Z 14005KT 110V190 CAVOK 28/15 Q1016=
202407191050 METAR EGKK 191050Z 13007KT 090V200 CAVOK 28/16 Q1016=
202407191120 METAR EGKK 191120Z 13008KT CAVOK 28/15 Q1016=
202407191150 METAR EGKK 191150Z 15008KT 120V180 CAVOK 29/16 Q1016=
202407191220 METAR EGKK 191220Z 17008KT 140V210 CAVOK 29/16 Q1016=
202407191250 METAR EGKK 191250Z 15008KT 100V190 CAVOK 28/17 Q1015=
202407191320 METAR EGKK 191320Z 15007KT 100V210 9999 FEW048 29/18 Q1015=
202407191350 METAR EGKK 191350Z 17008KT 120V220 9999 FEW048 29/17 Q1015=
202407191420 METAR EGKK 191420Z 17006KT 130V210 CAVOK 29/16 Q1015=
202407191450 METAR EGKK 191450Z 18007KT 140V220 9999 FEW048 29/15 Q1015=
202407191520 METAR EGKK 191520Z 16008KT 130V230 CAVOK 29/15 Q1014=
202407191550 METAR EGKK 191550Z 18007KT 150V220 CAVOK 29/15 Q1014=
202407191620 METAR EGKK 191620Z 22008KT 190V250 CAVOK 29/15 Q1014=
202407191650 METAR EGKK 191650Z 21008KT CAVOK 28/15 Q1014=
202407191720 METAR EGKK 191720Z 19008KT 170V230 CAVOK 27/15 Q1014=
202407191750 METAR EGKK 191750Z 21008KT CAVOK 27/15 Q1014=
202407191820 METAR EGKK 191820Z 22008KT CAVOK 26/16 Q1014=
202407191850 METAR EGKK 191850Z 20007KT CAVOK 25/16 Q1014=
202407191920 METAR EGKK 191920Z 20006KT CAVOK 24/17 Q1014=
202407191950 METAR EGKK 191950Z 20005KT 160V220 CAVOK 23/17 Q1013=
202407192020 METAR EGKK 192020Z 16003KT CAVOK 22/17 Q1013=
202407192050 METAR EGKK 192050Z 19004KT CAVOK 21/17 Q1013=
202407192120 METAR EGKK 192120Z 20003KT CAVOK 20/17 Q1014=
202407192150 METAR EGKK 192150Z 18004KT CAVOK 20/17 Q1013=
202407192220 METAR EGKK 192220Z 18003KT 140V220 CAVOK 19/17 Q1013=
202407192250 METAR EGKK 192250Z 19005KT CAVOK 19/16 Q1013=
202407192320 METAR EGKK 192320Z 20004KT CAVOK 18/16 Q1013=
202407192350 METAR EGKK 192350Z 21004KT CAVOK 18/16 Q1013=
202407200020 METAR EGKK 200020Z 21003KT CAVOK 17/15 Q1012=
202407200050 METAR EGKK 200050Z 23003KT CAVOK 17/15 Q1012=
202407200120 METAR EGKK 200120Z VRB02KT CAVOK 17/14 Q1012=
202407200150 METAR EGKK 200150Z VRB01KT CAVOK 16/14 Q1012=
202407200220 METAR EGKK 200220Z VRB02KT CAVOK 16/14 Q1011=
202407200250 METAR EGKK 200250Z 18002KT CAVOK 16/15 Q1011=
202407200320 METAR EGKK 200320Z 21004KT CAVOK 17/15 Q1011=
202407200350 METAR EGKK 200350Z 23005KT 6000 BKN003 16/15 Q1011=
202407200420 METAR EGKK 200420Z 22004KT 6000 BKN003 16/16 Q1011=
202407200450 METAR EGKK 200450Z 23006KT 6000 BKN003 17/17 Q1011=
202407200520 METAR EGKK 200520Z 22006KT 6000 BKN003 17/17 Q1010=
202407200550 METAR EGKK 200550Z 22006KT 5000 BR BKN003 17/17 Q1010=
202407200620 METAR EGKK 200620Z 23006KT 6000 BKN004 18/17 Q1010=
202407200650 METAR EGKK 200650Z 22006KT 9999 BKN006 18/17 Q1010=
202407200720 METAR EGKK 200720Z 24006KT 9999 SCT007 SCT014 19/17 Q1010=
202407200750 METAR EGKK 200750Z 21005KT 160V250 9999 BKN011 19/17 Q1010=
202407200820 METAR EGKK 200820Z 22007KT 9999 BKN011 19/16 Q1010=
202407200850 METAR EGKK 200850Z 21006KT 170V260 9999 BKN013 20/17 Q1009=
202407200920 METAR EGKK 200920Z 23007KT 180V260 9999 BKN014 20/17 Q1009=
202407200950 METAR EGKK 200950Z 22007KT 180V260 9999 BKN013 20/17 Q1009=
202407201020 METAR EGKK 201020Z 19008KT 150V220 9999 BKN013 19/16 Q1009=
202407201050 METAR EGKK 201050Z 20006KT 160V240 9999 -RA BKN013 19/17 Q1009=
202407201120 METAR EGKK 201120Z 22007KT 180V260 9999 BKN013 20/17 Q1009=
202407201150 METAR EGKK 201150Z 22008KT 180V260 9999 BKN016 21/17 Q1008=
202407201220 METAR EGKK 201220Z 22010KT 190V260 9999 BKN018 22/17 Q1008=
202407201250 METAR EGKK 201250Z 23007KT 190V260 9999 BKN020 22/17 Q1008=
202407201320 METAR EGKK 201320Z 21008KT 9999 BKN020 22/17 Q1007=
202407201350 METAR EGKK 201350Z 23009KT 9999 BKN020 22/17 Q1007=
202407201420 METAR EGKK 201420Z 19007KT 160V230 9999 BKN019 22/17 Q1007=
202407201450 METAR EGKK 201450Z 19007KT 160V230 9999 BKN020 21/17 Q1007=
202407201520 METAR EGKK 201520Z 21008KT 170V250 9999 BKN018 21/17 Q1007=
202407201550 METAR EGKK 201550Z 23007KT 190V270 9999 BKN017 22/17 Q1007=
202407201620 METAR EGKK 201620Z 24007KT 200V280 9999 SCT021 22/17 Q1006=
202407201650 METAR EGKK 201650Z 24007KT 190V270 9999 FEW023 22/17 Q1006=
202407201720 METAR EGKK 201720Z 23007KT 190V270 9999 FEW021 22/17 Q1006=
202407201750 METAR EGKK 201750Z 24007KT 9999 FEW024 22/17 Q1006=
202407201820 METAR EGKK 201820Z 22005KT 200V260 9999 FEW022 22/17 Q1006=
202407201850 METAR EGKK 201850Z 23007KT 9999 FEW022 SCT044 21/16 Q1006=
202407201920 METAR EGKK 201920Z 23007KT 9999 FEW021 SCT036 20/16 Q1006=
202407201950 METAR EGKK 201950Z 23005KT 9999 FEW017 SCT029 20/17 Q1006=
202407202020 METAR EGKK 202020Z 22005KT 190V250 9999 FEW014 20/17 Q1006=
202407202050 METAR EGKK 202050Z 20004KT 180V240 9999 FEW014 19/17 Q1007=
202407202120 METAR EGKK 202120Z 21004KT 9999 SCT011 19/17 Q1006=
202407202150 METAR EGKK 202150Z 24004KT 9999 SCT011 19/17 Q1006=
202407202220 METAR EGKK 202220Z 22004KT 9999 SCT010 19/17 Q1007=
202407202250 METAR EGKK 202250Z 22004KT 9999 BKN009 19/17 Q1007=
202407202320 METAR EGKK 202320Z 22004KT 180V240 9999 BKN008 19/17 Q1007=
202407202350 METAR EGKK 202350Z 22004KT 190V250 5000 HZ BKN007 18/17 Q1006=
202407210020 METAR EGKK 210020Z 22004KT 190V260 7000 BKN007 18/17 Q1006=
202407210050 METAR EGKK 210050Z 22004KT 9999 BKN007 18/17 Q1006=
202407210120 METAR EGKK 210120Z 22003KT 9999 FEW009 BKN013 18/17 Q1006=
202407210150 METAR EGKK 210150Z 23004KT 9999 SCT008 BKN016 18/17 Q1007=
202407210220 METAR EGKK 210220Z 24004KT 9999 SCT008 SCT017 18/17 Q1007=
202407210250 METAR EGKK 210250Z 22004KT 7000 -DZRA BKN010 18/17 Q1007=
202407210320 METAR EGKK 210320Z 25006KT 9999 SCT006 BKN017 18/17 Q1007=
202407210350 METAR EGKK 210350Z 25004KT 9999 SCT007 BKN022 17/17 Q1008=
202407210420 METAR EGKK 210420Z 25004KT 9999 FEW009 SCT040 17/16 Q1008=
202407210450 METAR EGKK 210450Z 26005KT 9999 SCT011 17/16 Q1008=
202407210520 METAR EGKK 210520Z 30007KT 9999 SCT010 17/16 Q1008=
202407210550 METAR EGKK 210550Z 29006KT 9999 BKN011 17/16 Q1008=
202407210620 METAR EGKK 210620Z 29007KT 9999 BKN011 18/16 Q1008=
202407210650 METAR EGKK 210650Z 30005KT 270V360 9999 BKN010 18/16 Q1009=
202407210720 METAR EGKK 210720Z 30007KT 270V340 9999 BKN010 18/16 Q1009=
202407210750 METAR EGKK 210750Z 31007KT 270V340 9999 SCT014 BKN026 19/16 Q1009=
202407210820 METAR EGKK 210820Z 31011KT 9999 -RA FEW010 BKN018 19/16 Q1009=
202407210850 METAR EGKK 210850Z 33008KT 300V010 9999 FEW009 BKN022 18/16 Q1010=
202407210920 METAR EGKK 210920Z 32008KT 280V360 9999 SCT014 SCT031 19/15 Q1010=
202407210950 METAR EGKK 210950Z 33007KT 240V020 9999 SCT022 20/15 Q1010=
202407211020 METAR EGKK 211020Z 32007KT 280V030 9999 SCT022 20/14 Q1010=
202407211050 METAR EGKK 211050Z 33009KT 9999 FEW027 BKN032 20/14 Q1011=
202407211120 METAR EGKK 211120Z 32006KT 290V360 9999 BKN034 21/14 Q1011=
202407211150 METAR EGKK 211150Z VRB06KT 9999 BKN032 21/14 Q1011=
202407211220 METAR EGKK 211220Z 31008KT 270V030 9999 FEW036 BKN049 21/13 Q1011=
202407211250 METAR EGKK 211250Z 31007KT 280V340 9999 SCT036 BKN049 21/13 Q1011=
202407211320 METAR EGKK 211320Z 32008KT 9999 FEW035 SCT045 22/13 Q1012=
202407211350 METAR EGKK 211350Z 28007KT 240V300 9999 FEW035 SCT044 22/13 Q1012=
202407211420 METAR EGKK 211420Z 28007KT 230V340 9999 SCT036 22/14 Q1012=
202407211450 METAR EGKK 211450Z 26008KT 230V290 9999 SCT036 23/14 Q1012=
202407211520 METAR EGKK 211520Z 26008KT 9999 FEW039 22/13 Q1012=
202407211550 METAR EGKK 211550Z 28008KT 250V310 9999 FEW041 23/14 Q1012=
202407211620 METAR EGKK 211620Z 27006KT 230V310 9999 SCT040 23/13 Q1012=
202407211650 METAR EGKK 211650Z 27006KT 9999 SCT040 22/14 Q1012=
202407211720 METAR EGKK 211720Z 24006KT 200V280 9999 FEW035 22/14 Q1012=
202407211750 METAR EGKK 211750Z 23008KT 9999 FEW035 22/15 Q1012=
202407211820 METAR EGKK 211820Z 24008KT 9999 FEW033 21/15 Q1012=
202407211850 METAR EGKK 211850Z 26011KT 9999 FEW039 21/14 Q1013=
202407211920 METAR EGKK 211920Z 26010KT 9999 FEW041 21/13 Q1013=
202407211950 METAR EGKK 211950Z 27009KT 9999 FEW042 20/12 Q1013=
202407212020 METAR EGKK 212020Z 25010KT 9999 FEW044 19/11 Q1014=
202407212050 METAR EGKK 212050Z 27007KT 9999 FEW045 18/11 Q1014=
202407212120 METAR EGKK 212120Z 25006KT CAVOK 17/10 Q1014=
202407212150 METAR EGKK 212150Z 26006KT CAVOK 16/10 Q1015=
202407212220 METAR EGKK 212220Z 25004KT 210V270 CAVOK 16/10 Q1015=
202407212250 METAR EGKK 212250Z 25006KT CAVOK 15/10 Q1015=
202407212320 METAR EGKK 212320Z 24004KT CAVOK 15/10 Q1015=
202407212350 METAR EGKK 212350Z VRB02KT CAVOK 15/10 Q1015=
202407220020 METAR EGKK 220020Z 18002KT CAVOK 14/10 Q1015=
202407220050 METAR EGKK 220050Z 21004KT CAVOK 14/10 Q1015=
202407220120 METAR EGKK 220120Z 21003KT CAVOK 14/10 Q1015=
202407220150 METAR EGKK 220150Z 20003KT CAVOK 14/11 Q1015=
202407220220 METAR EGKK 220220Z 21004KT 190V250 CAVOK 13/11 Q1015=
202407220250 METAR EGKK 220250Z 21002KT CAVOK 13/11 Q1015=
202407220320 METAR EGKK 220320Z VRB02KT CAVOK 13/12 Q1015=
202407220350 METAR EGKK 220350Z VRB01KT CAVOK 12/11 Q1015=
202407220420 METAR EGKK 220420Z 20003KT 9999 FEW037 14/13 Q1015=
202407220450 METAR EGKK 220450Z 20005KT 9999 SCT017 15/14 Q1015=
202407220520 METAR EGKK 220520Z 21006KT 9999 BKN016 16/14 Q1015=
202407220550 METAR EGKK 220550Z 20005KT 160V230 9999 BKN013 16/14 Q1015=
202407220620 METAR EGKK 220620Z 20007KT 9999 SCT010 BKN015 17/15 Q1015=
202407220650 METAR EGKK 220650Z 21007KT 9999 BKN010 17/15 Q1015=
202407220720 METAR EGKK 220720Z 21009KT 190V250 9999 BKN009 17/16 Q1015=
202407220750 METAR EGKK 220750Z 21010KT 170V240 9999 BKN009 17/16 Q1015=
202407220820 METAR EGKK 220820Z 21006KT 9999 BKN009 18/16 Q1015=
202407220850 METAR EGKK 220850Z 21009KT 160V240 9999 VCSH BKN007 18/16 Q1015=
202407220920 METAR EGKK 220920Z 21008KT 160V240 9000 VCSH BKN008 18/17 Q1015=
202407220950 METAR EGKK 220950Z NIL=
202407221020 METAR EGKK 221020Z 21011KT 9999 BKN006 18/17 Q1015=
202407221050 METAR EGKK 221050Z 20011KT 170V240 9999 VCSH SCT007 BKN020 19/17 Q1015=
202407221120 METAR EGKK 221120Z 22011KT 4000 DZ VCSH BKN006 18/17 Q1015=
202407221150 METAR EGKK 221150Z 21009KT 180V240 9999 BKN009 19/17 Q1015 REDZ=
202407221220 METAR EGKK 221220Z 21009KT 9999 VCSH SCT008 BKN013 19/17 Q1015=
202407221250 METAR EGKK 221250Z 22011KT 9999 SCT010 BKN024 19/17 Q1015=
202407221320 METAR EGKK 221320Z 21011KT 9999 SCT014 SCT024 20/17 Q1016=
202407221350 METAR EGKK 221350Z 21012KT 180V240 9999 BKN015 20/17 Q1016=
202407221420 METAR EGKK 221420Z 22013G23KT 9999 BKN016 20/16 Q1016=
202407221450 METAR EGKK 221450Z 22013KT 180V240 9999 BKN016 20/16 Q1016=
202407221520 METAR EGKK 221520Z 21011KT 180V250 9999 SCT016 21/17 Q1016=
202407221550 METAR EGKK 221550Z 22013KT 9999 BKN017 20/16 Q1015=
202407221620 METAR EGKK 221620Z 21012KT 180V250 9999 BKN019 20/16 Q1015=
202407221650 METAR EGKK 221650Z 21011KT 9999 BKN019 20/16 Q1015=
202407221720 METAR EGKK 221720Z 21011KT 9999 SCT017 20/16 Q1015=
202407221750 METAR EGKK 221750Z 22010KT 9999 SCT016 19/16 Q1015=
202407221820 METAR EGKK 221820Z 21010KT 170V240 9999 SCT016 19/15 Q1015=
202407221850 METAR EGKK 221850Z 21010KT 180V240 9999 BKN016 19/15 Q1015=
202407221920 METAR EGKK 221920Z 21010KT 9999 BKN014 18/15 Q1016=
202407221950 METAR EGKK 221950Z 21009KT 9999 BKN013 18/15 Q1016=
202407222020 METAR EGKK 222020Z 21007KT 9999 BKN014 18/15 Q1016=
202407222050 METAR EGKK 222050Z 23006KT 9999 BKN013 18/15 Q1016=
202407222120 METAR EGKK 222120Z 21007KT 9999 BKN012 BKN043 18/15 Q1016=
202407222150 METAR EGKK 222150Z 22006KT 180V240 9999 BKN011 18/16 Q1016=
202407222220 METAR EGKK 222220Z 21006KT 9999 BKN009 18/16 Q1016=
202407222250 METAR EGKK 222250Z 21006KT 170V240 9999 BKN007 18/16 Q1015=
202407222320 METAR EGKK 222320Z 20006KT 9999 BKN007 18/17 Q1015=
202407222350 METAR EGKK 222350Z 21005KT 180V250 9999 BKN007 18/17 Q1015=
202407230020 METAR EGKK 230020Z 22005KT 7000 -DZRA BKN006 18/17 Q1015=
202407230050 METAR EGKK 230050Z 22005KT 180V250 9999 BKN006 18/17 Q1015=
202407230120 METAR EGKK 230120Z 21006KT 9999 BKN006 18/17 Q1015=
202407230150 METAR EGKK 230150Z 21005KT 4000 -DZ BKN004 18/17 Q1014=
202407230220 METAR EGKK 230220Z 22006KT 190V250 4000 -DZ BKN005 18/17 Q1014=
202407230250 METAR EGKK 230250Z 22006KT 6000 -DZ FEW005 BKN007 18/17 Q1014=
202407230320 METAR EGKK 230320Z 22007KT 6000 -DZ BKN006 18/17 Q1014=
202407230350 METAR EGKK 230350Z 23006KT 9000 SCT006 BKN017 18/17 Q1014=
202407230420 METAR EGKK 230420Z 23006KT 9999 SCT005 BKN015 17/17 Q1014=
202407230450 METAR EGKK 230450Z 23005KT 9999 FEW006 BKN010 17/17 Q1015=
202407230520 METAR EGKK 230520Z 24008G19KT 9999 5000S -SHRA FEW005 BKN013 17/17 Q1015=
202407230550 METAR EGKK 230550Z 27011KT 9999 -SHRA FEW010 BKN027 16/15 Q1015=
202407230620 METAR EGKK 230620Z 24006KT 9999 FEW010 BKN038 16/15 Q1016=
202407230650 METAR EGKK 230650Z 25007KT 9999 FEW013 BKN038 17/15 Q1016=
202407230720 METAR EGKK 230720Z 25011KT 9999 SCT014 BKN039 17/15 Q1016=
202407230750 METAR EGKK 230750Z 25011KT 9999 SCT014 SCT021 18/15 Q1016=
202407230820 METAR EGKK 230820Z 27012KT 9999 SCT018 SCT024 18/14 Q1016=
202407230850 METAR EGKK 230850Z 26009KT 9999 VCSH SCT018 SCT030 17/14 Q1016=
202407230920 METAR EGKK 230920Z 24008KT 9999 FEW020 SCT030 BKN047 18/14 Q1017=
202407230950 METAR EGKK 230950Z 25009KT 9999 VCSH FEW018 SCT033 18/14 Q1017=
202407231020 METAR EGKK 231020Z 27009KT 9999 VCSH BKN018 18/15 Q1017=
202407231050 METAR EGKK 231050Z 27006KT 240V300 9999 BKN018 18/15 Q1017=
202407231120 METAR EGKK 231120Z 29008KT 9999 BKN018 19/15 Q1018=
202407231150 METAR EGKK 231150Z 29006KT 260V330 9999 BKN020 20/15 Q1018=
202407231220 METAR EGKK 231220Z 30011KT 9000 -DZ VCSH BKN018 19/15 Q1019=
202407231250 METAR EGKK 231250Z 27008KT 9999 VCSH SCT011 SCT035 19/16 Q1019=
202407231320 METAR EGKK 231320Z 27007KT 9999 VCSH SCT011 SCT032 18/17 Q1020=
202407231350 METAR EGKK 231350Z 27005KT 230V300 9999 FEW010 SCT038 20/17 Q1020=
202407231420 METAR EGKK 231420Z 26005KT 230V300 9999 SCT019 21/17 Q1020=
202407231450 METAR EGKK 231450Z 28004KT 240V360 9999 FEW018 SCT043 21/16 Q1020=
202407231520 METAR EGKK 231520Z 33005KT 250V020 9999 SCT031 22/15 Q1020=
202407231550 METAR EGKK 231550Z 30008KT 9999 FEW028 SCT036 22/15 Q1020=
202407231620 METAR EGKK 231620Z 29006KT 9999 SCT034 22/15 Q1020=
202407231650 METAR EGKK 231650Z 32006KT 280V360 9999 FEW037 23/15 Q1020=
202407231720 METAR EGKK 231720Z 31005KT 280V350 9999 FEW038 23/14 Q1020=
202407231750 METAR EGKK 231750Z 26004KT 9999 FEW039 22/14 Q1020=
202407231820 METAR EGKK 231820Z 29004KT 9999 FEW043 22/14 Q1021=
202407231850 METAR EGKK 231850Z 32004KT 280V360 9999 FEW045 22/14 Q1021=
202407231920 METAR EGKK 231920Z 30004KT 9999 SCT048 22/14 Q1021=
202407231950 METAR EGKK 231950Z VRB01KT 9999 BKN045 21/15 Q1021=
202407232020 METAR EGKK 232020Z 09004KT 9999 SCT044 20/15 Q1021=
202407232050 METAR EGKK 232050Z 11002KT 9999 BKN048 20/15 Q1022=
202407232120 METAR EGKK 232120Z 10003KT 080V140 9999 BKN044 20/15 Q1022=
202407232150 METAR EGKK 232150Z 09004KT 9999 BKN040 18/15 Q1022=
202407232220 METAR EGKK 232220Z 10004KT 9999 FEW045 18/15 Q1022=
202407232250 METAR EGKK 232250Z 08005KT 9999 FEW043 17/15 Q1022=
202407232320 METAR EGKK 232320Z 08004KT 9999 SCT043 17/15 Q1022=
202407232350 METAR EGKK 232350Z 09004KT 9999 FEW042 16/15 Q1022=
202407240020 METAR EGKK 240020Z 10005KT 9999 FEW043 16/15 Q1022=
202407240050 METAR EGKK 240050Z 10003KT CAVOK 16/15 Q1022=
202407240120 METAR EGKK 240120Z 09002KT CAVOK 15/14 Q1022=
202407240150 METAR EGKK 240150Z VRB01KT CAVOK 15/15 Q1022=
202407240220 METAR EGKK 240220Z 07003KT CAVOK 15/14 Q1022=
202407240250 METAR EGKK 240250Z 08004KT CAVOK 14/14 Q1022=
202407240320 METAR EGKK 240320Z 08003KT CAVOK 14/13 Q1022=
202407240350 METAR EGKK 240350Z 08003KT 9000 VCFG NSC 14/14 Q1022=
202407240420 METAR EGKK 240420Z 07004KT 1600 PRFG SCT001 13/13 Q1022=
202407240450 METAR EGKK 240450Z 08004KT 0900 R08R/1300D FG BKN001 14/14 Q1022=
202407240520 METAR EGKK 240520Z 08002KT 2000 BCFG FEW001 SCT003 14/14 Q1022=
202407240550 METAR EGKK 240550Z 08002KT 2000 BCFG BKN002 15/15 Q1022=
202407240620 METAR EGKK 240620Z 08003KT 1800 BCFG BKN002 15/15 Q1022=
202407240650 METAR EGKK 240650Z 11003KT 060V140 5000 BCFG BKN003 16/16 Q1022=
202407240720 METAR EGKK 240720Z VRB01KT 9000 BKN004 16/16 Q1022=
202407240750 METAR EGKK 240750Z VRB02KT 9000 BKN007 18/16 Q1022=
202407240820 METAR EGKK 240820Z VRB03KT 9000 BKN006 19/16 Q1022=
202407240850 METAR EGKK 240850Z 19003KT 130V240 9000 SCT010 20/17 Q1022=
202407240920 METAR EGKK 240920Z 17003KT 080V220 9999 FEW013 20/17 Q1022=
202407240950 METAR EGKK 240950Z 17004KT 120V260 9999 FEW015 21/17 Q1021=
202407241020 METAR EGKK 241020Z 17006KT 130V220 9999 FEW020 22/17 Q1021=
202407241050 METAR EGKK 241050Z 18005KT 130V230 9999 SCT024 22/16 Q1021=
202407241120 METAR EGKK 241120Z 18006KT 140V220 9999 SCT027 22/16 Q1021=
202407241150 METAR EGKK 241150Z 19008KT 140V230 9999 SCT031 23/16 Q1020=
202407241220 METAR EGKK 241220Z 19010KT 9999 SCT032 23/15 Q1020=
202407241250 METAR EGKK 241250Z 20009KT 150V230 9999 SCT032 23/15 Q1020=
202407241320 METAR EGKK 241320Z 19010KT 160V230 9999 FEW031 23/15 Q1020=
202407241350 METAR EGKK 241350Z 20010KT 170V240 9999 FEW030 22/15 Q1020=
202407241420 METAR EGKK 241420Z 21009KT 170V240 9999 FEW028 22/15 Q1020=
202407241450 METAR EGKK 241450Z 21009KT 170V250 9999 FEW030 22/15 Q1020=
202407241520 METAR EGKK 241520Z 19009KT 160V230 9999 FEW034 22/14 Q1019=
202407241550 METAR EGKK 241550Z 22009KT 9999 FEW033 22/14 Q1019=
202407241620 METAR EGKK 241620Z 20009KT 180V240 9999 FEW030 21/13 Q1019=
202407241650 METAR EGKK 241650Z 24009KT 9999 FEW031 20/14 Q1019=
202407241720 METAR EGKK 241720Z 23008KT 190V260 9999 FEW031 20/14 Q1019=
202407241750 METAR EGKK 241750Z 23008KT 9999 FEW027 19/14 Q1018=
202407241820 METAR EGKK 241820Z 23008KT 9999 FEW028 19/13 Q1018=
202407241850 METAR EGKK 241850Z 24006KT 200V260 9999 FEW028 18/13 Q1018=
202407241920 METAR EGKK 241920Z 21008KT 160V240 9999 FEW024 18/13 Q1018=
202407241950 METAR EGKK 241950Z 22008KT 9999 FEW022 18/13 Q1018=
202407242020 METAR EGKK 242020Z 23010KT 9999 FEW023 17/13 Q1018=
202407242050 METAR EGKK 242050Z 23006KT 9999 FEW023 17/13 Q1018=
202407242120 METAR EGKK 242120Z 22006KT 190V260 CAVOK 17/13 Q1018=
202407242150 METAR EGKK 242150Z 22006KT CAVOK 17/13 Q1018=
202407242220 METAR EGKK 242220Z 22006KT 170V240 9999 FEW017 16/13 Q1017=
202407242250 METAR EGKK 242250Z 21006KT 170V230 9999 BKN016 16/13 Q1017=
202407242320 METAR EGKK 242320Z 22005KT 180V240 9999 FEW017 16/13 Q1017=
202407242350 METAR EGKK 242350Z 22006KT 190V260 9999 FEW016 SCT027 16/14 Q1017=
202407250020 METAR EGKK 250020Z 21006KT 9999 SCT013 16/14 Q1017=
202407250050 METAR EGKK 250050Z 21006KT 9999 -RA SCT013 BKN017 16/14 Q1016=
202407250120 METAR EGKK 250120Z 20005KT 160V230 9999 BKN016 16/14 Q1016=
202407250150 METAR EGKK 250150Z 22006KT 9999 BKN015 16/14 Q1016=
202407250220 METAR EGKK 250220Z 21007KT 180V240 7000 -RA BKN010 16/14 Q1015=
202407250250 METAR EGKK 250250Z 21007KT 9999 BKN009 15/14 Q1015=
202407250320 METAR EGKK 250320Z 21007KT 9999 BKN007 15/15 Q1015=
202407250350 METAR EGKK 250350Z 22008KT 9999 BKN004 15/15 Q1015=
202407250420 METAR EGKK 250420Z 21007KT 9999 BKN006 15/15 Q1014=
202407250450 METAR EGKK 250450Z 21008KT 6000 -DZ BKN006 16/15 Q1014=
202407250520 METAR EGKK 250520Z 21008KT 9000 -RA SCT005 BKN022 16/15 Q1014=
202407250550 METAR EGKK 250550Z 21007KT 170V240 5000 -DZ BKN007 16/15 Q1014=
202407250620 METAR EGKK 250620Z 21007KT 7000 BKN007 16/15 Q1014=
202407250650 METAR EGKK 250650Z 21008KT 170V240 6000 BKN004 16/15 Q1013=
202407250720 METAR EGKK 250720Z 20009KT 8000 BKN006 16/16 Q1013=
202407250750 METAR EGKK 250750Z 21009KT 170V250 9000 BKN007 17/16 Q1013=
202407250820 METAR EGKK 250820Z 21008KT 170V250 9000 BKN005 17/16 Q1013=
202407250850 METAR EGKK 250850Z 22010KT 8000 BKN006 17/16 Q1012=
202407250920 METAR EGKK 250920Z 21008KT 5000 -DZ BKN006 17/16 Q1012=
202407250950 METAR EGKK 250950Z 21009KT 7000 BKN006 17/16 Q1012=
202407251020 METAR EGKK 251020Z 22010KT 6000 BKN006 17/16 Q1012=
202407251050 METAR EGKK 251050Z 21008KT 7000 BKN005 18/17 Q1012=
202407251120 METAR EGKK 251120Z 21009KT 140V240 9000 BKN008 18/16 Q1012=
202407251150 METAR EGKK 251150Z 21009KT 160V230 9000 BKN008 18/16 Q1012=
202407251220 METAR EGKK 251220Z 19008KT 150V250 8000 -RA BKN008 17/17 Q1011=
202407251250 METAR EGKK 251250Z 22008KT 180V240 8000 -RA BKN007 17/17 Q1011=
202407251320 METAR EGKK 251320Z 22008KT 9999 BKN007 18/17 Q1011=
202407251350 METAR EGKK 251350Z 20006KT 160V220 9000 -RA BKN006 18/17 Q1011=
202407251420 METAR EGKK 251420Z 21006KT 170V260 9999 BKN006 18/17 Q1010=
202407251450 METAR EGKK 251450Z 21005KT 160V240 9999 -RA BKN006 18/18 Q1010=
202407251520 METAR EGKK 251520Z 21010KT 170V240 4000 DZ BKN005 18/17 Q1010=
202407251550 METAR EGKK 251550Z 21008KT 9000 BKN006 18/17 Q1010 REDZ=
202407251620 METAR EGKK 251620Z 20008KT 160V220 9999 BKN006 18/17 Q1009=
202407251650 METAR EGKK 251650Z 21009KT 170V230 9999 BKN006 18/17 Q1009=
202407251720 METAR EGKK 251720Z 21008KT 8000 BKN006 18/17 Q1009=
202407251750 METAR EGKK 251750Z 20008KT 170V230 5000 -DZ BKN006 18/17 Q1009 REDZ=
202407251820 METAR EGKK 251820Z 21007KT 8000 BKN006 18/17 Q1009=
202407251850 METAR EGKK 251850Z 21006KT 170V230 5000 -DZ BKN006 18/17 Q1009=
202407251920 METAR EGKK 251920Z 21007KT 2200 DZ BKN005 18/17 Q1008 REDZ=
202407251950 METAR EGKK 251950Z 21007KT 5000 BR BKN005 18/17 Q1008 REDZ=
202407252020 METAR EGKK 252020Z 22008KT 5000 -RADZ BKN004 18/17 Q1009=
202407252050 METAR EGKK 252050Z 22007KT 5000 BR BKN004 18/17 Q1009=
202407252120 METAR EGKK 252120Z 23006KT 5000 -DZ BKN003 18/18 Q1009=
202407252150 METAR EGKK 252150Z 23005KT 9999 SCT004 BKN009 18/18 Q1009=
202407252220 METAR EGKK 252220Z 23006KT 9999 FEW004 BKN007 18/17 Q1009=
202407252250 METAR EGKK 252250Z 25007KT 9999 FEW010 BKN023 18/17 Q1009=
202407252320 METAR EGKK 252320Z 27009KT 9999 SCT015 BKN033 17/15 Q1009=
202407252350 METAR EGKK 252350Z 25007KT 9999 FEW026 16/15 Q1010=
202407260020 METAR EGKK 260020Z 24005KT CAVOK 15/14 Q1010=
202407260050 METAR EGKK 260050Z 24003KT CAVOK 15/13 Q1010=
202407260120 METAR EGKK 260120Z VRB02KT CAVOK 14/13 Q1010=
202407260150 METAR EGKK 260150Z 19002KT CAVOK 14/13 Q1010=
202407260220 METAR EGKK 260220Z VRB01KT CAVOK 14/13 Q1010=
202407260250 METAR EGKK 260250Z VRB01KT CAVOK 13/13 Q1010=
202407260320 METAR EGKK 260320Z VRB02KT CAVOK 14/13 Q1010=
202407260350 METAR EGKK 260350Z VRB02KT CAVOK 14/13 Q1010=
202407260420 METAR EGKK 260420Z VRB01KT CAVOK 13/13 Q1010=
202407260450 METAR EGKK 260450Z VRB02KT CAVOK 13/13 Q1010=
202407260520 METAR EGKK 260520Z VRB02KT 9999 FEW005 13/13 Q1010=
202407260550 METAR EGKK 260550Z 23004KT 9999 FEW006 14/13 Q1011=
202407260620 METAR EGKK 260620Z 24004KT 9999 FEW006 15/14 Q1011=
202407260650 METAR EGKK 260650Z 23005KT 9999 FEW007 15/14 Q1011=
202407260720 METAR EGKK 260720Z 25005KT 220V290 9999 FEW010 16/14 Q1011=
202407260750 METAR EGKK 260750Z 24004KT 180V320 9999 FEW013 17/14 Q1011=
202407260820 METAR EGKK 260820Z 26005KT 210V290 9999 SCT012 17/14 Q1012=
202407260850 METAR EGKK 260850Z 25005KT 200V310 9999 SCT012 18/14 Q1012=
202407260920 METAR EGKK 260920Z 24007KT 180V300 9999 SCT020 19/14 Q1012=
202407260950 METAR EGKK 260950Z 24008KT 200V280 9999 SCT025 19/13 Q1012=
202407261020 METAR EGKK 261020Z 23007KT 210V270 9999 SCT022 20/13 Q1012=
202407261050 METAR EGKK 261050Z 25005KT 200V290 9999 SCT029 20/13 Q1012=
202407261120 METAR EGKK 261120Z 23007KT 170V280 9999 SCT036 21/13 Q1012=
202407261150 METAR EGKK 261150Z 25007KT 210V280 9999 SCT040 21/12 Q1011=
202407261220 METAR EGKK 261220Z 24009KT 210V270 9999 SCT040 21/12 Q1012=
202407261250 METAR EGKK 261250Z 23009KT 200V270 9999 SCT041 22/12 Q1012=
202407261320 METAR EGKK 261320Z 24008KT 200V270 9999 FEW040 22/12 Q1011=
202407261350 METAR EGKK 261350Z 23008KT 190V270 9999 FEW042 21/12 Q1011=
202407261420 METAR EGKK 261420Z 23008KT 190V260 9999 SCT042 21/13 Q1011=
202407261450 METAR EGKK 261450Z 22009KT 190V260 9999 FEW037 21/13 Q1011=
202407261520 METAR EGKK 261520Z 21009KT 170V240 9999 FEW034 21/14 Q1011=
202407261550 METAR EGKK 261550Z 21008KT 170V240 9999 FEW028 20/14 Q1011=
202407261620 METAR EGKK 261620Z 22009KT 180V250 9999 FEW033 21/14 Q1012=
202407261650 METAR EGKK 261650Z 21009KT 180V240 9999 FEW031 21/13 Q1012=
202407261720 METAR EGKK 261720Z 21007KT 170V240 9999 FEW032 21/13 Q1012=
202407261750 METAR EGKK 261750Z 20007KT 160V230 CAVOK 20/13 Q1012=
202407261820 METAR EGKK 261820Z 20007KT 160V250 CAVOK 20/12 Q1012=
202407261850 METAR EGKK 261850Z 21008KT 180V240 CAVOK 19/12 Q1012=
202407261920 METAR EGKK 261920Z 21005KT CAVOK 18/12 Q1012=
202407261950 METAR EGKK 261950Z 22006KT CAVOK 18/12 Q1012=
202407262020 METAR EGKK 262020Z 21004KT CAVOK 17/12 Q1012=
202407262050 METAR EGKK 262050Z 21003KT CAVOK 16/12 Q1013=
202407262120 METAR EGKK 262120Z 20003KT CAVOK 16/13 Q1013=
202407262150 METAR EGKK 262150Z 21004KT CAVOK 16/12 Q1013=
202407262220 METAR EGKK 262220Z 21004KT CAVOK 15/13 Q1012=
202407262250 METAR EGKK 262250Z 22004KT CAVOK 15/12 Q1013=
202407262320 METAR EGKK 262320Z 23003KT CAVOK 14/12 Q1013=
202407262350 METAR EGKK 262350Z 25003KT CAVOK 13/12 Q1013=
202407270020 METAR EGKK 270020Z 20002KT CAVOK 13/12 Q1013=
202407270050 METAR EGKK 270050Z 22003KT CAVOK 13/12 Q1013=
202407270120 METAR EGKK 270120Z 23003KT CAVOK 13/13 Q1013=
202407270150 METAR EGKK 270150Z VRB02KT CAVOK 13/12 Q1013=
202407270220 METAR EGKK 270220Z 23003KT CAVOK 13/12 Q1013=
202407270250 METAR EGKK 270250Z 22003KT CAVOK 12/12 Q1012=
202407270320 METAR EGKK 270320Z 22003KT CAVOK 12/12 Q1012=
202407270350 METAR EGKK 270350Z 22002KT CAVOK 12/12 Q1013=
202407270420 METAR EGKK 270420Z 23003KT CAVOK 12/11 Q1013=
202407270450 METAR EGKK 270450Z 22002KT 9999 FEW038 12/12 Q1013=
202407270520 METAR EGKK 270520Z 23003KT 9999 FEW040 12/12 Q1013=
202407270550 METAR EGKK 270550Z 22003KT 9999 FEW040 13/12 Q1013=
202407270620 METAR EGKK 270620Z 22003KT 200V260 9999 FEW045 14/13 Q1014=
202407270650 METAR EGKK 270650Z 26003KT 210V310 CAVOK 14/13 Q1014=
202407270720 METAR EGKK 270720Z 30005KT 280V340 9999 FEW041 15/12 Q1014=
202407270750 METAR EGKK 270750Z 30006KT 270V330 9999 FEW042 17/13 Q1014=
202407270820 METAR EGKK 270820Z 32004KT 280V360 9999 FEW042 18/13 Q1014=
202407270850 METAR EGKK 270850Z 30005KT 9999 FEW048 18/12 Q1014=
202407270920 METAR EGKK 270920Z 32003KT 240V050 9999 FEW027 19/13 Q1014=
202407270950 METAR EGKK 270950Z 28003KT 200V350 9999 FEW032 19/12 Q1014=
202407271020 METAR EGKK 271020Z 35005KT 290V030 9999 FEW032 20/11 Q1014=
202407271050 METAR EGKK 271050Z 29007KT 250V330 9999 SCT043 21/10 Q1014=
202407271120 METAR EGKK 271120Z 27007KT 240V310 9999 SCT045 20/10 Q1014=
202407271150 METAR EGKK 271150Z 32008KT 9999 SCT049 21/09 Q1014=
202407271220 METAR EGKK 271220Z VRB05KT 9999 SCT049 22/09 Q1015=
202407271250 METAR EGKK 271250Z 29008KT 240V320 9999 FEW048 23/09 Q1015=
202407271320 METAR EGKK 271320Z 31007KT 280V350 CAVOK 22/09 Q1015=
202407271350 METAR EGKK 271350Z 29008KT 240V330 CAVOK 22/09 Q1015=
202407271420 METAR EGKK 271420Z 27008KT CAVOK 22/10 Q1015=
202407271450 METAR EGKK 271450Z 29008KT 250V320 CAVOK 23/09 Q1015=
202407271520 METAR EGKK 271520Z 26006G17KT 180V330 CAVOK 23/10 Q1015=
202407271550 METAR EGKK 271550Z 27008KT 220V300 CAVOK 23/10 Q1015=
202407271620 METAR EGKK 271620Z 31010KT CAVOK 22/10 Q1016=
202407271650 METAR EGKK 271650Z 30009KT 260V330 CAVOK 22/09 Q1016=
202407271720 METAR EGKK 271720Z 26007KT 230V300 CAVOK 22/10 Q1016=
202407271750 METAR EGKK 271750Z 24006KT CAVOK 21/12 Q1016=
202407271820 METAR EGKK 271820Z 24008KT CAVOK 20/12 Q1017=
202407271850 METAR EGKK 271850Z 25007KT CAVOK 20/13 Q1017=
202407271920 METAR EGKK 271920Z 26003KT CAVOK 20/13 Q1018=
202407271950 METAR EGKK 271950Z 24005KT CAVOK 19/13 Q1018=
202407272020 METAR EGKK 272020Z 23004KT 140V250 CAVOK 18/13 Q1019=
202407272050 METAR EGKK 272050Z 23004KT CAVOK 18/13 Q1019=
202407272120 METAR EGKK 272120Z 27005KT 240V310 CAVOK 17/13 Q1020=
202407272150 METAR EGKK 272150Z 20002KT CAVOK 16/13 Q1020=
202407272220 METAR EGKK 272220Z 22002KT CAVOK 16/13 Q1020=
202407272250 METAR EGKK 272250Z VRB01KT CAVOK 16/13 Q1021=
202407272320 METAR EGKK 272320Z VRB02KT CAVOK 15/12 Q1021=
202407272350 METAR EGKK 272350Z 25003KT 200V300 CAVOK 15/12 Q1022=
202407280020 METAR EGKK 280020Z VRB02KT CAVOK 14/12 Q1022=
202407280050 METAR EGKK 280050Z 17001KT CAVOK 13/12 Q1022=
202407280120 METAR EGKK 280120Z 17002KT CAVOK 13/11 Q1022=
202407280150 METAR EGKK 280150Z VRB01KT CAVOK 13/11 Q1022=
202407280220 METAR EGKK 280220Z VRB01KT CAVOK 12/11 Q1023=
202407280250 METAR EGKK 280250Z VRB01KT CAVOK 12/11 Q1023=
202407280320 METAR EGKK 280320Z 24001KT CAVOK 12/11 Q1023=
202407280350 METAR EGKK 280350Z 21001KT CAVOK 11/10 Q1024=
202407280420 METAR EGKK 280420Z 26001KT CAVOK 11/11 Q1024=
202407280450 METAR EGKK 280450Z VRB02KT 9999 VCFG NSC 11/11 Q1024=
202407280520 METAR EGKK 280520Z 19002KT CAVOK 12/11 Q1024=
202407280550 METAR EGKK 280550Z VRB01KT 9999 VCFG NSC 14/12 Q1025=
202407280620 METAR EGKK 280620Z VRB01KT CAVOK 16/12 Q1025=
202407280650 METAR EGKK 280650Z VRB01KT CAVOK 18/12 Q1025=
202407280720 METAR EGKK 280720Z VRB02KT CAVOK 19/12 Q1026=
202407280750 METAR EGKK 280750Z VRB02KT CAVOK 19/13 Q1026=
202407280820 METAR EGKK 280820Z 11003KT 070V170 CAVOK 20/13 Q1026=
202407280850 METAR EGKK 280850Z 10003KT 030V160 CAVOK 21/12 Q1026=
202407280920 METAR EGKK 280920Z 14003KT 030V200 CAVOK 21/12 Q1026=
202407280950 METAR EGKK 280950Z 10004KT 050V140 CAVOK 22/11 Q1026=
202407281020 METAR EGKK 281020Z 05004KT 330V120 9999 FEW046 22/12 Q1026=
202407281050 METAR EGKK 281050Z VRB04KT 9999 FEW046 22/12 Q1026=
202407281120 METAR EGKK 281120Z 28004KT 210V010 9999 FEW046 23/12 Q1026=
202407281150 METAR EGKK 281150Z 29004KT 250V350 9999 FEW049 23/12 Q1026=
202407281220 METAR EGKK 281220Z 17003KT 100V220 9999 FEW049 23/11 Q1026=
202407281250 METAR EGKK 281250Z VRB03KT 9999 FEW049 23/11 Q1026=
202407281320 METAR EGKK 281320Z 31004KT 270V060 CAVOK 23/11 Q1025=
202407281350 METAR EGKK 281350Z 08004KT 320V130 CAVOK 23/12 Q1025=
202407281420 METAR EGKK 281420Z VRB04KT 9999 FEW049 24/12 Q1025=
202407281450 METAR EGKK 281450Z 11005KT 070V140 9999 FEW049 23/12 Q1025=
202407281520 METAR EGKK 281520Z VRB01KT 9999 FEW049 24/13 Q1025=
202407281550 METAR EGKK 281550Z 14006KT 010V190 CAVOK 24/13 Q1024=
202407281620 METAR EGKK 281620Z VRB03KT 9999 FEW048 24/14 Q1024=
202407281650 METAR EGKK 281650Z 16005KT 110V260 9999 FEW048 24/13 Q1024=
202407281720 METAR EGKK 281720Z 15005KT 100V200 9999 FEW048 24/14 Q1024=
202407281750 METAR EGKK 281750Z 17007KT CAVOK 23/13 Q1024=
202407281820 METAR EGKK 281820Z 15007KT 9999 FEW046 23/13 Q1024=
202407281850 METAR EGKK 281850Z 16005KT 130V200 9999 FEW046 22/12 Q1024=
202407281920 METAR EGKK 281920Z 15005KT CAVOK 22/12 Q1024=
202407281950 METAR EGKK 281950Z 13003KT CAVOK 21/12 Q1024=
202407282020 METAR EGKK 282020Z 09004KT CAVOK 18/12 Q1024=
202407282050 METAR EGKK 282050Z 08005KT CAVOK 16/12 Q1024=
202407282120 METAR EGKK 282120Z VRB02KT CAVOK 17/12 Q1024=
202407282150 METAR EGKK 282150Z 07004KT CAVOK 16/12 Q1024=
202407282220 METAR EGKK 282220Z 07003KT CAVOK 16/12 Q1024=
202407282250 METAR EGKK 282250Z 07002KT CAVOK 15/12 Q1024=
202407282320 METAR EGKK 282320Z 08003KT CAVOK 15/12 Q1024=
202407282350 METAR EGKK 282350Z 08003KT CAVOK 14/11 Q1024=
202407290020 METAR EGKK 290020Z 11004KT CAVOK 14/11 Q1024=
202407290050 METAR EGKK 290050Z 06003KT CAVOK 14/11 Q1024=
202407290120 METAR EGKK 290120Z 08004KT CAVOK 13/11 Q1024=
202407290150 METAR EGKK 290150Z 07003KT CAVOK 13/11 Q1024=
202407290220 METAR EGKK 290220Z 08003KT CAVOK 13/11 Q1023=
202407290250 METAR EGKK 290250Z 07003KT CAVOK 13/11 Q1023=
202407290320 METAR EGKK 290320Z 07003KT CAVOK 12/11 Q1023=
202407290350 METAR EGKK 290350Z 09003KT CAVOK 12/10 Q1023=
202407290420 METAR EGKK 290420Z 07003KT CAVOK 13/10 Q1023=
202407290450 METAR EGKK 290450Z 07003KT CAVOK 13/10 Q1023=
202407290520 METAR EGKK 290520Z 08003KT CAVOK 13/11 Q1023=
202407290550 METAR EGKK 290550Z 07003KT CAVOK 15/12 Q1023=
202407290620 METAR EGKK 290620Z 07004KT CAVOK 16/13 Q1023=
202407290650 METAR EGKK 290650Z 08005KT CAVOK 17/14 Q1023=
202407290720 METAR EGKK 290720Z 06005KT CAVOK 18/14 Q1023=
202407290750 METAR EGKK 290750Z 06004KT CAVOK 20/15 Q1023=
202407290820 METAR EGKK 290820Z 09004KT 050V130 CAVOK 22/15 Q1022=
202407290850 METAR EGKK 290850Z 11006KT 060V150 CAVOK 23/15 Q1022=
202407290920 METAR EGKK 290920Z 10007KT 060V140 CAVOK 24/14 Q1022=
202407290950 METAR EGKK 290950Z 10008KT 060V140 CAVOK 25/13 Q1022=
202407291020 METAR EGKK 291020Z 13007KT 070V170 CAVOK 25/13 Q1021=
202407291050 METAR EGKK 291050Z 13007KT 090V170 CAVOK 25/14 Q1021=
202407291120 METAR EGKK 291120Z VRB05KT CAVOK 25/14 Q1021=
202407291150 METAR EGKK 291150Z 15005KT 090V210 CAVOK 26/14 Q1020=
202407291220 METAR EGKK 291220Z 11005KT 040V150 CAVOK 26/14 Q1020=
202407291250 METAR EGKK 291250Z 08006KT 020V120 CAVOK 26/14 Q1020=
202407291320 METAR EGKK 291320Z 11008KT 070V140 CAVOK 27/14 Q1020=
202407291350 METAR EGKK 291350Z 14007KT 070V190 CAVOK 27/13 Q1020=
202407291420 METAR EGKK 291420Z 15006KT 100V240 CAVOK 27/13 Q1019=
202407291450 METAR EGKK 291450Z 16007KT 110V200 CAVOK 27/11 Q1019=
202407291520 METAR EGKK 291520Z 16007KT 110V200 CAVOK 27/12 Q1019=
202407291550 METAR EGKK 291550Z 12006KT 090V160 CAVOK 26/11 Q1018=
202407291620 METAR EGKK 291620Z 15005KT 110V180 CAVOK 27/12 Q1018=
202407291650 METAR EGKK 291650Z 16004KT 110V210 CAVOK 27/12 Q1018=
202407291720 METAR EGKK 291720Z 15004KT 110V210 CAVOK 26/12 Q1018=
202407291750 METAR EGKK 291750Z 08006KT CAVOK 26/14 Q1018=
202407291820 METAR EGKK 291820Z 11006KT CAVOK 25/13 Q1017=
202407291850 METAR EGKK 291850Z 10005KT CAVOK 25/12 Q1017=
202407291920 METAR EGKK 291920Z 08003KT CAVOK 23/13 Q1017=
202407291950 METAR EGKK 291950Z 08003KT CAVOK 23/13 Q1017=
202407292020 METAR EGKK 292020Z 08004KT CAVOK 23/14 Q1018=
202407292050 METAR EGKK 292050Z 07007KT CAVOK 21/14 Q1018=
202407292120 METAR EGKK 292120Z 08006KT CAVOK 19/14 Q1018=
202407292150 METAR EGKK 292150Z 08005KT CAVOK 18/14 Q1018=
202407292220 METAR EGKK 292220Z 07003KT CAVOK 19/14 Q1018=
202407292250 METAR EGKK 292250Z 06003KT CAVOK 19/14 Q1018=
202407292320 METAR EGKK 292320Z 06004KT CAVOK 18/14 Q1018=
202407292350 METAR EGKK 292350Z 02004KT CAVOK 18/14 Q1018=
202407300020 METAR EGKK 300020Z 02003KT CAVOK 18/14 Q1017=
202407300050 METAR EGKK 300050Z 04003KT CAVOK 17/14 Q1017=
202407300120 METAR EGKK 300120Z 04002KT CAVOK 17/14 Q1017=
202407300150 METAR EGKK 300150Z 03003KT CAVOK 16/14 Q1017=
202407300220 METAR EGKK 300220Z VRB01KT CAVOK 16/14 Q1016=
202407300250 METAR EGKK 300250Z 07003KT CAVOK 15/14 Q1016=
202407300320 METAR EGKK 300320Z 01002KT CAVOK 15/13 Q1016=
202407300350 METAR EGKK 300350Z 32003KT CAVOK 16/14 Q1016=
202407300420 METAR EGKK 300420Z 28001KT CAVOK 16/13 Q1017=
202407300450 METAR EGKK 300450Z VRB01KT CAVOK 16/14 Q1017=
202407300520 METAR EGKK 300520Z VRB01KT CAVOK 17/14 Q1016=
202407300550 METAR EGKK 300550Z VRB03KT CAVOK 18/15 Q1017=
202407300620 METAR EGKK 300620Z VRB04KT CAVOK 19/16 Q1017=
202407300650 METAR EGKK 300650Z 04004KT 360V080 CAVOK 19/16 Q1017=
202407300720 METAR EGKK 300720Z 01004KT 320V110 CAVOK 20/16 Q1017=
202407300750 METAR EGKK 300750Z 36004KT 220V030 CAVOK 21/17 Q1017=
202407300820 METAR EGKK 300820Z 01005KT 330V090 CAVOK 22/17 Q1016=
202407300850 METAR EGKK 300850Z 02004KT 290V070 CAVOK 24/17 Q1017=
202407300920 METAR EGKK 300920Z 03006KT 320V100 CAVOK 25/17 Q1017=
202407300950 METAR EGKK 300950Z 06008KT 020V140 CAVOK 26/17 Q1017=
202407301020 METAR EGKK 301020Z 05006KT 010V090 CAVOK 26/17 Q1017=
202407301050 METAR EGKK 301050Z 08007KT 050V110 CAVOK 27/17 Q1017=
202407301120 METAR EGKK 301120Z 06007KT 020V100 CAVOK 28/17 Q1017=
202407301150 METAR EGKK 301150Z 07007KT 020V120 CAVOK 28/17 Q1016=
202407301220 METAR EGKK 301220Z 06005KT 350V130 CAVOK 29/16 Q1016=
202407301250 METAR EGKK 301250Z 10004KT 030V190 CAVOK 29/17 Q1016=
202407301320 METAR EGKK 301320Z 11005KT 050V170 CAVOK 29/16 Q1016=
202407301350 METAR EGKK 301350Z 08006KT 040V150 CAVOK 30/17 Q1016=
202407301420 METAR EGKK 301420Z VRB02KT CAVOK 30/17 Q1016=
202407301450 METAR EGKK 301450Z VRB05KT CAVOK 30/17 Q1016=
202407301520 METAR EGKK 301520Z 04005KT 300V090 CAVOK 30/17 Q1016=
202407301550 METAR EGKK 301550Z 10005KT 060V150 CAVOK 30/16 Q1015=
202407301620 METAR EGKK 301620Z VRB03KT CAVOK 30/17 Q1015=
202407301650 METAR EGKK 301650Z 08008KT CAVOK 29/17 Q1015=
202407301720 METAR EGKK 301720Z 09008KT CAVOK 29/16 Q1015=
202407301750 METAR EGKK 301750Z 10008KT CAVOK 28/16 Q1015=
202407301820 METAR EGKK 301820Z 10007KT CAVOK 28/16 Q1015=
202407301850 METAR EGKK 301850Z 08007KT CAVOK 26/16 Q1015=
202407301920 METAR EGKK 301920Z 08006KT CAVOK 25/16 Q1015=
202407301950 METAR EGKK 301950Z 08005KT CAVOK 24/15 Q1015=
202407302020 METAR EGKK 302020Z 08004KT CAVOK 23/15 Q1016=
202407302050 METAR EGKK 302050Z 06008KT 020V090 CAVOK 24/15 Q1016=
202407302120 METAR EGKK 302120Z 07006KT 010V090 CAVOK 22/15 Q1016=
202407302150 METAR EGKK 302150Z 07004KT CAVOK 20/15 Q1016=
202407302220 METAR EGKK 302220Z 07006KT CAVOK 20/15 Q1016=
202407302250 METAR EGKK 302250Z 05006KT CAVOK 20/14 Q1016=
202407302320 METAR EGKK 302320Z 04005KT CAVOK 20/14 Q1016=
202407302350 METAR EGKK 302350Z 07005KT CAVOK 19/14 Q1016=
202407310020 METAR EGKK 310020Z 06006KT CAVOK 19/14 Q1016=
202407310050 METAR EGKK 310050Z 06004KT CAVOK 19/15 Q1016=
202407310120 METAR EGKK 310120Z 06004KT CAVOK 19/15 Q1016=
202407310150 METAR EGKK 310150Z 05005KT 350V090 CAVOK 19/16 Q1016=
202407310220 METAR EGKK 310220Z 03005KT CAVOK 19/15 Q1015=
202407310250 METAR EGKK 310250Z 06005KT CAVOK 19/15 Q1015=
202407310320 METAR EGKK 310320Z 03004KT CAVOK 19/16 Q1015=
202407310350 METAR EGKK 310350Z 02005KT CAVOK 19/16 Q1014=
202407310420 METAR EGKK 310420Z 03004KT 340V080 CAVOK 19/15 Q1014=
202407310450 METAR EGKK 310450Z 04006KT CAVOK 19/16 Q1014=
202407310520 METAR EGKK 310520Z 01007KT CAVOK 19/16 Q1015=
202407310550 METAR EGKK 310550Z 02005KT 350V050 CAVOK 19/16 Q1015=
202407310620 METAR EGKK 310620Z 05005KT 020V080 CAVOK 20/16 Q1015=
202407310650 METAR EGKK 310650Z 06007KT CAVOK 19/16 Q1015=
202407310720 METAR EGKK 310720Z 05006KT CAVOK 20/16 Q1015=
202407310750 METAR EGKK 310750Z 04005KT CAVOK 20/17 Q1015=
202407310820 METAR EGKK 310820Z 04007KT CAVOK 21/17 Q1015=
202407310850 METAR EGKK 310850Z 04008KT CAVOK 22/17 Q1014=
202407310920 METAR EGKK 310920Z 05010KT 020V080 CAVOK 24/18 Q1014=
202407310950 METAR EGKK 310950Z 04009KT 010V100 CAVOK 25/18 Q1014=
202407311020 METAR EGKK 311020Z 05010KT 020V090 CAVOK 25/18 Q1014=
202407311050 METAR EGKK 311050Z 07010KT 040V110 CAVOK 26/18 Q1014=
202407311120 METAR EGKK 311120Z 05010KT 020V080 CAVOK 26/17 Q1014=
202407311150 METAR EGKK 311150Z 05010KT 010V070 CAVOK 26/17 Q1014=
202407311220 METAR EGKK 311220Z 06011KT CAVOK 26/17 Q1014=
202407311250 METAR EGKK 311250Z 07011KT CAVOK 26/17 Q1014=
202407311320 METAR EGKK 311320Z 05010KT CAVOK 26/17 Q1014=
202407311350 METAR EGKK 311350Z 06010KT CAVOK 27/17 Q1014=
202407311420 METAR EGKK 311420Z 06011KT 020V090 CAVOK 27/17 Q1014=
202407311450 METAR EGKK 311450Z 06011KT 010V100 CAVOK 27/17 Q1014=
202407311520 METAR EGKK 311520Z 04011KT CAVOK 27/17 Q1013=
202407311550 METAR EGKK 311550Z 06011KT CAVOK 26/17 Q1013=
202407311620 METAR EGKK 311620Z 07010KT CAVOK 26/17 Q1013=
202407311650 METAR EGKK 311650Z 07011KT CAVOK 26/16 Q1013=
202407311720 METAR EGKK 311720Z 08011KT CAVOK 25/16 Q1013=
202407311750 METAR EGKK 311750Z 08008KT CAVOK 24/16 Q1013=
202407311820 METAR EGKK 311820Z 06010KT CAVOK 24/16 Q1013=
202407311850 METAR EGKK 311850Z 06010G20KT CAVOK 23/15 Q1013=
202407311920 METAR EGKK 311920Z 05010KT CAVOK 22/15 Q1013=
202407311950 METAR EGKK 311950Z 05007KT CAVOK 22/15 Q1013=
202407312020 METAR EGKK 312020Z 04007KT 010V080 CAVOK 21/15 Q1014=
202407312050 METAR EGKK 312050Z 04009KT 010V100 CAVOK 21/15 Q1014=
202407312120 METAR EGKK 312120Z 05008KT CAVOK 20/15 Q1014=
202407312150 METAR EGKK 312150Z 05008KT CAVOK 20/15 Q1013=
202407312220 METAR EGKK 312220Z 05006KT CAVOK 19/16 Q1013=
202407312250 METAR EGKK 312250Z 04006KT CAVOK 19/16 Q1013=
202407312320 METAR EGKK 312320Z 03006KT 9999 -RA NSC 19/17 Q1013=
202407312350 METAR EGKK 312350Z 04005KT CAVOK 19/16 Q1013=
202408010020 METAR EGKK 010020Z 07004KT CAVOK 19/16 Q1013=
202408010050 METAR EGKK 010050Z 04005KT CAVOK 19/16 Q1013=
202408010120 METAR EGKK 010120Z 04005KT CAVOK 18/16 Q1013=
202408010150 METAR EGKK 010150Z VRB02KT CAVOK 18/16 Q1013=
202408010220 METAR EGKK 010220Z 02005KT CAVOK 19/16 Q1012=
202408010250 METAR EGKK 010250Z 01005KT CAVOK 19/16 Q1012=
202408010320 METAR EGKK 010320Z 01005KT CAVOK 19/16 Q1012=
202408010350 METAR EGKK 010350Z 36005KT CAVOK 19/16 Q1012=
202408010420 METAR EGKK 010420Z 36005KT CAVOK 19/16 Q1012=
202408010450 METAR EGKK 010450Z 01005KT CAVOK 19/16 Q1012=
202408010520 METAR EGKK 010520Z 02004KT 290V050 CAVOK 18/16 Q1012=
202408010550 METAR EGKK 010550Z 01004KT 340V070 9999 FEW010 19/16 Q1012=
202408010620 METAR EGKK 010620Z 04003KT 310V080 9999 SCT010 19/16 Q1012=
202408010650 METAR EGKK 010650Z 04004KT 010V080 9999 SCT010 19/17 Q1012=
202408010720 METAR EGKK 010720Z 06003KT 360V100 9999 SCT010 19/17 Q1013=
202408010750 METAR EGKK 010750Z VRB02KT 9999 SCT010 21/18 Q1013=
202408010820 METAR EGKK 010820Z 07004KT 020V110 9999 BKN011 21/18 Q1012=
202408010850 METAR EGKK 010850Z VRB02KT 9999 BKN011 21/18 Q1012=
202408010920 METAR EGKK 010920Z 11003KT 020V170 9999 BKN012 22/19 Q1012=
202408010950 METAR EGKK 010950Z 11003KT 070V180 9999 BKN012 22/19 Q1013=
202408011020 METAR EGKK 011020Z VRB02KT 9999 BKN015 22/19 Q1013=
202408011050 METAR EGKK 011050Z 31004KT 250V030 9999 BKN014 23/20 Q1013=
202408011120 METAR EGKK 011120Z VRB03KT 9999 BKN015 25/20 Q1013=
202408011150 METAR EGKK 011150Z VRB02KT 9999 SCT018 25/20 Q1013=
202408011220 METAR EGKK 011220Z VRB02KT 9999 SCT021 26/20 Q1012=
202408011250 METAR EGKK 011250Z VRB03KT 9999 SCT020 26/19 Q1012=
202408011320 METAR EGKK 011320Z VRB03KT 9999 SCT031 26/19 Q1012=
202408011350 METAR EGKK 011350Z 28004KT 240V320 9999 SCT034 27/18 Q1012=
202408011420 METAR EGKK 011420Z 03003KT 340V080 9999 FEW034 28/18 Q1012=
202408011450 METAR EGKK 011450Z 32005KT 200V360 9999 FEW040 28/18 Q1012=
202408011520 METAR EGKK 011520Z 26005KT 240V300 9999 SCT043 28/18 Q1012=
202408011550 METAR EGKK 011550Z 09006KT 020V120 9999 SCT039 28/19 Q1011=
202408011620 METAR EGKK 011620Z 09005KT 9999 SCT041 27/19 Q1011=
202408011650 METAR EGKK 011650Z 21008KT 9999 FEW030 SCT042 25/20 Q1012=
202408011720 METAR EGKK 011720Z 22007KT 190V250 9999 VCSH BKN036 24/19 Q1012=
202408011750 METAR EGKK 011750Z 23008KT 9999 VCSH BKN033 23/19 Q1012=
202408011820 METAR EGKK 011820Z 29006KT 250V020 9999 -TSRA SCT023 BKN037CB 22/19 Q1013 RETS=
202408011850 METAR EGKK 011850Z 08008KT 9999 -TSRA FEW023 SCT031CB 19/18 Q1013 RETSRA=
202408011920 METAR EGKK 011920Z 11014KT 9999 TSRA FEW022 SCT039CB 20/18 Q1023 RETSRA=
202408011950 METAR EGKK 011950Z VRB04KT 9999 -TSRA FEW049CB 20/18 Q1012 RETSRA=
202408012020 METAR EGKK 012020Z 22004KT 170V270 9999 -TSRA FEW049CB 20/19 Q1013=
202408012050 METAR EGKK 012050Z VRB02KT 9999 VCSH NSC 19/18 Q1013 RETSRA=
202408012120 METAR EGKK 012120Z VRB02KT CAVOK 19/18 Q1013=
202408012150 METAR COR EGKK 012150Z 02004KT 350V070 9000 NSC 19/18 Q1013=
202408012220 METAR EGKK 012220Z 06003KT 360V110 9000 NSC 19/18 Q1013=
202408012250 METAR EGKK 012250Z VRB02KT 5000 2400SE VCFG SCT010 18/18 Q1013=
202408012320 METAR EGKK 012320Z 14002KT 4000 BR VCFG SCT009 18/18 Q1013=
202408012350 METAR EGKK 012350Z 15002KT 4000 BR VCFG BKN005 18/18 Q1013=
202408020020 METAR EGKK 020020Z 15003KT 120V200 4000 BR VCFG BKN007 18/18 Q1013=
202408020050 METAR EGKK 020050Z VRB02KT 3500 BR VCFG BKN006 19/18 Q1013=
202408020120 METAR EGKK 020120Z VRB02KT 3500 BR BKN005 19/18 Q1013=
202408020150 METAR EGKK 020150Z 18002KT 2500 BR BKN004 19/18 Q1013=
202408020220 METAR EGKK 020220Z 15001KT 3500 BR BKN004 19/18 Q1013=
202408020250 METAR EGKK 020250Z VRB01KT 4000 BR BKN003 19/18 Q1012=
202408020320 METAR EGKK 020320Z 15001KT 3500 BR BKN003 19/18 Q1012=
202408020350 METAR EGKK 020350Z 11003KT 2600 BR BKN003 18/18 Q1012=
202408020420 METAR EGKK 020420Z 08001KT 2100 BR BKN002 18/18 Q1012=
202408020450 METAR EGKK 020450Z 10002KT 1700 BR BKN002 18/18 Q1012=
202408020520 METAR EGKK 020520Z VRB02KT 1100 R26L/1400U BR BKN002 18/18 Q1012=
202408020550 METAR EGKK 020550Z VRB01KT 2000 BR BKN002 18/18 Q1012=
202408020620 METAR EGKK 020620Z VRB02KT 2500 BR BKN003 19/19 Q1012=
202408020650 METAR EGKK 020650Z VRB02KT 2500 BR OVC003 18/18 Q1012=
202408020720 METAR EGKK 020720Z 23004KT 2500 BR BKN003 19/18 Q1012=
202408020750 METAR EGKK 020750Z 29003KT 180V330 2800 BR BKN003 19/18 Q1012=
202408020820 METAR EGKK 020820Z VRB02KT 3000 BR BKN003 19/18 Q1012=
202408020850 METAR EGKK 020850Z VRB02KT 2500 BR OVC003 19/18 Q1012=
202408020920 METAR EGKK 020920Z 20004KT 120V290 2800 BR BKN003 19/19 Q1012=
202408020950 METAR EGKK 020950Z VRB02KT 3000 BR BKN004 20/19 Q1013=
202408021020 METAR EGKK 021020Z VRB02KT 6000 BKN008 20/19 Q1013=
202408021050 METAR EGKK 021050Z 24004KT 180V290 7000 BKN010 21/19 Q1013=
202408021120 METAR EGKK 021120Z 27006KT 220V300 8000 BKN011 22/19 Q1013=
202408021150 METAR EGKK 021150Z 25005KT 200V310 9999 SCT015 23/19 Q1013=
202408021220 METAR EGKK 021220Z 26004KT 200V320 9999 SCT022 24/19 Q1012=
202408021250 METAR EGKK 021250Z VRB06KT 9999 SCT027 25/19 Q1012=
202408021320 METAR EGKK 021320Z 25007KT 200V290 9999 FEW024 SCT030 26/18 Q1012=
202408021350 METAR EGKK 021350Z 24008KT 9999 SCT032 26/17 Q1012=
202408021420 METAR EGKK 021420Z 26009KT 220V290 9999 SCT040 26/16 Q1012=
202408021450 METAR EGKK 021450Z 26008KT 230V300 9999 SCT047 27/15 Q1011=
202408021520 METAR EGKK 021520Z 25009KT 200V270 CAVOK 26/14 Q1011=
202408021550 METAR EGKK 021550Z 26009KT 230V300 9999 FEW048 26/14 Q1011=
202408021620 METAR EGKK 021620Z 25008KT 9999 FEW048 26/14 Q1011=
202408021650 METAR EGKK 021650Z 24008KT 9999 FEW047 26/14 Q1011=
202408021720 METAR EGKK 021720Z 24007KT 9999 FEW046 26/15 Q1011=
202408021750 METAR EGKK 021750Z 25010KT 9999 FEW032 24/16 Q1011=
202408021820 METAR EGKK 021820Z 24009KT CAVOK 24/16 Q1011=
202408021850 METAR EGKK 021850Z 24008KT CAVOK 23/16 Q1011=
202408021920 METAR EGKK 021920Z 24009KT CAVOK 22/16 Q1011=
202408021950 METAR EGKK 021950Z 23006KT CAVOK 21/17 Q1012=
202408022020 METAR EGKK 022020Z 23005KT CAVOK 20/17 Q1012=
202408022050 METAR EGKK 022050Z 22006KT CAVOK 19/17 Q1012=
202408022120 METAR EGKK 022120Z 23007KT CAVOK 19/17 Q1012=
202408022150 METAR EGKK 022150Z 23006KT CAVOK 19/17 Q1012=
202408022220 METAR EGKK 022220Z 24006KT CAVOK 18/17 Q1012=
202408022250 METAR EGKK 022250Z 23006KT CAVOK 18/17 Q1012=
202408022320 METAR EGKK 022320Z 23006KT CAVOK 18/16 Q1012=
202408022350 METAR EGKK 022350Z 23005KT CAVOK 18/16 Q1013=
202408030020 METAR EGKK 030020Z 23006KT CAVOK 18/16 Q1012=
202408030050 METAR EGKK 030050Z 23006KT CAVOK 17/16 Q1012=
202408030120 METAR EGKK 030120Z 23008KT CAVOK 17/16 Q1012=
202408030150 METAR EGKK 030150Z 24005KT 9999 FEW013 17/16 Q1012=
202408030220 METAR EGKK 030220Z 23002KT 9999 FEW012 17/16 Q1012=
202408030250 METAR EGKK 030250Z 23001KT 9000 FEW009 SCT012 17/16 Q1012=
202408030320 METAR EGKK 030320Z 20003KT 170V230 9999 FEW010 17/16 Q1011=
202408030350 METAR EGKK 030350Z 20003KT 160V230 9999 FEW009 17/16 Q1011=
202408030420 METAR EGKK 030420Z 21004KT 9999 FEW015 BKN031 18/16 Q1011=
202408030450 METAR EGKK 030450Z 20005KT 170V230 9999 BKN012 18/16 Q1011=
202408030520 METAR EGKK 030520Z 22006KT 9999 VCSH FEW008 BKN010 18/17 Q1011=
202408030550 METAR EGKK 030550Z 22006KT 180V240 9999 -RA FEW009 SCT022 BKN038 18/17 Q1011=
202408030620 METAR EGKK 030620Z 20007KT 9999 FEW012 BKN014 18/17 Q1011=
202408030650 METAR EGKK 030650Z 22007KT 9999 BKN012 19/17 Q1011=
202408030720 METAR EGKK 030720Z 23008KT 9999 BKN010 19/17 Q1011=
202408030750 METAR EGKK 030750Z 24008KT 9999 VCSH BKN010 19/17 Q1011=
202408030820 METAR EGKK 030820Z 24007KT 9999 BKN010 19/17 Q1011=
202408030850 METAR EGKK 030850Z 24009KT 9999 SCT011 20/17 Q1011=
202408030920 METAR EGKK 030920Z 24013KT 9999 SCT019 22/16 Q1011=
202408030950 METAR EGKK 030950Z 24010KT 210V280 9999 SCT026 22/16 Q1011=
202408031020 METAR EGKK 031020Z 23011KT 180V250 9999 SCT028 23/16 Q1011=
202408031050 METAR EGKK 031050Z 24011KT 9999 SCT029 23/16 Q1011=
202408031120 METAR EGKK 031120Z 22010KT 170V260 9999 SCT031 23/16 Q1011=
202408031150 METAR EGKK 031150Z 21011KT 9999 SCT029 23/17 Q1011=
202408031220 METAR EGKK 031220Z 22009KT 170V260 9999 SCT025 23/17 Q1011=
202408031250 METAR EGKK 031250Z 22012KT 9999 SCT024 23/17 Q1011=
202408031320 METAR EGKK 031320Z 22012KT 180V250 9999 BKN025 22/16 Q1011=
202408031350 METAR EGKK 031350Z 22011KT 9999 SCT030 22/14 Q1012=
202408031420 METAR EGKK 031420Z 23010KT 9999 SCT035 21/13 Q1012=
202408031450 METAR EGKK 031450Z 23009KT 190V260 9999 FEW025 SCT040 21/14 Q1012=
202408031520 METAR EGKK 031520Z 22009KT 9999 SCT044 21/14 Q1012=
202408031550 METAR EGKK 031550Z 23008KT 9999 FEW048 21/15 Q1012=
202408031620 METAR EGKK 031620Z 21008KT 170V240 9999 FEW028 21/15 Q1011=
202408031650 METAR EGKK 031650Z 22008KT 190V250 9999 FEW030 21/15 Q1011=
202408031720 METAR EGKK 031720Z 22008KT 9999 SCT034 20/15 Q1011=
202408031750 METAR EGKK 031750Z 21008KT 180V250 9999 SCT033 20/15 Q1011=
202408031820 METAR EGKK 031820Z 21005KT CAVOK 20/15 Q1012=
202408031850 METAR EGKK 031850Z 22006KT 9999 FEW043 20/15 Q1012=
202408031920 METAR EGKK 031920Z 21005KT 9999 FEW047 19/15 Q1012=
202408031950 METAR EGKK 031950Z 22005KT CAVOK 18/15 Q1012=
202408032020 METAR EGKK 032020Z 22006KT CAVOK 18/15 Q1013=
202408032050 METAR EGKK 032050Z 22005KT CAVOK 17/14 Q1013=
202408032120 METAR EGKK 032120Z 24005KT CAVOK 17/12 Q1013=
202408032150 METAR EGKK 032150Z 24004KT CAVOK 16/11 Q1014=
202408032220 METAR EGKK 032220Z 24003KT CAVOK 15/11 Q1014=
202408032250 METAR EGKK 032250Z 26004KT CAVOK 14/10 Q1014=
202408032320 METAR EGKK 032320Z 26003KT 230V320 CAVOK 15/11 Q1014=
202408032350 METAR EGKK 032350Z VRB02KT CAVOK 14/11 Q1014=
202408040020 METAR EGKK 040020Z 29005KT CAVOK 15/10 Q1014=
202408040050 METAR EGKK 040050Z 29005KT CAVOK 15/10 Q1014=
202408040120 METAR EGKK 040120Z 29007KT CAVOK 14/10 Q1015=
202408040150 METAR EGKK 040150Z 30006KT CAVOK 14/10 Q1015=
202408040220 METAR EGKK 040220Z 31005KT CAVOK 14/09 Q1015=
202408040250 METAR EGKK 040250Z 31004KT CAVOK 14/09 Q1015=
202408040320 METAR EGKK 040320Z 32004KT 270V360 CAVOK 14/09 Q1015=
202408040350 METAR EGKK 040350Z 30005KT CAVOK 14/09 Q1015=
202408040420 METAR EGKK 040420Z 31003KT CAVOK 14/09 Q1015=
202408040450 METAR EGKK 040450Z 28003KT 190V330 CAVOK 13/09 Q1015=
202408040520 METAR EGKK 040520Z 27003KT 230V330 CAVOK 13/09 Q1015=
202408040550 METAR EGKK 040550Z 28004KT 220V330 CAVOK 14/09 Q1016=
202408040620 METAR EGKK 040620Z 31004KT 260V340 CAVOK 14/09 Q1016=
202408040650 METAR EGKK 040650Z 30005KT 9999 FEW045 15/09 Q1016=
202408040720 METAR EGKK 040720Z 29005KT 250V320 9999 FEW045 15/10 Q1016=
202408040750 METAR EGKK 040750Z 30004KT 250V330 CAVOK 16/10 Q1016=
202408040820 METAR EGKK 040820Z 29005KT 260V320 CAVOK 16/10 Q1016=
202408040850 METAR EGKK 040850Z 29005KT 250V350 CAVOK 17/11 Q1017=
202408040920 METAR EGKK 040920Z 29003KT 220V360 CAVOK 17/11 Q1017=
202408040950 METAR EGKK 040950Z 27004KT 200V320 CAVOK 18/10 Q1017=
202408041020 METAR EGKK 041020Z VRB03KT 9999 FEW036 18/10 Q1017=
202408041050 METAR EGKK 041050Z 24003KT 160V320 9999 FEW036 19/09 Q1016=
202408041120 METAR EGKK 041120Z 24006KT 200V290 9999 FEW035 19/08 Q1016=
202408041150 METAR EGKK 041150Z 26007KT 190V300 9999 FEW035 20/10 Q1016=
202408041220 METAR EGKK 041220Z VRB05KT 9999 FEW040 21/09 Q1016=
202408041250 METAR EGKK 041250Z 24006KT 190V290 9999 FEW042 21/11 Q1016=
202408041320 METAR EGKK 041320Z 25006KT 210V300 9999 FEW041 21/11 Q1016=
202408041350 METAR EGKK 041350Z 23009KT 180V260 9999 FEW044 22/11 Q1016=
202408041420 METAR EGKK 041420Z 25007KT 200V310 9999 FEW044 22/11 Q1016=
202408041450 METAR EGKK 041450Z 24008KT 200V260 9999 FEW044 22/11 Q1016=
202408041520 METAR EGKK 041520Z 22009KT 190V250 9999 FEW040 21/12 Q1015=
202408041550 METAR EGKK 041550Z 24009KT 190V270 9999 FEW039 21/12 Q1015=
202408041620 METAR EGKK 041620Z 23008KT 9999 FEW038 21/12 Q1015=
202408041650 METAR EGKK 041650Z 23008KT 200V260 9999 FEW036 21/13 Q1015=
202408041720 METAR EGKK 041720Z 23008KT 9999 FEW039 20/13 Q1015=
202408041750 METAR EGKK 041750Z 21008KT 9999 FEW030 20/13 Q1015=
202408041820 METAR EGKK 041820Z 22009KT 180V250 9999 FEW038 19/13 Q1015=
202408041850 METAR EGKK 041850Z 23007KT 9999 FEW038 19/12 Q1015=
202408041920 METAR EGKK 041920Z 23008KT CAVOK 18/12 Q1015=
202408041950 METAR EGKK 041950Z 23006KT CAVOK 18/12 Q1015=
202408042020 METAR EGKK 042020Z 22006KT CAVOK 17/12 Q1015=
202408042050 METAR EGKK 042050Z 21006KT CAVOK 17/12 Q1015=
202408042120 METAR EGKK 042120Z 21005KT CAVOK 16/13 Q1015=
202408042150 METAR EGKK 042150Z 21006KT CAVOK 16/13 Q1015=
202408042220 METAR EGKK 042220Z 22004KT CAVOK 15/13 Q1015=
202408042250 METAR EGKK 042250Z 23004KT CAVOK 15/13 Q1015=
202408042320 METAR EGKK 042320Z 26003KT CAVOK 14/12 Q1015=
202408042350 METAR EGKK 042350Z 20003KT CAVOK 14/13 Q1015=
202408050020 METAR EGKK 050020Z VRB02KT CAVOK 14/13 Q1015=
202408050050 METAR EGKK 050050Z 19003KT CAVOK 14/13 Q1015=
202408050120 METAR EGKK 050120Z 22003KT CAVOK 14/13 Q1015=
202408050150 METAR EGKK 050150Z 20003KT 9999 SCT011 14/13 Q1014=
202408050220 METAR EGKK 050220Z VRB01KT 9999 FEW012 14/13 Q1014=
202408050250 METAR EGKK 050250Z 24002KT 9999 FEW011 13/12 Q1014=
202408050320 METAR EGKK 050320Z 21002KT 9999 FEW012 13/13 Q1014=
202408050350 METAR EGKK 050350Z 21003KT 160V230 CAVOK 14/13 Q1014=
202408050420 METAR EGKK 050420Z 20003KT CAVOK 14/13 Q1014=
202408050450 METAR EGKK 050450Z VRB02KT CAVOK 14/13 Q1014=
202408050520 METAR EGKK 050520Z VRB02KT 9999 FEW022 14/14 Q1014=
202408050550 METAR EGKK 050550Z 20003KT 160V230 9999 FEW018 15/14 Q1014=
202408050620 METAR EGKK 050620Z 20003KT 160V240 9999 BKN017 16/14 Q1014=
202408050650 METAR EGKK 050650Z 21005KT 9999 BKN018 17/14 Q1014=
202408050720 METAR EGKK 050720Z 22006KT 9999 BKN016 17/15 Q1014=
202408050750 METAR EGKK 050750Z 21007KT 160V240 9999 FEW014 BKN018 18/15 Q1014=
202408050820 METAR EGKK 050820Z 21006KT 180V250 9999 BKN013 18/15 Q1014=
202408050850 METAR EGKK 050850Z 21007KT 180V240 9999 BKN013 18/15 Q1014=
202408050920 METAR EGKK 050920Z 21007KT 170V240 9999 BKN013 19/16 Q1014=
202408050950 METAR EGKK 050950Z 19007KT 9999 BKN015 19/16 Q1014=
202408051020 METAR EGKK 051020Z 20007KT 9999 BKN014 19/16 Q1014=
202408051050 METAR EGKK 051050Z 22007KT 190V250 9999 SCT018 20/16 Q1014=
202408051120 METAR EGKK 051120Z 21009KT 9999 FEW019 BKN033 21/16 Q1013=
202408051150 METAR EGKK 051150Z 18008KT 140V220 9999 FEW019 BKN033 22/16 Q1013=
202408051220 METAR EGKK 051220Z 23008KT 200V260 9999 FEW023 23/16 Q1013=
202408051250 METAR EGKK 051250Z 20009KT 150V250 9999 FEW025 23/16 Q1013=
202408051320 METAR EGKK 051320Z 23010KT 160V260 9999 FEW028 23/16 Q1013=
202408051350 METAR EGKK 051350Z 21010KT 160V240 9999 FEW028 24/16 Q1013=
202408051420 METAR EGKK 051420Z 21010KT 170V240 9999 FEW028 24/16 Q1012=
202408051450 METAR EGKK 051450Z 21009KT 170V250 CAVOK 24/16 Q1012=
202408051520 METAR EGKK 051520Z 21008KT 160V250 CAVOK 24/15 Q1012=
202408051550 METAR EGKK 051550Z 23009KT CAVOK 24/15 Q1012=
202408051620 METAR EGKK 051620Z 21008KT 170V240 CAVOK 24/15 Q1012=
202408051650 METAR EGKK 051650Z 20008KT 160V240 CAVOK 23/16 Q1011=
202408051720 METAR EGKK 051720Z 20007KT 160V240 CAVOK 23/16 Q1011=
202408051750 METAR EGKK 051750Z 21008KT 180V240 CAVOK 22/15 Q1011=
202408051820 METAR EGKK 051820Z 21007KT CAVOK 22/15 Q1012=
202408051850 METAR EGKK 051850Z 21005KT 170V240 CAVOK 21/15 Q1012=
202408051920 METAR EGKK 051920Z 21007KT CAVOK 20/15 Q1012=
202408051950 METAR EGKK 051950Z 20005KT CAVOK 20/15 Q1012=
202408052020 METAR EGKK 052020Z 20005KT CAVOK 19/15 Q1012=
202408052050 METAR EGKK 052050Z 18005KT CAVOK 19/15 Q1012=
202408052120 METAR EGKK 052120Z 18005KT CAVOK 18/15 Q1012=
202408052150 METAR EGKK 052150Z 19005KT CAVOK 17/15 Q1012=
202408052220 METAR EGKK 052220Z 18005KT CAVOK 17/15 Q1011=
202408052250 METAR EGKK 052250Z 18004KT 130V210 CAVOK 18/16 Q1011=
202408052320 METAR EGKK 052320Z 17003KT 140V230 9999 FEW041 18/16 Q1011=
202408052350 METAR EGKK 052350Z 18003KT 150V210 9999 FEW045 18/16 Q1011=
202408060020 METAR EGKK 060020Z 19002KT 9999 SCT040 18/16 Q1011=
202408060050 METAR EGKK 060050Z 17003KT 130V200 9999 FEW030 SCT048 18/16 Q1011=
202408060120 METAR EGKK 060120Z 18004KT 9999 FEW031 BKN047 18/16 Q1011=
202408060150 METAR EGKK 060150Z 18005KT 150V210 9999 FEW031 BKN046 17/16 Q1011=
202408060220 METAR EGKK 060220Z 17005KT 9999 SCT046 17/16 Q1010=
202408060250 METAR EGKK 060250Z 17004KT 140V210 9999 FEW028 17/15 Q1010=
202408060320 METAR EGKK 060320Z 17004KT 140V210 9999 FEW026 17/15 Q1010=
202408060350 METAR EGKK 060350Z 16004KT 9999 FEW027 17/15 Q1010=
202408060420 METAR EGKK 060420Z 16005KT 9999 FEW028 17/15 Q1010=
202408060450 METAR EGKK 060450Z 16005KT 9999 FEW026 17/15 Q1009=
202408060520 METAR EGKK 060520Z 16004KT 130V200 CAVOK 17/15 Q1009=
202408060550 METAR EGKK 060550Z 16005KT CAVOK 17/15 Q1009=
202408060620 METAR EGKK 060620Z 17005KT 140V210 CAVOK 18/16 Q1009=
202408060650 METAR EGKK 060650Z 17004KT 140V210 CAVOK 19/16 Q1009=
202408060720 METAR EGKK 060720Z 21007KT 160V240 9999 FEW019 SCT042 20/17 Q1009=
202408060750 METAR EGKK 060750Z 20006KT 160V240 9999 FEW015 SCT034 21/17 Q1009=
202408060820 METAR EGKK 060820Z 21007KT 170V240 9999 FEW016 BKN025 21/17 Q1009=
202408060850 METAR EGKK 060850Z 20009KT 160V230 9999 BKN018 22/17 Q1009=
202408060920 METAR EGKK 060920Z 20009KT 9999 BKN014 20/17 Q1010=
202408060950 METAR EGKK 060950Z 18009KT 9000 BKN008 20/18 Q1010=
202408061020 METAR EGKK 061020Z 19008KT 7000 BKN007 20/18 Q1010=
202408061050 METAR EGKK 061050Z 18007KT 150V210 2000 -DZRA BKN004 19/19 Q1009=
202408061120 METAR EGKK 061120Z 21008KT 180V250 3500 -RADZ BR BKN007 20/19 Q1009=
202408061150 METAR EGKK 061150Z 20007KT 170V230 6000 -RADZ BKN007 20/19 Q1009=
202408061220 METAR EGKK 061220Z 20007KT 160V220 3000 -DZ BKN004 20/19 Q1009=
202408061250 METAR EGKK 061250Z 21008KT 180V250 8000 -RA BKN005 20/19 Q1009=
202408061320 METAR EGKK 061320Z 20008KT 9000 4000W -RA BKN008 20/19 Q1009=
202408061350 METAR EGKK 061350Z 25009KT 9999 -RA BKN006 19/18 Q1009=
202408061420 METAR EGKK 061420Z 24009KT 9999 FEW007 BKN011 19/18 Q1009=
202408061450 METAR EGKK 061450Z 24007KT 9999 FEW012 SCT017 20/17 Q1009=
202408061520 METAR EGKK 061520Z 22007KT 190V260 9999 FEW016 SCT020 20/17 Q1009=
202408061550 METAR EGKK 061550Z 26008KT 220V280 9999 FEW021 SCT026 21/16 Q1009=
202408061620 METAR EGKK 061620Z 23008KT 9999 FEW026 SCT034 21/15 Q1009=
202408061650 METAR EGKK 061650Z 25010KT 9999 SCT036 21/16 Q1009=
202408061720 METAR EGKK 061720Z 24007KT 9999 FEW036 21/15 Q1009=
202408061750 METAR EGKK 061750Z 24008KT 9999 FEW037 20/14 Q1010=
202408061820 METAR EGKK 061820Z 24006KT 9999 FEW036 20/14 Q1010=
202408061850 METAR EGKK 061850Z 23005KT 9999 FEW048 20/15 Q1010=
202408061920 METAR EGKK 061920Z 23006KT 9999 FEW047 19/14 Q1010=
202408061950 METAR EGKK 061950Z 22005KT CAVOK 18/14 Q1010=
202408062020 METAR EGKK 062020Z 22004KT CAVOK 17/14 Q1011=
202408062050 METAR EGKK 062050Z 23006KT 9999 FEW046 17/13 Q1011=
202408062120 METAR EGKK 062120Z 23005KT CAVOK 16/13 Q1011=
202408062150 METAR EGKK 062150Z 22005KT CAVOK 16/13 Q1011=
202408062220 METAR EGKK 062220Z 21005KT CAVOK 15/13 Q1011=
202408062250 METAR EGKK 062250Z 23003KT CAVOK 16/13 Q1011=
202408062320 METAR EGKK 062320Z 23003KT CAVOK 15/13 Q1012=
202408062350 METAR EGKK 062350Z 23002KT CAVOK 15/13 Q1012=
202408070020 METAR EGKK 070020Z 19002KT CAVOK 14/13 Q1012=
202408070050 METAR EGKK 070050Z 19002KT 9999 SCT048 15/13 Q1012=
202408070120 METAR EGKK 070120Z 21001KT 9999 FEW049 14/13 Q1011=
202408070150 METAR EGKK 070150Z 21002KT 9999 FEW046 14/12 Q1011=
202408070220 METAR EGKK 070220Z 20002KT CAVOK 13/12 Q1011=
202408070250 METAR EGKK 070250Z 19001KT CAVOK 12/12 Q1011=
202408070320 METAR EGKK 070320Z VRB02KT 9999 FEW047 12/12 Q1011=
202408070350 METAR EGKK 070350Z 24002KT 9999 MIFG NSC 12/11 Q1012=
202408070420 METAR EGKK 070420Z VRB02KT 9999 MIFG NSC 11/11 Q1012=
202408070450 METAR EGKK 070450Z VRB01KT 9999 MIFG NSC 11/11 Q1012=
202408070520 METAR EGKK 070520Z 20003KT CAVOK 12/12 Q1012=
202408070550 METAR EGKK 070550Z VRB01KT 9999 FEW045 13/12 Q1012=
202408070620 METAR EGKK 070620Z 22002KT 9999 FEW015 15/13 Q1012=
202408070650 METAR EGKK 070650Z 22006KT CAVOK 16/13 Q1012=
202408070720 METAR EGKK 070720Z 23006KT 200V260 CAVOK 17/13 Q1012=
202408070750 METAR EGKK 070750Z 24007KT 9999 FEW016 17/14 Q1013=
202408070820 METAR EGKK 070820Z 24009KT 9999 FEW016 18/14 Q1013=
202408070850 METAR EGKK 070850Z 22008KT 9999 FEW022 19/12 Q1013=
202408070920 METAR EGKK 070920Z 23008KT 9999 FEW022 19/11 Q1013=
202408070950 METAR EGKK 070950Z 25009KT 9999 SCT031 19/11 Q1013=
202408071020 METAR EGKK 071020Z 26010KT 220V280 9999 FEW031 20/11 Q1013=
202408071050 METAR EGKK 071050Z 23009KT 9999 FEW037 20/12 Q1013=
202408071120 METAR EGKK 071120Z 22010KT 180V260 9999 SCT035 20/10 Q1013=
202408071150 METAR EGKK 071150Z 23012KT 9999 SCT043 20/10 Q1013=
202408071220 METAR EGKK 071220Z 25009KT 9999 FEW048 19/10 Q1013=
202408071250 METAR EGKK 071250Z 23011KT 9999 FEW048 21/11 Q1013=
202408071320 METAR EGKK 071320Z 25012KT 9999 FEW048 20/11 Q1013=
202408071350 METAR EGKK 071350Z 24011KT 9999 FEW049 21/10 Q1013=
202408071420 METAR EGKK 071420Z 24012KT 210V270 9999 FEW049 21/11 Q1013=
202408071450 METAR EGKK 071450Z 24012KT 9999 FEW049 20/11 Q1013=
202408071520 METAR EGKK 071520Z 23011KT 180V260 CAVOK 20/12 Q1013=
202408071550 METAR EGKK 071550Z 23008KT 9999 FEW035 20/12 Q1013=
202408071620 METAR EGKK 071620Z 22010KT 9999 BKN034 19/13 Q1013=
202408071650 METAR EGKK 071650Z 24010KT 9999 SCT031 19/12 Q1013=
202408071720 METAR EGKK 071720Z 23008KT 9999 SCT040 19/12 Q1013=
202408071750 METAR EGKK 071750Z 22008KT 9999 FEW041 19/13 Q1013=
202408071820 METAR EGKK 071820Z 23008KT 9999 FEW029 18/13 Q1014=
202408071850 METAR EGKK 071850Z 23008KT 9999 FEW029 18/13 Q1014=
202408071920 METAR EGKK 071920Z 23006KT 9999 FEW030 18/14 Q1014=
202408071950 METAR EGKK 071950Z 23006KT 9999 FEW024 18/14 Q1014=
202408072020 METAR EGKK 072020Z 24005KT 9999 FEW028 17/14 Q1015=
202408072050 METAR EGKK 072050Z 24004KT 9999 FEW029 17/14 Q1015=
202408072120 METAR EGKK 072120Z 25005KT CAVOK 16/14 Q1015=
202408072150 METAR EGKK 072150Z 24004KT CAVOK 16/14 Q1015=
202408072220 METAR EGKK 072220Z 25003KT CAVOK 15/14 Q1015=
202408072250 METAR EGKK 072250Z 21003KT CAVOK 15/14 Q1015=
202408072320 METAR EGKK 072320Z 22003KT CAVOK 15/13 Q1015=
202408072350 METAR EGKK 072350Z 23002KT CAVOK 14/13 Q1015=
202408080020 METAR EGKK 080020Z 25003KT CAVOK 14/13 Q1015=
202408080050 METAR EGKK 080050Z 24002KT CAVOK 13/13 Q1015=
202408080120 METAR EGKK 080120Z 22003KT CAVOK 13/13 Q1015=
202408080150 METAR EGKK 080150Z 21003KT CAVOK 13/13 Q1015=
202408080220 METAR EGKK 080220Z VRB01KT CAVOK 12/12 Q1016=
202408080250 METAR EGKK 080250Z VRB01KT CAVOK 13/13 Q1016=
202408080320 METAR EGKK 080320Z 19002KT CAVOK 13/12 Q1016=
202408080350 METAR EGKK 080350Z 24002KT CAVOK 13/12 Q1016=
202408080420 METAR EGKK 080420Z 18001KT CAVOK 13/12 Q1016=
202408080450 METAR EGKK 080450Z 19002KT CAVOK 13/12 Q1015=
202408080520 METAR EGKK 080520Z VRB01KT CAVOK 13/12 Q1016=
202408080550 METAR EGKK 080550Z 19002KT CAVOK 14/13 Q1016=
202408080620 METAR EGKK 080620Z 23003KT 200V260 CAVOK 16/14 Q1016=
202408080650 METAR EGKK 080650Z 17004KT CAVOK 17/14 Q1016=
202408080720 METAR EGKK 080720Z 21006KT 170V250 9999 FEW016 18/14 Q1016=
202408080750 METAR EGKK 080750Z 22008KT 9999 SCT015 18/14 Q1016=
202408080820 METAR EGKK 080820Z 19007KT 160V230 9999 FEW015 19/14 Q1016=
202408080850 METAR EGKK 080850Z 19010KT 150V220 9999 FEW020 SCT035 19/14 Q1016=
202408080920 METAR EGKK 080920Z 20010KT 170V230 9999 FEW022 SCT031 20/14 Q1016=
202408080950 METAR EGKK 080950Z 21010KT 9999 FEW023 SCT031 20/14 Q1016=
202408081020 METAR EGKK 081020Z 20011KT 150V230 9999 BKN022 20/14 Q1016=
202408081050 METAR EGKK 081050Z 20012KT 9999 BKN022 20/13 Q1015=
202408081120 METAR EGKK 081120Z 21010KT 170V240 9999 BKN025 20/14 Q1015=
202408081150 METAR EGKK 081150Z 21012KT 170V230 9999 SCT023 BKN030 20/14 Q1015=
202408081220 METAR EGKK 081220Z 21012KT 9999 BKN022 20/14 Q1015=
202408081250 METAR EGKK 081250Z 20012KT 160V240 9999 FEW019 BKN021 20/15 Q1015=
202408081320 METAR EGKK 081320Z 20010KT 170V240 9999 -RA BKN017 19/16 Q1014=
202408081350 METAR EGKK 081350Z 21012KT 9999 BKN014 19/15 Q1014=
202408081420 METAR EGKK 081420Z 20011KT 150V240 9999 VCSH BKN016 19/15 Q1014=
202408081450 METAR EGKK 081450Z 20010KT 4000 -RADZ BKN010 18/16 Q1014=
202408081520 METAR EGKK 081520Z 20013KT 170V230 9999 BKN009 17/16 Q1014=
202408081550 METAR EGKK 081550Z 20010KT 160V220 9999 BKN009 17/16 Q1014=
202408081620 METAR EGKK 081620Z 20010KT 150V240 4000 -RA OVC007 17/16 Q1014=
202408081650 METAR EGKK 081650Z 20010KT 170V230 5000 -RA BKN006 17/17 Q1013=
202408081720 METAR EGKK 081720Z 20010KT 6000 -RADZ BKN006 18/17 Q1013=
202408081750 METAR EGKK 081750Z 20010KT 4900 -RADZ BKN006 18/17 Q1012=
202408081820 METAR EGKK 081820Z 21011KT 8000 BKN004 18/18 Q1012=
202408081850 METAR EGKK 081850Z 22010KT 6000 BKN003 18/18 Q1012=
202408081920 METAR EGKK 081920Z 21011KT 5000 -DZ BKN004 18/18 Q1012=
202408081950 METAR EGKK 081950Z 21010KT 3000 -RADZ BKN004 18/18 Q1012=
202408082020 METAR EGKK 082020Z 21010KT 8000 -DZ BKN006 18/18 Q1012=
202408082050 METAR EGKK 082050Z 22011KT 5000 -DZ BKN005 18/18 Q1012=
202408082120 METAR EGKK 082120Z 22010KT 4000 -RADZ BR BKN006 18/18 Q1012=
202408082150 METAR EGKK 082150Z 21009KT 9999 BKN007 19/18 Q1012=
202408082220 METAR EGKK 082220Z 22010KT 9999 BKN006 19/18 Q1012=
202408082250 METAR EGKK 082250Z 23011KT 8000 BKN006 19/18 Q1012=
202408082320 METAR EGKK 082320Z 23011KT 190V260 9999 BKN006 19/18 Q1012=
202408082350 METAR EGKK 082350Z 23011KT 200V260 9999 BKN007 19/18 Q1012=
202408090020 METAR EGKK 090020Z 23013KT 9999 BKN009 19/18 Q1012=
202408090050 METAR EGKK 090050Z 23013KT 9999 BKN007 19/18 Q1011=
202408090120 METAR EGKK 090120Z 23012KT 9999 BKN008 19/18 Q1011=
202408090150 METAR EGKK 090150Z 23012KT 9999 BKN007 19/18 Q1011=
202408090220 METAR EGKK 090220Z 22014KT 9999 BKN007 18/18 Q1011=
202408090250 METAR EGKK 090250Z 23012KT 7000 -DZ BKN007 18/17 Q1011=
202408090320 METAR EGKK 090320Z 22010KT 9999 BKN007 18/17 Q1011=
202408090350 METAR EGKK 090350Z 23010KT 9999 BKN007 18/17 Q1011=
202408090420 METAR EGKK 090420Z 23010KT 9999 BKN008 18/17 Q1011=
202408090450 METAR EGKK 090450Z 24009KT 9000 BKN010 18/18 Q1011=
202408090520 METAR EGKK 090520Z 22009KT 9000 BKN010 18/18 Q1012=
202408090550 METAR EGKK 090550Z 23008KT 9999 SCT009 BKN011 19/18 Q1012=
202408090620 METAR EGKK 090620Z 23009KT 8000 -RA SCT007 BKN015 19/18 Q1012=
202408090650 METAR EGKK 090650Z 24008KT 9999 FEW009 SCT013 19/18 Q1012=
202408090720 METAR EGKK 090720Z 24010KT 9999 FEW013 SCT017 20/17 Q1013=
202408090750 METAR EGKK 090750Z 26012KT 9999 SCT017 20/17 Q1013=
202408090820 METAR EGKK 090820Z 25010KT 9999 FEW021 SCT029 21/16 Q1013=
202408090850 METAR EGKK 090850Z 27014KT 9999 FEW023 SCT031 20/15 Q1014=
202408090920 METAR EGKK 090920Z 27016KT 9999 FEW022 21/14 Q1014=
202408090950 METAR EGKK 090950Z 27014KT 240V300 9999 SCT029 21/14 Q1015=
202408091020 METAR EGKK 091020Z 28014KT 9999 SCT029 20/13 Q1015=
202408091050 METAR EGKK 091050Z 26012KT 230V300 9999 SCT029 21/13 Q1015=
202408091120 METAR EGKK 091120Z 27012KT 230V320 9999 FEW031 21/13 Q1015=
202408091150 METAR EGKK 091150Z 27011KT 210V310 9999 FEW033 22/14 Q1015=
202408091220 METAR EGKK 091220Z 28011KT 240V310 9999 FEW035 23/13 Q1015=
202408091250 METAR EGKK 091250Z 25011KT 230V290 9999 FEW039 23/13 Q1016=
202408091320 METAR EGKK 091320Z 28012KT 240V310 9999 FEW040 23/13 Q1016=
202408091350 METAR EGKK 091350Z 27014KT 9999 FEW041 23/13 Q1016=
202408091420 METAR EGKK 091420Z 25012KT 9999 FEW042 24/13 Q1016=
202408091450 METAR EGKK 091450Z 27013KT 9999 FEW043 24/13 Q1016=
202408091520 METAR EGKK 091520Z 26012KT 220V300 9999 FEW045 24/12 Q1016=
202408091550 METAR EGKK 091550Z 25010KT 9999 FEW046 24/12 Q1016=
202408091620 METAR EGKK 091620Z 26011KT 210V290 9999 FEW049 24/12 Q1016=
202408091650 METAR EGKK 091650Z 27012KT 9999 FEW049 24/11 Q1016=
202408091720 METAR EGKK 091720Z 25011KT 9999 FEW048 23/11 Q1017=
202408091750 METAR EGKK 091750Z 28010KT 9999 FEW048 23/11 Q1017=
202408091820 METAR EGKK 091820Z 28011KT 9999 FEW048 22/11 Q1017=
202408091850 METAR EGKK 091850Z 26007KT CAVOK 21/12 Q1017=
202408091920 METAR EGKK 091920Z 23006KT CAVOK 21/12 Q1017=
202408091950 METAR EGKK 091950Z 23006KT CAVOK 20/15 Q1018=
202408092020 METAR EGKK 092020Z 23005KT CAVOK 19/15 Q1018=
202408092050 METAR EGKK 092050Z 24006KT CAVOK 18/15 Q1018=
202408092120 METAR EGKK 092120Z 24006KT CAVOK 18/15 Q1019=
202408092150 METAR EGKK 092150Z 24004KT CAVOK 17/15 Q1019=
202408092220 METAR EGKK 092220Z 21004KT CAVOK 17/15 Q1019=
202408092250 METAR EGKK 092250Z 24005KT CAVOK 16/14 Q1018=
202408092320 METAR EGKK 092320Z 23005KT CAVOK 16/13 Q1019=
202408092350 METAR EGKK 092350Z 24003KT 210V270 CAVOK 16/12 Q1019=
202408100020 METAR EGKK 100020Z 24004KT CAVOK 15/12 Q1019=
202408100050 METAR EGKK 100050Z 21002KT CAVOK 15/12 Q1019=
202408100120 METAR EGKK 100120Z 21003KT CAVOK 14/12 Q1019=
202408100150 METAR EGKK 100150Z 26002KT CAVOK 14/12 Q1019=
202408100220 METAR EGKK 100220Z 20003KT CAVOK 14/12 Q1019=
202408100250 METAR EGKK 100250Z 21002KT CAVOK 14/12 Q1019=
202408100320 METAR EGKK 100320Z VRB02KT CAVOK 13/12 Q1019=
202408100350 METAR EGKK 100350Z VRB01KT CAVOK 13/12 Q1019=
202408100420 METAR EGKK 100420Z VRB02KT CAVOK 13/12 Q1019=
202408100450 METAR EGKK 100450Z VRB02KT CAVOK 13/12 Q1019=
202408100520 METAR EGKK 100520Z VRB02KT CAVOK 14/12 Q1019=
202408100550 METAR EGKK 100550Z 21002KT CAVOK 15/13 Q1020=
202408100620 METAR EGKK 100620Z 23003KT 9999 FEW047 15/13 Q1020=
202408100650 METAR EGKK 100650Z 22006KT 9999 FEW043 17/14 Q1020=
202408100720 METAR EGKK 100720Z 24007KT 210V280 9999 SCT042 17/14 Q1020=
202408100750 METAR EGKK 100750Z 24008KT 9999 FEW015 18/14 Q1021=
202408100820 METAR EGKK 100820Z 22008KT 9999 FEW018 SCT039 18/14 Q1020=
202408100850 METAR EGKK 100850Z 20008KT 9999 FEW020 20/15 Q1020=
202408100920 METAR EGKK 100920Z 21008KT 170V240 9999 FEW022 20/15 Q1020=
202408100950 METAR EGKK 100950Z 22011KT 180V260 9999 FEW024 21/14 Q1020=
202408101020 METAR EGKK 101020Z 22011KT 9999 BKN025 21/15 Q1020=
202408101050 METAR EGKK 101050Z 23011KT 190V250 9999 BKN022 20/15 Q1020=
202408101120 METAR EGKK 101120Z 24009KT 9999 BKN021 20/15 Q1020=
202408101150 METAR EGKK 101150Z 23012KT 9999 BKN021 20/15 Q1020=
202408101220 METAR EGKK 101220Z 22011KT 190V250 9999 BKN022 21/16 Q1020=
202408101250 METAR EGKK 101250Z 23011KT 200V260 9999 SCT025 22/15 Q1020=
202408101320 METAR EGKK 101320Z 22010KT 190V260 9999 FEW030 23/15 Q1020=
202408101350 METAR EGKK 101350Z 22009KT 180V250 9999 FEW031 23/16 Q1020=
202408101420 METAR EGKK 101420Z 22010KT 170V250 9999 FEW031 24/15 Q1020=
202408101450 METAR EGKK 101450Z 23012KT 190V260 9999 FEW029 24/16 Q1020=
202408101520 METAR EGKK 101520Z 22011KT 190V260 9999 FEW032 24/16 Q1020=
202408101550 METAR EGKK 101550Z 24011KT 200V280 9999 FEW027 24/17 Q1020=
202408101620 METAR EGKK 101620Z 24009KT 210V290 9999 SCT026 24/17 Q1020=
202408101650 METAR EGKK 101650Z 23008KT 9999 SCT026 24/17 Q1020=
202408101720 METAR EGKK 101720Z 24008KT 9999 FEW027 23/17 Q1020=
202408101750 METAR EGKK 101750Z 23007KT 9999 FEW027 23/17 Q1020=
202408101820 METAR EGKK 101820Z 24006KT 9999 FEW024 23/17 Q1020=
202408101850 METAR EGKK 101850Z 24005KT 9999 FEW024 22/17 Q1020=
202408101920 METAR EGKK 101920Z 23005KT CAVOK 22/17 Q1020=
202408101950 METAR EGKK 101950Z 18005KT CAVOK 21/18 Q1021=
202408102020 METAR EGKK 102020Z 20004KT CAVOK 20/18 Q1021=
202408102050 METAR EGKK 102050Z 19004KT CAVOK 19/18 Q1021=
202408102120 METAR EGKK 102120Z 20003KT CAVOK 19/18 Q1021=
202408102150 METAR EGKK 102150Z 19003KT CAVOK 18/17 Q1021=
202408102220 METAR EGKK 102220Z VRB02KT 9999 SCT004 18/17 Q1021=
202408102250 METAR EGKK 102250Z 18003KT 150V230 9999 VCFG BKN004 18/17 Q1021=
202408102320 METAR EGKK 102320Z 22002KT 6000 VCFG BKN002 18/17 Q1021=
202408102350 METAR EGKK 102350Z 21003KT 4500 BR BKN002 18/17 Q1021=
202408110020 METAR EGKK 110020Z 22002KT 0600 R26L/P1500N FG OVC002 17/17 Q1022=
202408110050 METAR EGKK 110050Z VRB02KT 0400 R26L/0900N FG VV/// 17/17 Q1022=
202408110120 METAR EGKK 110120Z VRB01KT 0400 R26L/1200D FG BKN001 17/17 Q1022=
202408110150 METAR EGKK 110150Z 30001KT 0400 R26L/1200U FG BKN001 17/17 Q1022=
202408110220 METAR EGKK 110220Z 03001KT 0350 R26L/P1500U FG OVC001 17/17 Q1021=
202408110250 METAR EGKK 110250Z VRB01KT 0400 R26L/1000N FG VV/// 17/17 Q1021=
202408110320 METAR EGKK 110320Z VRB01KT 0250 R26L/P1500N FG VV/// 17/17 Q1021=
202408110350 METAR EGKK 110350Z 03003KT 0400 R26L/1000U FG VV/// 17/17 Q1021=
202408110420 METAR EGKK 110420Z 02003KT 340V060 0250 R08R/0500N FG VV/// 17/17 Q1021=
202408110450 METAR EGKK 110450Z 01003KT 340V060 0550 R08R/0400N FG OVC002 17/17 Q1021=
202408110520 METAR EGKK 110520Z 03003KT 360V070 0800 R08R/0450N FG BKN001 17/17 Q1022=
202408110550 METAR EGKK 110550Z VRB02KT 3500 1500W R08R/1100U BR PRFG FEW001 17/17 Q1022=
202408110620 METAR EGKK 110620Z 08003KT CAVOK 17/17 Q1022=
202408110650 METAR EGKK 110650Z 07006KT 010V100 CAVOK 18/16 Q1022=
202408110720 METAR EGKK 110720Z 06006KT CAVOK 19/16 Q1022=
202408110750 METAR EGKK 110750Z 07006KT 050V110 CAVOK 20/17 Q1022=
202408110820 METAR EGKK 110820Z 06007KT CAVOK 21/17 Q1022=
202408110850 METAR EGKK 110850Z 09006KT 050V140 CAVOK 22/17 Q1021=
202408110920 METAR EGKK 110920Z 11006KT 050V150 CAVOK 23/18 Q1021=
202408110950 METAR EGKK 110950Z 11008KT 080V140 9999 FEW024 24/18 Q1021=
202408111020 METAR EGKK 111020Z 13005KT 080V190 9999 FEW025 25/18 Q1021=
202408111050 METAR EGKK 111050Z 11006KT 060V140 9999 SCT027 25/18 Q1020=
202408111120 METAR EGKK 111120Z 10006KT 050V170 9999 SCT028 26/18 Q1020=
202408111150 METAR EGKK 111150Z 10007KT 060V140 9999 SCT031 26/18 Q1020=
202408111220 METAR EGKK 111220Z 13006KT 100V170 9999 SCT032 27/18 Q1019=
202408111250 METAR EGKK 111250Z 12007KT 080V140 9999 FEW034 27/18 Q1019=
202408111320 METAR EGKK 111320Z 12006KT 070V160 9999 SCT036 28/18 Q1019=
202408111350 METAR EGKK 111350Z 10006KT 040V190 9999 FEW037 28/18 Q1019=
202408111420 METAR EGKK 111420Z 11007KT 060V170 9999 FEW039 28/18 Q1018=
202408111450 METAR EGKK 111450Z 11009KT 060V160 9999 FEW041 28/17 Q1018=
202408111520 METAR EGKK 111520Z 11009KT 080V150 9999 FEW044 28/17 Q1018=
202408111550 METAR EGKK 111550Z 12009KT 090V150 9999 FEW044 28/17 Q1018=
202408111620 METAR EGKK 111620Z 10009KT CAVOK 28/17 Q1017=
202408111650 METAR EGKK 111650Z 10009KT CAVOK 28/16 Q1017=
202408111720 METAR EGKK 111720Z 11010KT CAVOK 27/16 Q1017=
202408111750 METAR EGKK 111750Z 11009KT CAVOK 27/16 Q1016=
202408111820 METAR EGKK 111820Z 09008KT CAVOK 26/17 Q1016=
202408111850 METAR EGKK 111850Z 07011KT CAVOK 24/17 Q1016=
202408111920 METAR EGKK 111920Z 07010KT CAVOK 23/16 Q1016=
202408111950 METAR EGKK 111950Z 08009KT CAVOK 22/17 Q1016=
202408112020 METAR EGKK 112020Z 07010KT CAVOK 21/17 Q1015=
202408112050 METAR EGKK 112050Z 07008KT CAVOK 20/16 Q1015=
202408112120 METAR EGKK 112120Z 07009KT CAVOK 20/16 Q1015=
202408112150 METAR EGKK 112150Z 08007KT CAVOK 19/16 Q1015=
202408112220 METAR EGKK 112220Z 08008KT CAVOK 19/16 Q1015=
202408112250 METAR EGKK 112250Z 08006KT CAVOK 19/16 Q1014=
202408112320 METAR EGKK 112320Z 07005KT CAVOK 18/16 Q1014=
202408112350 METAR EGKK 112350Z 07005KT CAVOK 18/16 Q1014=
202408120020 METAR EGKK 120020Z 08005KT CAVOK 18/16 Q1013=
202408120050 METAR EGKK 120050Z 07004KT CAVOK 17/16 Q1013=
202408120120 METAR EGKK 120120Z 07004KT CAVOK 17/16 Q1012=
202408120150 METAR EGKK 120150Z 07004KT CAVOK 17/16 Q1012=
202408120220 METAR EGKK 120220Z 07003KT CAVOK 17/16 Q1012=
202408120250 METAR EGKK 120250Z 06004KT CAVOK 17/16 Q1011=
202408120320 METAR EGKK 120320Z 05004KT CAVOK 17/16 Q1011=
202408120350 METAR EGKK 120350Z 06006KT CAVOK 17/16 Q1011=
202408120420 METAR EGKK 120420Z 08005KT CAVOK 16/16 Q1010=
202408120450 METAR EGKK 120450Z 08004KT CAVOK 17/16 Q1010=
202408120520 METAR EGKK 120520Z 07005KT CAVOK 17/17 Q1010=
202408120550 METAR EGKK 120550Z 07006KT CAVOK 18/17 Q1009=
202408120620 METAR EGKK 120620Z 07005KT CAVOK 19/17 Q1009=
202408120650 METAR EGKK 120650Z 07005KT CAVOK 19/18 Q1009=
202408120720 METAR EGKK 120720Z 07006KT CAVOK 20/18 Q1009=
202408120750 METAR EGKK 120750Z 07006KT CAVOK 21/18 Q1008=
202408120820 METAR EGKK 120820Z 09005KT CAVOK 24/19 Q1008=
202408120850 METAR EGKK 120850Z 11005KT 070V140 CAVOK 26/19 Q1008=
202408120920 METAR EGKK 120920Z 16005KT 120V200 CAVOK 26/19 Q1008=
202408120950 METAR EGKK 120950Z 17006KT 110V220 CAVOK 27/20 Q1008=
202408121020 METAR EGKK 121020Z 17007KT 120V210 CAVOK 28/20 Q1008=
202408121050 METAR EGKK 121050Z 17006KT 120V230 CAVOK 29/20 Q1007=
202408121120 METAR EGKK 121120Z 14007KT 090V200 CAVOK 30/21 Q1007=
202408121150 METAR EGKK 121150Z 20008KT 160V230 CAVOK 30/20 Q1007=
202408121220 METAR EGKK 121220Z 18006KT 120V230 CAVOK 30/21 Q1007=
202408121250 METAR EGKK 121250Z 20009KT 150V240 CAVOK 30/21 Q1007=
202408121320 METAR EGKK 121320Z 20011KT 170V240 CAVOK 30/20 Q1007=
202408121350 METAR EGKK 121350Z 20010KT 160V240 CAVOK 29/21 Q1007=
202408121420 METAR EGKK 121420Z 21008KT 160V250 CAVOK 29/21 Q1007=
202408121450 METAR EGKK 121450Z 20007KT 150V250 CAVOK 29/20 Q1007=
202408121520 METAR EGKK 121520Z 20007KT 170V230 CAVOK 28/20 Q1007=
202408121550 METAR EGKK 121550Z 20008KT 170V230 CAVOK 27/21 Q1007=
202408121620 METAR EGKK 121620Z 20007KT 160V250 CAVOK 26/20 Q1007=
202408121650 METAR EGKK 121650Z 20008KT 170V230 CAVOK 25/20 Q1007=
202408121720 METAR EGKK 121720Z 20008KT CAVOK 25/20 Q1007=
202408121750 METAR EGKK 121750Z 20006KT CAVOK 25/20 Q1007=
202408121820 METAR EGKK 121820Z 21006KT CAVOK 25/20 Q1007=
202408121850 METAR EGKK 121850Z 20005KT CAVOK 25/20 Q1007=
202408121920 METAR EGKK 121920Z 21006KT CAVOK 25/21 Q1008=
202408121950 METAR EGKK 121950Z 22005KT 170V270 CAVOK 24/20 Q1008=
202408122020 METAR EGKK 122020Z 24005KT CAVOK 24/19 Q1008=
202408122050 METAR EGKK 122050Z 25006KT CAVOK 23/18 Q1009=
202408122120 METAR EGKK 122120Z 25005KT CAVOK 21/18 Q1009=
202408122150 METAR EGKK 122150Z 25007KT CAVOK 21/18 Q1009=
202408122220 METAR EGKK 122220Z 29005KT 260V320 CAVOK 20/17 Q1009=
202408122250 METAR EGKK 122250Z 29005KT CAVOK 20/16 Q1009=
202408122320 METAR EGKK 122320Z 29006KT CAVOK 19/15 Q1009=
202408122350 METAR EGKK 122350Z 27003KT 240V310 CAVOK 19/14 Q1009=
202408130020 METAR EGKK 130020Z 28005KT CAVOK 18/14 Q1009=
202408130050 METAR EGKK 130050Z 26005KT CAVOK 17/14 Q1009=
202408130120 METAR EGKK 130120Z 22003KT 190V260 CAVOK 17/13 Q1009=
202408130150 METAR EGKK 130150Z 23003KT CAVOK 16/14 Q1009=
202408130220 METAR EGKK 130220Z 22004KT CAVOK 16/13 Q1009=
202408130250 METAR EGKK 130250Z 26006KT CAVOK 14/12 Q1010=
202408130320 METAR EGKK 130320Z 25004KT CAVOK 15/12 Q1010=
202408130350 METAR EGKK 130350Z 18002KT CAVOK 15/12 Q1010=
202408130420 METAR EGKK 130420Z 24003KT 200V260 CAVOK 14/12 Q1010=
202408130450 METAR EGKK 130450Z 24003KT CAVOK 14/12 Q1010=
202408130520 METAR EGKK 130520Z 22001KT CAVOK 14/12 Q1010=
202408130550 METAR EGKK 130550Z 24003KT CAVOK 15/12 Q1010=
202408130620 METAR EGKK 130620Z 24005KT CAVOK 15/12 Q1010=
202408130650 METAR EGKK 130650Z 25005KT CAVOK 16/13 Q1010=
202408130720 METAR EGKK 130720Z 22004KT 180V260 CAVOK 17/13 Q1010=
202408130750 METAR EGKK 130750Z 22005KT 190V260 CAVOK 18/12 Q1010=
202408130820 METAR EGKK 130820Z 24006KT 200V280 CAVOK 19/12 Q1010=
202408130850 METAR EGKK 130850Z 24005KT 200V290 CAVOK 20/12 Q1010=
202408130920 METAR EGKK 130920Z 24006KT 180V290 CAVOK 20/13 Q1010=
202408130950 METAR EGKK 130950Z 25009KT 210V300 CAVOK 21/14 Q1010=
202408131020 METAR EGKK 131020Z 24008KT 200V280 CAVOK 21/14 Q1010=
202408131050 METAR EGKK 131050Z 24009KT 190V280 9999 FEW035 22/15 Q1010=
202408131120 METAR EGKK 131120Z 24010KT 200V270 CAVOK 22/14 Q1010=
202408131150 METAR EGKK 131150Z 24008KT 180V280 CAVOK 23/14 Q1009=
202408131220 METAR EGKK 131220Z 22008KT 170V260 CAVOK 24/14 Q1009=
202408131250 METAR EGKK 131250Z 20008KT 150V260 9999 FEW040 24/14 Q1010=
202408131320 METAR EGKK 131320Z 23008KT 200V260 CAVOK 24/13 Q1009=
202408131350 METAR EGKK 131350Z 24008KT 210V280 CAVOK 24/14 Q1009=
202408131420 METAR EGKK 131420Z 23008KT 200V260 CAVOK 24/13 Q1009=
202408131450 METAR EGKK 131450Z 22009KT CAVOK 24/14 Q1009=
202408131520 METAR EGKK 131520Z 23008KT 180V260 CAVOK 23/14 Q1009=
202408131550 METAR EGKK 131550Z 20008KT 170V240 CAVOK 23/15 Q1010=
202408131620 METAR EGKK 131620Z 21008KT 170V250 CAVOK 22/14 Q1010=
202408131650 METAR EGKK 131650Z 22008KT CAVOK 22/14 Q1009=
202408131720 METAR EGKK 131720Z 23007KT CAVOK 21/14 Q1009=
202408131750 METAR EGKK 131750Z 22008KT 190V250 CAVOK 20/14 Q1010=
202408131820 METAR EGKK 131820Z 21007KT CAVOK 20/14 Q1010=
202408131850 METAR EGKK 131850Z 22005KT CAVOK 20/14 Q1010=
202408131920 METAR EGKK 131920Z 22004KT CAVOK 19/14 Q1010=
202408131950 METAR EGKK 131950Z 20005KT CAVOK 19/14 Q1010=
202408132020 METAR EGKK 132020Z 21005KT CAVOK 18/14 Q1010=
202408132050 METAR EGKK 132050Z 22003KT CAVOK 18/14 Q1011=
202408132120 METAR EGKK 132120Z 21003KT CAVOK 18/14 Q1011=
202408132150 METAR EGKK 132150Z VRB02KT CAVOK 18/14 Q1011=
202408132220 METAR EGKK 132220Z 21003KT 170V240 CAVOK 17/14 Q1011=
202408132250 METAR EGKK 132250Z 22003KT CAVOK 17/14 Q1011=
202408132320 METAR EGKK 132320Z 23002KT CAVOK 16/14 Q1011=
202408132350 METAR EGKK 132350Z 24004KT CAVOK 16/14 Q1011=
202408140020 METAR EGKK 140020Z 24005KT CAVOK 15/14 Q1011=
202408140050 METAR EGKK 140050Z 23002KT CAVOK 15/14 Q1011=
202408140120 METAR EGKK 140120Z 24002KT 9999 FEW046 16/14 Q1011=
202408140150 METAR EGKK 140150Z VRB02KT 9999 FEW028 16/14 Q1012=
202408140220 METAR EGKK 140220Z 19002KT 9999 FEW017 SCT026 17/14 Q1012=
202408140250 METAR EGKK 140250Z 19003KT 9999 SCT016 17/14 Q1012=
202408140320 METAR EGKK 140320Z 26005KT 5000 BR BKN015 17/15 Q1012=
202408140350 METAR EGKK 140350Z 24004KT 5000 -DZ BR BKN013 16/15 Q1012=
202408140420 METAR EGKK 140420Z 24003KT 5000 -DZ FEW006 BKN015 16/15 Q1012=
202408140450 METAR EGKK 140450Z 24003KT 210V270 9000 -DZ FEW006 BKN015 16/16 Q1012=
202408140520 METAR EGKK 140520Z 22003KT 9999 FEW004 BKN011 16/16 Q1012=
202408140550 METAR EGKK 140550Z VRB02KT 9999 FEW006 SCT014 BKN019 16/16 Q1012=
202408140620 METAR EGKK 140620Z 30004KT 260V350 9999 FEW007 BKN014 17/16 Q1013=
202408140650 METAR EGKK 140650Z 31004KT 270V330 8000 -RA BKN013 17/16 Q1013=
202408140720 METAR EGKK 140720Z 30003KT 250V010 3000 -RADZ FEW005 BKN014 17/17 Q1013=
202408140750 METAR EGKK 140750Z 30004KT 270V340 3200 -RA BKN005 17/17 Q1013=
202408140820 METAR EGKK 140820Z 29004KT 260V330 3000 -RA BKN003 18/17 Q1013=
202408140850 METAR EGKK 140850Z 29005KT 270V330 3800 -RA SCT005 BKN016 18/17 Q1013=
202408140920 METAR EGKK 140920Z 29004KT 250V310 9999 -RA SCT006 BKN016 19/18 Q1013=
202408140950 METAR EGKK 140950Z 24006KT 210V280 9999 SCT006 BKN013 19/18 Q1013=
202408141020 METAR EGKK 141020Z 28006KT 230V310 9999 BKN013 19/17 Q1013=
202408141050 METAR EGKK 141050Z 28006KT 240V310 9999 BKN012 20/18 Q1014=
202408141120 METAR EGKK 141120Z 32006KT 280V360 9999 BKN013 20/17 Q1014=
202408141150 METAR EGKK 141150Z 31006KT 270V360 9999 SCT016 SCT023 21/17 Q1014=
202408141220 METAR EGKK 141220Z 28004KT 190V340 9999 FEW025 SCT042 22/18 Q1014=
202408141250 METAR EGKK 141250Z 28005KT 230V340 9999 SCT019 BKN024 22/18 Q1014=
202408141320 METAR EGKK 141320Z 31006KT 270V350 9999 FEW023 SCT032 22/17 Q1014=
202408141350 METAR EGKK 141350Z 30005KT 280V340 9999 FEW022 BKN032 22/17 Q1014=
202408141420 METAR EGKK 141420Z 27005KT 240V320 9999 FEW021 BKN043 23/17 Q1014=
202408141450 METAR EGKK 141450Z 25005KT 220V300 9999 SCT023 BKN044 23/18 Q1014=
202408141520 METAR EGKK 141520Z 24005KT 200V270 9999 FEW034 BKN042 22/17 Q1014=
202408141550 METAR EGKK 141550Z 23005KT 9999 FEW024 BKN048 22/17 Q1014=
202408141620 METAR EGKK 141620Z 24003KT 220V290 9999 FEW024 BKN049 22/17 Q1014=
202408141650 METAR EGKK 141650Z 21004KT 9999 FEW018 BKN048 22/17 Q1015=
202408141720 METAR EGKK 141720Z 23005KT 9999 FEW027 BKN049 22/17 Q1015=
202408141750 METAR EGKK 141750Z 22004KT 9999 FEW027 SCT048 22/16 Q1015=
202408141820 METAR EGKK 141820Z 22005KT 180V240 9999 FEW027 SCT046 22/17 Q1015=
202408141850 METAR EGKK 141850Z 20007KT 170V230 9999 SCT028 BKN049 21/16 Q1015=
202408141920 METAR EGKK 141920Z 21004KT 190V250 9999 FEW030 21/17 Q1015=
202408141950 METAR EGKK 141950Z 23005KT 9999 FEW049 20/17 Q1015=
202408142020 METAR EGKK 142020Z 23005KT 9999 FEW030 20/17 Q1016=
202408142050 METAR EGKK 142050Z 23005KT 9999 FEW018 SCT030 19/17 Q1016=
202408142120 METAR EGKK 142120Z 25005KT 9999 SCT015 18/17 Q1016=
202408142150 METAR EGKK 142150Z 27005KT 230V320 9999 FEW008 BKN013 19/17 Q1016=
202408142220 METAR EGKK 142220Z 30006KT 280V340 9999 FEW007 SCT009 18/17 Q1017=
202408142250 METAR EGKK 142250Z 23003KT 9999 FEW007 BKN011 18/17 Q1016=
202408142320 METAR EGKK 142320Z 24003KT 9999 FEW010 17/16 Q1016=
202408142350 METAR EGKK 142350Z 24003KT CAVOK 17/16 Q1016=
202408150020 METAR EGKK 150020Z 25003KT 9999 FEW014 16/16 Q1016=
202408150050 METAR EGKK 150050Z 22003KT 9999 FEW016 16/16 Q1016=
202408150120 METAR EGKK 150120Z 22004KT CAVOK 16/16 Q1016=
202408150150 METAR EGKK 150150Z 20004KT 9999 SCT028 16/16 Q1016=
202408150220 METAR EGKK 150220Z 22003KT 9999 SCT030 16/16 Q1016=
202408150250 METAR EGKK 150250Z 26005KT 9999 SCT043 15/15 Q1016=
202408150320 METAR EGKK 150320Z 22004KT CAVOK 15/15 Q1016=
202408150350 METAR EGKK 150350Z 23006KT 9999 SCT041 15/14 Q1016=
202408150420 METAR EGKK 150420Z 22005KT 9999 FEW039 15/14 Q1016=
202408150450 METAR EGKK 150450Z 22004KT CAVOK 14/14 Q1016=
202408150520 METAR EGKK 150520Z VRB02KT 9999 FEW020 14/13 Q1016=
202408150550 METAR EGKK 150550Z 22003KT 190V260 CAVOK 15/13 Q1016=
202408150620 METAR EGKK 150620Z 23007KT CAVOK 15/13 Q1016=
202408150650 METAR EGKK 150650Z 21007KT 170V250 CAVOK 16/13 Q1016=
202408150720 METAR EGKK 150720Z 23007KT 180V260 9999 FEW016 17/13 Q1016=
202408150750 METAR EGKK 150750Z 22008KT 180V240 9999 FEW016 18/13 Q1016=
202408150820 METAR EGKK 150820Z 21008KT 160V240 9999 FEW022 18/13 Q1016=
202408150850 METAR EGKK 150850Z 22011KT 190V250 9999 FEW025 19/13 Q1016=
202408150920 METAR EGKK 150920Z 22011KT 190V260 9999 SCT025 20/13 Q1016=
202408150950 METAR EGKK 150950Z 23013KT 9999 SCT025 20/13 Q1016=
202408151020 METAR EGKK 151020Z 22013KT 180V250 9999 SCT028 21/13 Q1016=
202408151050 METAR EGKK 151050Z 21012KT 170V250 9999 BKN025 21/14 Q1015=
202408151120 METAR EGKK 151120Z 21012KT 9999 BKN025 20/14 Q1016=
202408151150 METAR EGKK 151150Z 21010KT 9999 BKN024 21/15 Q1015=
202408151220 METAR EGKK 151220Z 21013KT 180V240 9999 BKN022 20/15 Q1015=
202408151250 METAR EGKK 151250Z 22013KT 180V250 9999 BKN019 20/15 Q1015=
202408151320 METAR EGKK 151320Z 21012KT 9999 BKN014 19/16 Q1015=
202408151350 METAR EGKK 151350Z 21010KT 170V240 9999 BKN014 19/16 Q1015=
202408151420 METAR EGKK 151420Z 20011KT 170V230 9999 BKN014 20/16 Q1015=
202408151450 METAR EGKK 151450Z 21011KT 170V240 9999 BKN013 20/17 Q1015=
202408151520 METAR EGKK 151520Z 21011G21KT 180V240 8000 -DZRA BKN012 19/17 Q1015=
202408151550 METAR EGKK 151550Z 21010KT 170V230 9999 BKN009 19/17 Q1014=
202408151620 METAR EGKK 151620Z 21011KT 7000 -DZ BKN007 19/17 Q1014=
202408151650 METAR EGKK 151650Z 21009G19KT 160V250 6000 -DZ BKN006 18/18 Q1014=
202408151720 METAR EGKK 151720Z 21013KT 6000 -DZ BKN006 18/17 Q1014=
202408151750 METAR EGKK 151750Z 22012KT 6000 BKN006 18/18 Q1014=
202408151820 METAR EGKK 151820Z 22011KT 4800 -DZ BKN005 19/18 Q1014=
202408151850 METAR EGKK 151850Z 22011KT 9000 -DZ BKN006 19/18 Q1014=
202408151920 METAR EGKK 151920Z 22011KT 6000 BKN006 19/18 Q1014=
202408151950 METAR EGKK 151950Z 22010KT 6000 BKN006 19/18 Q1014=
202408152020 METAR EGKK 152020Z 23011KT 9999 BKN005 19/18 Q1014=
202408152050 METAR EGKK 152050Z 22010KT 9999 BKN006 19/18 Q1014=
202408152120 METAR EGKK 152120Z 22011KT 8000 BKN006 19/18 Q1014=
202408152150 METAR EGKK 152150Z 22009KT 6000 -DZ BKN005 19/18 Q1014=
202408152220 METAR EGKK 152220Z 22008KT 5000 DZ BKN005 19/18 Q1014=
202408152250 METAR EGKK 152250Z 22008KT 9000 BKN005 19/18 Q1014 REDZ=
202408152320 METAR EGKK 152320Z 23009KT 5000 DZ BKN006 19/18 Q1014=
202408152350 METAR EGKK 152350Z 23006KT 200V270 4000 -RADZ BKN005 19/18 Q1014 RERA REDZ=
202408160020 METAR EGKK 160020Z 23004KT 5000 -RA BKN005 19/18 Q1014=
202408160050 METAR EGKK 160050Z 22005KT 9999 FEW005 SCT015 19/18 Q1014=
202408160120 METAR EGKK 160120Z 23006KT 9999 SCT007 SCT017 19/18 Q1014=
202408160150 METAR EGKK 160150Z 24006KT 9999 -RA SCT008 BKN012 19/18 Q1014=
202408160220 METAR EGKK 160220Z 24005KT 9999 -RA SCT011 BKN026 19/18 Q1014=
202408160250 METAR EGKK 160250Z 24004KT 9999 SCT010 BKN018 18/18 Q1014=
202408160320 METAR EGKK 160320Z 30006KT 9999 -RA FEW009 BKN014 18/18 Q1014=
202408160350 METAR EGKK 160350Z 28006KT 9999 -RA FEW008 BKN017 18/17 Q1014=
202408160420 METAR EGKK 160420Z 33010KT 7000 -RA SCT006 BKN018 17/17 Q1014=
202408160450 METAR EGKK 160450Z 32005KT 9999 FEW012 BKN031 17/16 Q1014=
202408160520 METAR EGKK 160520Z 31006KT 280V340 9999 SCT011 BKN031 17/16 Q1015=
202408160550 METAR EGKK 160550Z 30006KT 9999 FEW006 BKN011 16/16 Q1015=
202408160620 METAR EGKK 160620Z 30006KT 9999 BKN010 16/15 Q1015=
202408160650 METAR EGKK 160650Z 31007KT 9999 BKN010 16/15 Q1015=
202408160720 METAR EGKK 160720Z 34006KT 300V360 9999 BKN010 17/15 Q1016=
202408160750 METAR EGKK 160750Z 32006KT 280V360 9999 BKN009 16/15 Q1016=
202408160820 METAR EGKK 160820Z 32007KT 270V040 9999 BKN010 17/15 Q1016=
202408160850 METAR EGKK 160850Z 34006KT 310V030 9999 BKN011 17/15 Q1016=
202408160920 METAR EGKK 160920Z 33006KT 250V040 9999 SCT013 18/14 Q1016=
202408160950 METAR EGKK 160950Z VRB04KT 9999 SCT014 19/14 Q1016=
202408161020 METAR EGKK 161020Z 04003KT 360V140 9999 FEW017 SCT032 19/14 Q1016=
202408161050 METAR EGKK 161050Z VRB02KT 9999 SCT021 20/15 Q1016=
202408161120 METAR EGKK 161120Z VRB03KT 9999 SCT027 20/14 Q1016=
202408161150 METAR EGKK 161150Z VRB02KT 9999 SCT029 21/14 Q1016=
202408161220 METAR EGKK 161220Z VRB02KT 9999 FEW030 21/13 Q1015=
202408161250 METAR EGKK 161250Z 26005KT 210V360 9999 FEW033 22/14 Q1015=
202408161320 METAR EGKK 161320Z 25005KT 180V310 9999 SCT036 23/14 Q1015=
202408161350 METAR EGKK 161350Z 25004KT 190V360 9999 SCT035 23/13 Q1015=
202408161420 METAR EGKK 161420Z 25005KT 200V300 9999 FEW041 23/14 Q1015=
202408161450 METAR EGKK 161450Z 22005KT 120V290 9999 FEW042 23/13 Q1015=
202408161520 METAR EGKK 161520Z VRB02KT 9999 FEW044 24/13 Q1014=
202408161550 METAR EGKK 161550Z VRB04KT 9999 SCT043 24/13 Q1014=
202408161620 METAR EGKK 161620Z 25005KT 210V300 9999 FEW048 24/12 Q1014=
202408161650 METAR EGKK 161650Z 22008KT 180V250 9999 FEW048 23/15 Q1014=
202408161720 METAR EGKK 161720Z 21007KT 170V230 9999 SCT041 23/15 Q1013=
202408161750 METAR EGKK 161750Z 21007KT 180V250 9999 FEW034 22/14 Q1013=
202408161820 METAR EGKK 161820Z 21006KT CAVOK 21/15 Q1013=
202408161850 METAR EGKK 161850Z 21005KT CAVOK 21/16 Q1013=
202408161920 METAR EGKK 161920Z 20004KT CAVOK 20/16 Q1013=
202408161950 METAR EGKK 161950Z 20005KT CAVOK 19/16 Q1014=
202408162020 METAR EGKK 162020Z 20006KT CAVOK 19/16 Q1014=
202408162050 METAR EGKK 162050Z 21003KT CAVOK 18/15 Q1014=
202408162120 METAR EGKK 162120Z 20003KT 9999 FEW048 17/15 Q1014=
202408162150 METAR EGKK 162150Z 20003KT 9999 FEW049 17/15 Q1014=
202408162220 METAR EGKK 162220Z 23002KT CAVOK 16/15 Q1014=
202408162250 METAR EGKK 162250Z 22003KT CAVOK 16/14 Q1014=
202408162320 METAR EGKK 162320Z 22004KT CAVOK 15/14 Q1014=
202408162350 METAR EGKK 162350Z 22003KT CAVOK 15/13 Q1014=
202408170020 METAR EGKK 170020Z 22002KT CAVOK 15/13 Q1014=
202408170050 METAR EGKK 170050Z 20002KT CAVOK 14/13 Q1014=
202408170120 METAR EGKK 170120Z 21003KT CAVOK 14/13 Q1014=
202408170150 METAR EGKK 170150Z VRB02KT CAVOK 14/12 Q1014=
202408170220 METAR EGKK 170220Z 25003KT CAVOK 13/12 Q1014=
202408170250 METAR EGKK 170250Z 26003KT CAVOK 12/11 Q1014=
202408170320 METAR EGKK 170320Z 25004KT CAVOK 13/11 Q1014=
202408170350 METAR EGKK 170350Z 29004KT CAVOK 11/10 Q1014=
202408170420 METAR EGKK 170420Z 31005KT CAVOK 13/11 Q1014=
202408170450 METAR EGKK 170450Z 30004KT CAVOK 13/11 Q1014=
202408170520 METAR EGKK 170520Z 30004KT 270V340 CAVOK 13/11 Q1014=
202408170550 METAR EGKK 170550Z 31005KT 270V020 CAVOK 13/11 Q1014=
202408170620 METAR EGKK 170620Z 30005KT 260V350 CAVOK 13/11 Q1014=
202408170650 METAR EGKK 170650Z 31005KT 280V340 CAVOK 14/11 Q1014=
202408170720 METAR EGKK 170720Z 32005KT 260V360 CAVOK 15/11 Q1015=
202408170750 METAR EGKK 170750Z 34005KT 300V020 CAVOK 16/11 Q1015=
202408170820 METAR EGKK 170820Z 33005KT 280V060 CAVOK 17/11 Q1015=
202408170850 METAR EGKK 170850Z 35006KT 320V060 CAVOK 18/11 Q1015=
202408170920 METAR EGKK 170920Z 33006KT 290V040 CAVOK 19/11 Q1014=
202408170950 METAR EGKK 170950Z 02005KT 310V080 CAVOK 19/11 Q1014=
202408171020 METAR EGKK 171020Z 30007KT 260V010 9999 FEW036 20/11 Q1014=
202408171050 METAR EGKK 171050Z 31005KT 240V040 9999 FEW036 20/11 Q1014=
202408171120 METAR EGKK 171120Z 28004KT 250V030 9999 FEW033 20/11 Q1014=
202408171150 METAR EGKK 171150Z 25006KT 200V300 9999 FEW035 21/11 Q1014=
202408171220 METAR EGKK 171220Z 27006KT 200V340 9999 FEW039 21/10 Q1014=
202408171250 METAR EGKK 171250Z VRB04KT 9999 FEW036 22/10 Q1014=
202408171320 METAR EGKK 171320Z 33005KT 260V040 9999 FEW049 22/11 Q1013=
202408171350 METAR EGKK 171350Z 20004KT 140V250 9999 FEW048 23/10 Q1013=
202408171420 METAR EGKK 171420Z 25007KT 200V290 9999 FEW048 23/11 Q1013=
202408171450 METAR EGKK 171450Z 27008KT 240V310 9999 FEW049 23/10 Q1013=
202408171520 METAR EGKK 171520Z 24006KT 190V290 CAVOK 23/10 Q1012=
202408171550 METAR EGKK 171550Z 28005KT 230V330 CAVOK 23/10 Q1012=
202408171620 METAR EGKK 171620Z 28005KT 230V010 CAVOK 22/10 Q1012=
202408171650 METAR EGKK 171650Z 27007KT 240V310 CAVOK 22/10 Q1012=
202408171720 METAR EGKK 171720Z 26006KT 240V310 CAVOK 22/09 Q1012=
202408171750 METAR EGKK 171750Z 29007KT CAVOK 21/10 Q1012=
202408171820 METAR EGKK 171820Z 30007KT CAVOK 20/09 Q1012=
202408171850 METAR EGKK 171850Z 29006KT CAVOK 20/09 Q1012=
202408171920 METAR EGKK 171920Z 29006KT CAVOK 19/08 Q1012=
202408171950 METAR EGKK 171950Z 30005KT CAVOK 19/09 Q1012=
202408172020 METAR EGKK 172020Z 30005KT CAVOK 18/09 Q1012=
202408172050 METAR EGKK 172050Z 29009KT CAVOK 18/09 Q1012=
202408172120 METAR EGKK 172120Z 31008KT CAVOK 17/10 Q1012=
202408172150 METAR EGKK 172150Z 30008KT CAVOK 17/10 Q1013=
202408172220 METAR EGKK 172220Z 30006KT 270V330 CAVOK 16/11 Q1013=
202408172250 METAR EGKK 172250Z 31004KT 270V010 CAVOK 16/11 Q1013=
202408172320 METAR EGKK 172320Z 29003KT 250V360 CAVOK 15/11 Q1013=
202408172350 METAR EGKK 172350Z 26003KT CAVOK 14/11 Q1013=
202408180020 METAR EGKK 180020Z 25003KT CAVOK 14/11 Q1013=
202408180050 METAR EGKK 180050Z 28004KT 250V320 CAVOK 14/11 Q1013=
202408180120 METAR EGKK 180120Z VRB02KT CAVOK 13/11 Q1013=
202408180150 METAR EGKK 180150Z VRB01KT CAVOK 13/11 Q1013=
202408180220 METAR EGKK 180220Z VRB02KT CAVOK 13/11 Q1013=
202408180250 METAR EGKK 180250Z 20002KT CAVOK 13/11 Q1013=
202408180320 METAR EGKK 180320Z 19003KT CAVOK 12/11 Q1013=
202408180350 METAR EGKK 180350Z 19002KT CAVOK 12/11 Q1013=
202408180420 METAR EGKK 180420Z 20003KT CAVOK 12/11 Q1013=
202408180450 METAR EGKK 180450Z 20002KT CAVOK 13/12 Q1013=
202408180520 METAR EGKK 180520Z VRB01KT 9999 BKN049 13/12 Q1013=
202408180550 METAR EGKK 180550Z 19001KT CAVOK 14/12 Q1013=
202408180620 METAR EGKK 180620Z 18003KT CAVOK 14/12 Q1013=
202408180650 METAR EGKK 180650Z 22003KT CAVOK 15/13 Q1014=
202408180720 METAR EGKK 180720Z 27006KT 9999 SCT048 16/13 Q1014=
202408180750 METAR EGKK 180750Z 28006KT CAVOK 16/12 Q1014=
202408180820 METAR EGKK 180820Z 27007KT CAVOK 17/12 Q1014=
202408180850 METAR EGKK 180850Z 27011KT 230V300 9999 FEW020 18/11 Q1014=
202408180920 METAR EGKK 180920Z 26009KT 220V290 9999 FEW020 18/11 Q1015=
202408180950 METAR EGKK 180950Z 26009KT 220V320 9999 FEW031 19/11 Q1015=
202408181020 METAR EGKK 181020Z 28009KT 250V320 9999 SCT035 19/10 Q1015=
202408181050 METAR EGKK 181050Z 28008KT 240V010 9999 SCT042 20/10 Q1015=
202408181120 METAR EGKK 181120Z 27009KT 9999 SCT042 20/11 Q1015=
202408181150 METAR EGKK 181150Z 27010KT 230V310 9999 SCT043 21/10 Q1015=
202408181220 METAR EGKK 181220Z 25011KT 220V300 9999 FEW043 21/10 Q1015=
202408181250 METAR EGKK 181250Z NIL=
202408181320 METAR EGKK 181320Z 27009KT 220V320 9999 FEW045 22/11 Q1015=
202408181350 METAR EGKK 181350Z 25009KT 210V300 9999 FEW046 22/11 Q1015=
202408181420 METAR EGKK 181420Z 26011KT 9999 FEW048 23/10 Q1015=
202408181450 METAR EGKK 181450Z 27009KT 240V310 CAVOK 23/10 Q1015=
202408181520 METAR EGKK 181520Z 27008KT 240V310 CAVOK 23/10 Q1015=
202408181550 METAR EGKK 181550Z 27010KT CAVOK 23/10 Q1015=
202408181620 METAR EGKK 181620Z 27009KT 240V300 CAVOK 23/10 Q1015=
202408181650 METAR EGKK 181650Z 28009KT 260V320 CAVOK 22/10 Q1015=
202408181720 METAR EGKK 181720Z 25010KT CAVOK 22/09 Q1015=
202408181750 METAR EGKK 181750Z 26010KT CAVOK 21/09 Q1015=
202408181820 METAR EGKK 181820Z 27009KT CAVOK 21/09 Q1016=
202408181850 METAR EGKK 181850Z 25009KT CAVOK 19/09 Q1016=
202408181920 METAR EGKK 181920Z 25008KT CAVOK 18/09 Q1016=
202408181950 METAR EGKK 181950Z 25005KT CAVOK 17/09 Q1017=
202408182020 METAR EGKK 182020Z 21003KT 190V270 CAVOK 17/09 Q1017=
202408182050 METAR EGKK 182050Z 22003KT CAVOK 16/09 Q1017=
202408182120 METAR EGKK 182120Z 20003KT CAVOK 16/09 Q1018=
202408182150 METAR EGKK 182150Z 20003KT CAVOK 15/09 Q1018=
202408182220 METAR EGKK 182220Z 22003KT CAVOK 15/09 Q1018=
202408182250 METAR EGKK 182250Z 23002KT CAVOK 14/09 Q1018=
202408182320 METAR EGKK 182320Z 18002KT CAVOK 14/10 Q1018=
202408182350 METAR EGKK 182350Z VRB02KT CAVOK 13/10 Q1018=
202408190020 METAR EGKK 190020Z VRB02KT CAVOK 13/10 Q1018=
202408190050 METAR EGKK 190050Z VRB02KT CAVOK 12/10 Q1018=
202408190120 METAR EGKK 190120Z VRB02KT CAVOK 12/10 Q1018=
202408190150 METAR EGKK 190150Z 18001KT CAVOK 12/10 Q1018=
202408190220 METAR EGKK 190220Z 21001KT CAVOK 11/10 Q1018=
202408190250 METAR EGKK 190250Z VRB01KT CAVOK 11/10 Q1018=
202408190320 METAR EGKK 190320Z 23001KT CAVOK 10/10 Q1018=
202408190350 METAR EGKK 190350Z VRB01KT CAVOK 11/10 Q1018=
202408190420 METAR EGKK 190420Z VRB02KT CAVOK 10/09 Q1017=
202408190450 METAR EGKK 190450Z 00000KT CAVOK 10/09 Q1017=
202408190520 METAR EGKK 190520Z 25001KT 9000 NSC 10/10 Q1018=
202408190550 METAR EGKK 190550Z 19002KT 9000 NSC 11/10 Q1018=
202408190620 METAR EGKK 190620Z VRB01KT CAVOK 12/10 Q1018=
202408190650 METAR EGKK 190650Z 19001KT CAVOK 12/11 Q1018=
202408190720 METAR EGKK 190720Z VRB01KT CAVOK 15/12 Q1017=
202408190750 METAR EGKK 190750Z VRB03KT CAVOK 16/12 Q1017=
202408190820 METAR EGKK 190820Z 22009KT 9999 FEW012 16/13 Q1017=
202408190850 METAR EGKK 190850Z 21008KT 170V240 9999 FEW012 17/14 Q1017=
202408190920 METAR EGKK 190920Z 21008KT 9999 FEW014 18/13 Q1017=
202408190950 METAR EGKK 190950Z 23008KT 190V260 9999 FEW019 19/13 Q1017=
202408191020 METAR EGKK 191020Z 20009KT 160V230 9999 SCT025 19/12 Q1017=
202408191050 METAR EGKK 191050Z 24009KT 9999 BKN027 19/12 Q1017=
202408191120 METAR EGKK 191120Z 21010KT 170V250 9999 BKN027 19/13 Q1017=
202408191150 METAR EGKK 191150Z 23008KT 190V260 9999 BKN025 19/13 Q1017=
202408191220 METAR EGKK 191220Z 23009KT 190V270 9999 SCT034 20/13 Q1017=
202408191250 METAR EGKK 191250Z 22007KT 170V260 9999 BKN029 20/13 Q1016=
202408191320 METAR EGKK 191320Z 19009KT 150V240 9999 BKN028 21/13 Q1016=
202408191350 METAR EGKK 191350Z 20007KT 170V240 9999 BKN027 20/13 Q1015=
202408191420 METAR EGKK 191420Z 21011KT 9999 BKN029 20/13 Q1015=
202408191450 METAR EGKK 191450Z 21011KT 170V240 9999 BKN028 20/13 Q1015=
202408191520 METAR EGKK 191520Z 21010KT 170V240 9999 BKN027 19/13 Q1014=
202408191550 METAR EGKK 191550Z 20009KT 160V250 9999 BKN023 19/14 Q1014=
202408191620 METAR EGKK 191620Z 21011G21KT 170V240 9999 BKN023 19/14 Q1014=
202408191650 METAR EGKK 191650Z 21010KT 170V240 9999 BKN021 19/14 Q1014=
202408191720 METAR EGKK 191720Z 20009KT 170V230 9999 BKN020 19/14 Q1014=
202408191750 METAR EGKK 191750Z 21009KT 9999 SCT020 19/14 Q1013=
202408191820 METAR EGKK 191820Z 21011KT 9999 FEW022 18/14 Q1013=
202408191850 METAR EGKK 191850Z 20008KT 9999 FEW023 18/14 Q1013=
202408191920 METAR COR EGKK 191920Z 20008KT 9999 -RA NSC 18/14 Q1013=
202408191950 METAR EGKK 191950Z 19005KT 150V220 CAVOK 17/15 Q1013=
202408192020 METAR EGKK 192020Z 18005KT 140V210 CAVOK 17/15 Q1013=
202408192050 METAR EGKK 192050Z 19005KT CAVOK 17/15 Q1013=
202408192120 METAR EGKK 192120Z 19005KT 140V220 9999 -RA BKN049 17/15 Q1012=
202408192150 METAR EGKK 192150Z 19006KT 9999 BKN044 17/15 Q1012=
202408192220 METAR EGKK 192220Z 19006KT 9999 BKN040 17/15 Q1012=
202408192250 METAR EGKK 192250Z 18006KT 150V220 9999 BKN039 18/15 Q1012=
202408192320 METAR EGKK 192320Z 20007KT 9999 SCT039 18/15 Q1011=
202408192350 METAR EGKK 192350Z 19007KT 9999 FEW037 18/15 Q1011=
202408200020 METAR EGKK 200020Z 20007KT 9999 BKN032 18/15 Q1011=
202408200050 METAR EGKK 200050Z 20007KT 9999 FEW018 BKN025 18/15 Q1010=
202408200120 METAR EGKK 200120Z 20005KT 160V240 9999 FEW017 BKN025 18/16 Q1010=
202408200150 METAR EGKK 200150Z 21006KT 160V250 9999 BKN014 18/16 Q1010=
202408200220 METAR EGKK 200220Z 20007KT 170V230 9999 BKN010 18/16 Q1010=
202408200250 METAR EGKK 200250Z 21008KT 9000 BKN007 18/17 Q1009=
202408200320 METAR EGKK 200320Z 20007KT 4500 -DZ BKN006 17/17 Q1009=
202408200350 METAR EGKK 200350Z 21007KT 170V240 5000 -DZ BKN005 18/17 Q1009=
202408200420 METAR EGKK 200420Z 21008KT 190V270 6000 BKN005 18/17 Q1009=
202408200450 METAR EGKK 200450Z 22007KT 180V240 8000 BKN005 18/18 Q1009=
202408200520 METAR EGKK 200520Z 22006KT 9999 BKN006 18/18 Q1009=
202408200550 METAR EGKK 200550Z 22007KT 9999 BKN006 18/18 Q1009=
202408200620 METAR EGKK 200620Z 20006KT 8000 -DZ BKN008 19/18 Q1008=
202408200650 METAR EGKK 200650Z 22007KT 9999 FEW007 SCT012 18/18 Q1008=
202408200720 METAR EGKK 200720Z 24009KT 9999 FEW012 SCT017 18/16 Q1009=
202408200750 METAR EGKK 200750Z 22009KT 9999 BKN015 18/16 Q1009=
202408200820 METAR EGKK 200820Z 23008KT 180V250 9999 BKN012 18/16 Q1009=
202408200850 METAR EGKK 200850Z 22008KT 9999 SCT016 19/15 Q1009=
202408200920 METAR COR EGKK 200920Z 23009KT 9999 SCT018 20/15 Q1009=
202408200950 METAR EGKK 200950Z 24011KT 9999 SCT023 20/14 Q1009=
202408201020 METAR EGKK 201020Z 25011KT 210V270 9999 SCT024 21/14 Q1009=
202408201050 METAR EGKK 201050Z 24011KT 210V280 9999 SCT029 22/14 Q1009=
202408201120 METAR EGKK 201120Z 25010KT 9999 SCT031 22/14 Q1009=
202408201150 METAR EGKK 201150Z 24010KT 9999 SCT032 21/14 Q1009=
202408201220 METAR EGKK 201220Z 24010KT 9999 SCT033 22/14 Q1009=
202408201250 METAR EGKK 201250Z 26012KT 230V290 9999 FEW026 SCT033 21/15 Q1009=
202408201320 METAR EGKK 201320Z 26014KT 230V290 9999 FEW026 SCT033 22/13 Q1009=
202408201350 METAR EGKK 201350Z 25012KT 220V290 9999 FEW033 22/12 Q1009=
202408201420 METAR EGKK 201420Z 28015KT 9999 SCT041 22/10 Q1009=
202408201450 METAR EGKK 201450Z 27016KT 9999 SCT047 22/09 Q1010=
202408201520 METAR EGKK 201520Z 27015KT CAVOK 22/08 Q1010=
202408201550 METAR EGKK 201550Z 27015KT CAVOK 22/07 Q1010=
202408201620 METAR EGKK 201620Z 29015KT CAVOK 21/07 Q1010=
202408201650 METAR EGKK 201650Z 28016KT CAVOK 21/07 Q1010=
202408201720 METAR EGKK 201720Z 27017KT CAVOK 20/06 Q1011=
202408201750 METAR EGKK 201750Z 27016KT CAVOK 20/05 Q1011=
202408201820 METAR EGKK 201820Z 27014KT CAVOK 19/06 Q1012=
202408201850 METAR EGKK 201850Z 26014KT CAVOK 18/05 Q1012=
202408201920 METAR EGKK 201920Z 26009KT CAVOK 16/06 Q1013=
202408201950 METAR EGKK 201950Z 26009KT CAVOK 16/07 Q1013=
202408202020 METAR EGKK 202020Z 26009KT CAVOK 15/07 Q1014=
202408202050 METAR EGKK 202050Z 26009KT CAVOK 15/08 Q1014=
202408202120 METAR EGKK 202120Z 26010KT CAVOK 14/08 Q1015=
202408202150 METAR EGKK 202150Z 25008KT CAVOK 14/09 Q1015=
202408202220 METAR EGKK 202220Z 26009KT CAVOK 13/09 Q1015=
202408202250 METAR EGKK 202250Z 25008KT CAVOK 13/09 Q1015=
202408202320 METAR EGKK 202320Z 25008KT CAVOK 13/09 Q1016=
202408202350 METAR EGKK 202350Z 25007KT CAVOK 13/10 Q1016=
202408210020 METAR EGKK 210020Z 23004KT 200V270 CAVOK 13/10 Q1016=
202408210050 METAR EGKK 210050Z 24006KT CAVOK 12/10 Q1016=
202408210120 METAR EGKK 210120Z 24007KT CAVOK 13/10 Q1016=
202408210150 METAR EGKK 210150Z 23005KT CAVOK 12/10 Q1017=
202408210220 METAR EGKK 210220Z 23004KT CAVOK 12/09 Q1017=
202408210250 METAR EGKK 210250Z 00000KT CAVOK 11/09 Q1017=
202408210320 METAR EGKK 210320Z 22004KT CAVOK 11/10 Q1017=
202408210350 METAR EGKK 210350Z 22004KT CAVOK 11/10 Q1017=
202408210420 METAR EGKK 210420Z 24003KT 210V270 CAVOK 11/10 Q1017=
202408210450 METAR EGKK 210450Z 22006KT CAVOK 11/09 Q1017=
202408210520 METAR EGKK 210520Z 22005KT CAVOK 11/10 Q1018=
202408210550 METAR EGKK 210550Z 23005KT CAVOK 11/10 Q1018=
202408210620 METAR EGKK 210620Z 25006KT CAVOK 12/10 Q1018=
202408210650 METAR EGKK 210650Z 26007KT CAVOK 13/11 Q1018=
202408210720 METAR EGKK 210720Z 24008KT CAVOK 14/10 Q1019=
202408210750 METAR EGKK 210750Z 25009KT CAVOK 15/10 Q1019=
202408210820 METAR EGKK 210820Z 25009KT CAVOK 16/10 Q1019=
202408210850 METAR EGKK 210850Z 24009KT 210V280 9999 FEW022 16/10 Q1019=
202408210920 METAR EGKK 210920Z 25011KT 9999 FEW032 18/08 Q1019=
202408210950 METAR EGKK 210950Z 26012KT 230V300 9999 FEW036 18/09 Q1019=
202408211020 METAR EGKK 211020Z 23009KT 200V280 9999 SCT038 18/09 Q1019=
202408211050 METAR EGKK 211050Z 25010KT 220V280 9999 SCT038 19/09 Q1019=
202408211120 METAR EGKK 211120Z 27012KT 9999 FEW041 19/08 Q1019=
202408211150 METAR EGKK 211150Z 25011KT 9999 FEW044 19/09 Q1019=
202408211220 METAR EGKK 211220Z 23012KT 210V270 9999 SCT048 20/08 Q1018=
202408211250 METAR EGKK 211250Z 23011KT 200V260 9999 SCT049 20/08 Q1018=
202408211320 METAR EGKK 211320Z 23009KT 190V270 9999 SCT048 20/09 Q1018=
202408211350 METAR EGKK 211350Z 23011KT 9999 BKN048 19/09 Q1018=
202408211420 METAR EGKK 211420Z 24011KT 9999 BKN046 20/09 Q1018=
202408211450 METAR EGKK 211450Z 24012KT 210V270 9999 SCT044 20/09 Q1018=
202408211520 METAR EGKK 211520Z 24013KT 210V270 9999 SCT042 20/10 Q1017=
202408211550 METAR EGKK 211550Z 24012KT 9999 FEW042 19/10 Q1017=
202408211620 METAR EGKK 211620Z 24013KT 9999 FEW038 19/10 Q1017=
202408211650 METAR EGKK 211650Z 23011KT 9999 FEW042 19/11 Q1017=
202408211720 METAR EGKK 211720Z 24010KT 9999 FEW034 SCT043 18/11 Q1016=
202408211750 METAR COR EGKK 211750Z 23009KT 200V260 9999 FEW034 SCT042 18/11 Q1016=
202408211820 METAR EGKK 211820Z 22010KT 9999 FEW033 18/11 Q1016=
202408211850 METAR EGKK 211850Z 23010KT 9999 FEW038 17/11 Q1016=
202408211920 METAR EGKK 211920Z 23009G19KT 9999 FEW040 17/11 Q1016=
202408211950 METAR EGKK 211950Z 22006KT 9999 SCT035 17/11 Q1016=
202408212020 METAR EGKK 212020Z 21006KT 170V240 9999 FEW024 16/12 Q1016=
202408212050 METAR EGKK 212050Z 22006KT 180V250 9999 FEW024 16/12 Q1016=
202408212120 METAR EGKK 212120Z 22007KT 9999 SCT023 17/13 Q1015=
202408212150 METAR EGKK 212150Z 21008KT 180V240 9999 SCT027 17/13 Q1015=
202408212220 METAR EGKK 212220Z 21007KT 180V240 9999 FEW030 16/12 Q1015=
202408212250 METAR EGKK 212250Z 21006KT CAVOK 15/12 Q1014=
202408212320 METAR EGKK 212320Z 20006KT 180V240 9999 FEW019 15/13 Q1014=
202408212350 METAR EGKK 212350Z 21007KT 170V250 CAVOK 15/12 Q1014=
202408220020 METAR EGKK 220020Z 21008KT 9999 FEW025 16/12 Q1013=
202408220050 METAR EGKK 220050Z 21009KT CAVOK 15/12 Q1013=
202408220120 METAR EGKK 220120Z 21010KT 180V240 9999 FEW025 16/12 Q1012=
202408220150 METAR EGKK 220150Z 21010KT 9999 SCT025 16/12 Q1012=
202408220220 METAR EGKK 220220Z 21009KT 180V250 9999 SCT022 16/12 Q1011=
202408220250 METAR EGKK 220250Z 21010KT 9999 FEW021 16/13 Q1011=
202408220320 METAR EGKK 220320Z 21010KT 9999 FEW022 16/12 Q1010=
202408220350 METAR EGKK 220350Z 21011KT 9999 FEW022 16/13 Q1010=
202408220420 METAR EGKK 220420Z 21012KT 9999 FEW021 16/13 Q1010=
202408220450 METAR EGKK 220450Z 21011KT 170V240 9999 FEW024 16/13 Q1009=
202408220520 METAR EGKK 220520Z 21008KT 9999 SCT022 16/13 Q1009=
202408220550 METAR EGKK 220550Z 21011KT 180V240 9999 SCT022 17/12 Q1009=
202408220620 METAR EGKK 220620Z 21011KT 180V240 9999 -RA FEW022 17/13 Q1009=
202408220650 METAR EGKK 220650Z 21012KT 9999 SCT025 17/13 Q1008=
202408220720 METAR EGKK 220720Z 21012G22KT 180V240 9999 BKN023 17/13 Q1008=
202408220750 METAR EGKK 220750Z 21013KT 9999 -SHRA SCT022 17/13 Q1008=
202408220820 METAR EGKK 220820Z 21013KT 180V250 9999 BKN021 17/13 Q1008=
202408220850 METAR EGKK 220850Z 21017KT 160V230 9999 BKN018 18/14 Q1008=
202408220920 METAR EGKK 220920Z 21016KT 170V230 9999 BKN017 18/14 Q1008=
202408220950 METAR EGKK 220950Z 22016KT 9999 BKN016 18/14 Q1008=
202408221020 METAR EGKK 221020Z 22013G25KT 180V240 9999 BKN016 18/14 Q1008=
202408221050 METAR EGKK 221050Z 22015G25KT 9999 BKN017 18/14 Q1008=
202408221120 METAR EGKK 221120Z 21016KT 190V250 8000 VCSH BKN013 18/15 Q1007=
202408221150 METAR EGKK 221150Z 21013KT 9000 BKN011 18/16 Q1007=
202408221220 METAR EGKK 221220Z 22014G26KT 6000 -RADZ BKN009 18/16 Q1007=
202408221250 METAR EGKK 221250Z 22015G26KT 3000 -RADZ BKN007 BKN014 17/17 Q1007=
202408221320 METAR EGKK 221320Z 22014KT 4900 -RADZ BKN008 17/17 Q1007=
202408221350 METAR EGKK 221350Z 22013KT 180V240 9999 -RADZ FEW007 BKN011 18/17 Q1007=
202408221420 METAR EGKK 221420Z 21014G24KT 180V240 9999 BKN008 18/17 Q1006=
202408221450 METAR EGKK 221450Z 22014KT 4500 -DZ BKN007 18/17 Q1006 RERA REDZ=
202408221520 METAR EGKK 221520Z 22013KT 180V250 3700 -DZ BKN006 18/17 Q1006=
202408221550 METAR EGKK 221550Z 21012KT 180V240 4000 -DZ BKN006 18/17 Q1006=
202408221620 METAR EGKK 221620Z 22013KT 6000 BKN006 18/17 Q1006=
202408221650 METAR EGKK 221650Z 22013KT 180V240 9999 BKN007 18/17 Q1006=
202408221720 METAR EGKK 221720Z 22010KT 6000 -RA BKN006 18/17 Q1006=
202408221750 METAR EGKK 221750Z 22011KT 6000 -RA BKN008 18/17 Q1005=
202408221820 METAR EGKK 221820Z 22011KT 4000 -RADZ BKN007 18/17 Q1005=
202408221850 METAR EGKK 221850Z 22012KT 9999 -DZ BKN008 18/17 Q1005=
202408221920 METAR EGKK 221920Z 22010KT 9000 -RA BKN008 18/17 Q1005=
202408221950 METAR EGKK 221950Z 22012G22KT 6000 -RA BKN007 18/17 Q1005=
202408222020 METAR EGKK 222020Z 21011KT 9999 BKN007 18/17 Q1005=
202408222050 METAR EGKK 222050Z 22010KT 190V250 9000 -DZ BKN007 18/17 Q1005=
202408222120 METAR EGKK 222120Z 21009KT 4000 -DZRA BKN005 18/18 Q1004=
202408222150 METAR EGKK 222150Z 22011KT 8000 -RA BKN006 18/18 Q1004=
202408222220 METAR EGKK 222220Z 22009KT 7000 -RADZ BKN006 18/18 Q1004=
202408222250 METAR EGKK 222250Z 22009KT 190V260 8000 -RA BKN006 18/17 Q1004=
202408222320 METAR EGKK 222320Z 22011KT 190V250 9999 BKN007 18/17 Q1003=
202408222350 METAR EGKK 222350Z 21012KT 180V240 9999 BKN007 18/17 Q1003=
202408230020 METAR EGKK 230020Z 23014G25KT 9999 BKN008 18/17 Q1003=
202408230050 METAR EGKK 230050Z 22013G23KT 9999 BKN011 17/16 Q1002=
202408230120 METAR EGKK 230120Z 22014G24KT 9999 FEW010 BKN014 17/16 Q1002=
202408230150 METAR EGKK 230150Z 22015G26KT 9999 FEW017 BKN023 17/15 Q1002=
202408230220 METAR EGKK 230220Z 22014G25KT 180V250 9999 BKN015 17/15 Q1002=
202408230250 METAR EGKK 230250Z 22013KT 180V240 9999 BKN014 17/15 Q1001=
202408230320 METAR EGKK 230320Z 22014KT 190V250 9999 BKN014 18/15 Q1001=
202408230350 METAR EGKK 230350Z 21013KT 170V240 9999 BKN013 18/16 Q1000=
202408230420 METAR EGKK 230420Z 21014KT 180V250 9999 BKN011 18/16 Q1000=
202408230450 METAR EGKK 230450Z 21013G23KT 9000 -DZ BKN011 17/16 Q1000=
202408230520 METAR EGKK 230520Z 21014G24KT 5000 -RADZ BKN007 17/16 Q1000=
202408230550 METAR EGKK 230550Z 22014G25KT 6000 -RA BKN008 17/17 Q1000=
202408230620 METAR EGKK 230620Z 22016KT 6000 -RA BKN008 18/17 Q1000=
202408230650 METAR EGKK 230650Z 22015G28KT 5000 -RA BKN008 18/17 Q1000=
202408230720 METAR EGKK 230720Z 25013KT 9999 SCT008 18/18 Q1001=
202408230750 METAR EGKK 230750Z 25013KT 9999 FEW013 19/16 Q1002=
202408230820 METAR EGKK 230820Z 26019KT 9999 FEW024 SCT038 18/14 Q1003=
202408230850 METAR EGKK 230850Z 26019KT 9999 SCT031 19/13 Q1004=
202408230920 METAR EGKK 230920Z 27018KT 9999 SCT028 18/12 Q1005=
202408230950 METAR EGKK 230950Z 26017KT 9999 SCT032 20/13 Q1005=
202408231020 METAR EGKK 231020Z 26017KT 9999 FEW033 20/12 Q1006=
202408231050 METAR EGKK 231050Z 28017KT 9999 FEW035 19/12 Q1006=
202408231120 METAR EGKK 231120Z 25015KT 9999 FEW035 20/11 Q1006=
202408231150 METAR EGKK 231150Z 26015KT 9999 FEW035 21/11 Q1006=
202408231220 METAR EGKK 231220Z 25013KT 210V280 9999 FEW040 21/10 Q1007=
202408231250 METAR EGKK 231250Z 24013KT 9999 FEW041 21/10 Q1007=
202408231320 METAR EGKK 231320Z 25014KT 9999 FEW042 21/09 Q1007=
202408231350 METAR EGKK 231350Z 24011KT 200V270 CAVOK 22/10 Q1007=
202408231420 METAR EGKK 231420Z 24011KT 210V270 CAVOK 21/08 Q1008=
202408231450 METAR EGKK 231450Z 25010KT 200V290 CAVOK 22/09 Q1008=
202408231520 METAR EGKK 231520Z 24008KT CAVOK 21/10 Q1008=
202408231550 METAR EGKK 231550Z 26010KT 9999 FEW047 21/10 Q1008=
202408231620 METAR EGKK 231620Z 23010KT 9999 FEW036 20/12 Q1008=
202408231650 METAR EGKK 231650Z 22011KT 180V240 9999 FEW034 20/12 Q1008=
202408231720 METAR EGKK 231720Z 21008KT 9999 FEW033 19/12 Q1008=
202408231750 METAR EGKK 231750Z 22007KT CAVOK 19/12 Q1008=
202408231820 METAR EGKK 231820Z 22008KT CAVOK 18/11 Q1008=
202408231850 METAR EGKK 231850Z 21007KT CAVOK 17/12 Q1008=
202408231920 METAR EGKK 231920Z 20006KT 160V230 CAVOK 17/12 Q1008=
202408231950 METAR EGKK 231950Z 20005KT CAVOK 16/12 Q1008=
202408232020 METAR EGKK 232020Z 21006KT CAVOK 16/12 Q1008=
202408232050 METAR EGKK 232050Z 20006KT CAVOK 16/12 Q1009=
202408232120 METAR EGKK 232120Z 20006KT CAVOK 16/12 Q1008=
202408232150 METAR EGKK 232150Z 18004KT 140V220 CAVOK 16/12 Q1008=
202408232220 METAR EGKK 232220Z 16003KT CAVOK 16/12 Q1007=
202408232250 METAR EGKK 232250Z 21003KT 170V260 CAVOK 16/13 Q1007=
202408232320 METAR EGKK 232320Z 20005KT CAVOK 16/13 Q1007=
202408232350 METAR EGKK 232350Z 21005KT 180V240 CAVOK 16/12 Q1007=
202408240020 METAR EGKK 240020Z 21004KT 9999 -RA NSC 16/13 Q1007=
202408240050 METAR EGKK 240050Z 19004KT 160V220 CAVOK 16/13 Q1007=
202408240120 METAR EGKK 240120Z 18003KT 140V220 CAVOK 16/13 Q1006=
202408240150 METAR EGKK 240150Z 24003KT 9999 -RA NSC 15/13 Q1006=
202408240220 METAR EGKK 240220Z 18004KT 140V210 9999 -RA NSC 15/14 Q1006=
202408240250 METAR EGKK 240250Z 17005KT 9999 -RA NSC 14/13 Q1006=
202408240320 METAR EGKK 240320Z 19006KT 170V230 9999 -RA NSC 14/12 Q1005=
202408240350 METAR EGKK 240350Z 18004KT 140V230 9999 -RA NSC 13/12 Q1005=
202408240420 METAR EGKK 240420Z 17004KT 130V220 9999 -RA NSC 14/13 Q1004=
202408240450 METAR EGKK 240450Z 15003KT 110V210 9999 -RA NSC 14/13 Q1004=
202408240520 METAR EGKK 240520Z VRB02KT 9999 SCT014 14/13 Q1004=
202408240550 METAR EGKK 240550Z VRB01KT 9999 -RA BKN011 14/13 Q1004=
202408240620 METAR EGKK 240620Z 11004KT 070V140 7000 -RA SCT004 BKN009 14/14 Q1004=
202408240650 METAR EGKK 240650Z 14003KT 100V170 4100 RADZ BKN004 14/14 Q1004=
202408240720 METAR EGKK 240720Z 11003KT 5000 -RA BKN004 14/14 Q1004 RERA REDZ=
202408240750 METAR EGKK 240750Z 12003KT 100V180 4800 -RA BKN009 15/15 Q1004=
202408240820 METAR EGKK 240820Z VRB01KT 2000 RA BKN004 15/15 Q1004=
202408240850 METAR EGKK 240850Z 13007KT 6000 -RA BKN005 BKN049 15/15 Q1003 RERA=
202408240920 METAR EGKK 240920Z 14005KT 9000 -RA NSC 16/16 Q1003=
202408240950 METAR EGKK 240950Z 16005KT 130V200 9999 -RA NSC 16/16 Q1003=
202408241020 METAR EGKK 241020Z 15003KT 110V200 9000 -RA FEW006 16/16 Q1003=
202408241050 METAR EGKK 241050Z 13005KT 9000 -RA FEW005 16/16 Q1002=
202408241120 METAR EGKK 241120Z 11006KT 9999 -RA NSC 16/16 Q1001=
202408241150 METAR EGKK 241150Z 16004KT 100V210 9999 -RA FEW014 16/16 Q1002=
202408241220 METAR EGKK 241220Z 17005KT 120V230 9999 -RA FEW007 BKN040 16/16 Q1002=
202408241250 METAR EGKK 241250Z 18005KT 140V210 9999 FEW008 BKN028 16/15 Q1003=
202408241320 METAR EGKK 241320Z 19007KT 160V220 9999 SCT009 BKN028 16/15 Q1003=
202408241350 METAR EGKK 241350Z 30012KT 3500 RA FEW004 SCT008 BKN018 16/15 Q1003 RERA=
202408241420 METAR EGKK 241420Z 28009KT 9000 -RA SCT008 BKN012 16/14 Q1004 RERA=
202408241450 METAR EGKK 241450Z 25005KT 210V280 9999 FEW008 SCT042 16/15 Q1004=
202408241520 METAR EGKK 241520Z 27009KT 9999 FEW009 SCT011 17/15 Q1005=
202408241550 METAR EGKK 241550Z 27012KT 9999 SCT015 17/14 Q1005=
202408241620 METAR EGKK 241620Z 26010KT 9999 FEW020 17/13 Q1005=
202408241650 METAR EGKK 241650Z 24009KT 9999 FEW023 17/13 Q1006=
202408241720 METAR EGKK 241720Z NIL=
202408241750 METAR EGKK 241750Z 24010KT 9999 FEW018 17/14 Q1007=
202408241820 METAR EGKK 241820Z 24009KT 9999 FEW020 16/13 Q1007=
202408241850 METAR COR EGKK 241850Z 25008KT 9999 FEW034 16/09 Q1008=
202408241920 METAR EGKK 241920Z 25007KT 9999 FEW046 15/09 Q1009=
202408241950 METAR EGKK 241950Z 25010KT CAVOK 14/09 Q1009=
202408242020 METAR EGKK 242020Z 25010KT CAVOK 14/09 Q1010=
202408242050 METAR EGKK 242050Z 25008KT CAVOK 14/10 Q1011=
202408242120 METAR EGKK 242120Z 25011KT CAVOK 13/10 Q1011=
202408242150 METAR EGKK 242150Z 25010KT CAVOK 13/10 Q1012=
202408242220 METAR EGKK 242220Z 25009KT CAVOK 13/10 Q1013=
202408242250 METAR EGKK 242250Z 24008KT CAVOK 13/10 Q1013=
202408242320 METAR EGKK 242320Z 23006KT CAVOK 12/10 Q1014=
202408242350 METAR EGKK 242350Z 24008KT CAVOK 12/10 Q1014=
202408250020 METAR EGKK 250020Z 23005KT CAVOK 11/09 Q1015=
202408250050 METAR EGKK 250050Z 21004KT CAVOK 11/09 Q1015=
202408250120 METAR EGKK 250120Z 21005KT CAVOK 11/09 Q1015=
202408250150 METAR EGKK 250150Z 20004KT CAVOK 11/09 Q1016=
202408250220 METAR EGKK 250220Z 21004KT CAVOK 11/09 Q1016=
202408250250 METAR EGKK 250250Z 21005KT CAVOK 10/09 Q1016=
202408250320 METAR EGKK 250320Z 22005KT CAVOK 11/09 Q1017=
202408250350 METAR EGKK 250350Z 21005KT CAVOK 11/09 Q1017=
202408250420 METAR EGKK 250420Z 24003KT CAVOK 11/09 Q1017=
202408250450 METAR EGKK 250450Z 22004KT CAVOK 11/09 Q1018=
202408250520 METAR EGKK 250520Z 22005KT CAVOK 11/10 Q1018=
202408250550 METAR EGKK 250550Z 21003KT 170V230 CAVOK 11/10 Q1018=
202408250620 METAR EGKK 250620Z 22003KT 170V250 CAVOK 12/10 Q1019=
202408250650 METAR EGKK 250650Z 22005KT CAVOK 12/11 Q1019=
202408250720 METAR EGKK 250720Z 23006KT CAVOK 13/11 Q1019=
202408250750 METAR EGKK 250750Z 23006KT CAVOK 14/11 Q1019=
202408250820 METAR EGKK 250820Z 23007KT 9999 FEW030 15/11 Q1019=
202408250850 METAR EGKK 250850Z 23008KT 190V250 9999 FEW026 16/11 Q1020=
202408250920 METAR EGKK 250920Z 24010KT 210V280 9999 FEW027 17/11 Q1020=
202408250950 METAR EGKK 250950Z 23010KT 9999 SCT027 17/10 Q1020=
202408251020 METAR EGKK 251020Z 24010KT 200V270 9999 SCT035 18/10 Q1020=
202408251050 METAR EGKK 251050Z 25011KT 210V280 9999 FEW038 18/10 Q1020=
202408251120 METAR EGKK 251120Z 23011KT 200V260 9999 SCT032 18/08 Q1020=
202408251150 METAR EGKK 251150Z 24012KT 200V260 9999 SCT046 19/09 Q1020=
202408251220 METAR EGKK 251220Z 22014KT 9999 FEW046 20/08 Q1020=
202408251250 METAR EGKK 251250Z 21013KT 180V240 9999 SCT042 19/09 Q1020=
202408251320 METAR EGKK 251320Z 21012KT 190V250 9999 SCT039 19/10 Q1020=
202408251350 METAR EGKK 251350Z 23014KT 9999 SCT037 18/10 Q1020=
202408251420 METAR EGKK 251420Z 23012KT 9999 SCT035 18/11 Q1020=
202408251450 METAR EGKK 251450Z 22014KT 9999 SCT035 19/10 Q1019=
202408251520 METAR EGKK 251520Z 22015G25KT 9999 FEW044 19/09 Q1019=
202408251550 METAR EGKK 251550Z 21015KT 9999 FEW043 19/09 Q1019=
202408251620 METAR EGKK 251620Z 23012KT 9999 FEW045 19/10 Q1019=
202408251650 METAR EGKK 251650Z 23013G23KT 180V250 9999 SCT035 18/10 Q1019=
202408251720 METAR EGKK 251720Z 23013KT 9999 FEW036 18/10 Q1019=
202408251750 METAR EGKK 251750Z 22012KT 9999 SCT032 SCT038 17/10 Q1019=
202408251820 METAR EGKK 251820Z 23008KT 9999 FEW029 16/11 Q1019=
202408251850 METAR EGKK 251850Z 22010KT 9999 FEW028 16/11 Q1019=
202408251920 METAR EGKK 251920Z 22009KT CAVOK 16/12 Q1019=
202408251950 METAR EGKK 251950Z 22010KT 190V260 CAVOK 16/12 Q1019=
202408252020 METAR EGKK 252020Z 21009KT 9999 FEW049 16/12 Q1019=
202408252050 METAR EGKK 252050Z 23010KT 9999 FEW040 16/12 Q1019=
202408252120 METAR EGKK 252120Z 22009G20KT 9999 FEW021 SCT028 16/12 Q1019=
202408252150 METAR EGKK 252150Z 23009KT 9999 SCT021 16/13 Q1019=
202408252220 METAR EGKK 252220Z 21009KT 9999 FEW020 16/13 Q1019=
202408252250 METAR EGKK 252250Z 22008KT 9999 SCT021 16/13 Q1019=
202408252320 METAR EGKK 252320Z 22010KT 9999 -DZ BKN016 16/13 Q1019=
202408252350 METAR EGKK 252350Z 22008KT 6000 -DZ FEW007 SCT017 15/13 Q1019=
202408260020 METAR EGKK 260020Z 22005KT 190V270 9999 -RA FEW008 BKN018 15/14 Q1019=
202408260050 METAR EGKK 260050Z 22006KT 9999 FEW010 SCT017 15/14 Q1019=
202408260120 METAR EGKK 260120Z 23003KT 200V260 9999 FEW015 14/14 Q1019=
202408260150 METAR EGKK 260150Z 22004KT 9999 SCT015 15/14 Q1019=
202408260220 METAR EGKK 260220Z 21005KT 9999 FEW020 15/14 Q1019=
202408260250 METAR EGKK 260250Z 21005KT 9999 FEW020 15/14 Q1019=
202408260320 METAR EGKK 260320Z 20005KT 9999 FEW016 15/14 Q1019=
202408260350 METAR EGKK 260350Z 21005KT 9999 FEW015 15/14 Q1018=
202408260420 METAR EGKK 260420Z 21006KT 9999 FEW007 SCT018 15/14 Q1018=
202408260450 METAR EGKK 260450Z 21006KT 9999 FEW007 SCT038 15/14 Q1018=
202408260520 METAR EGKK 260520Z 22006KT 9999 BKN022 15/14 Q1019=
202408260550 METAR EGKK 260550Z 22005KT 9999 SCT021 15/14 Q1019=
202408260620 METAR EGKK 260620Z 21003KT 9999 FEW034 15/15 Q1019=
202408260650 METAR EGKK 260650Z 22007KT 9999 FEW016 SCT024 16/15 Q1019=
202408260720 METAR EGKK 260720Z 22008KT 190V260 9999 SCT017 16/15 Q1019=
202408260750 METAR EGKK 260750Z 23007KT 9999 SCT012 17/15 Q1019=
202408260820 METAR EGKK 260820Z 23009KT 170V260 9999 SCT014 18/15 Q1020=
202408260850 METAR EGKK 260850Z 23008KT 200V270 9999 SCT016 18/14 Q1020=
202408260920 METAR EGKK 260920Z 22008KT 190V250 9999 SCT018 19/14 Q1020=
202408260950 METAR EGKK 260950Z 23009KT 180V250 9999 SCT024 20/13 Q1020=
202408261020 METAR EGKK 261020Z 23011KT 9999 FEW032 20/13 Q1020=
202408261050 METAR EGKK 261050Z 23010KT 190V250 9999 SCT030 20/12 Q1020=
202408261120 METAR EGKK 261120Z 26012KT 9999 FEW034 21/12 Q1020=
202408261150 METAR EGKK 261150Z 24010KT 9999 FEW038 20/12 Q1020=
202408261220 METAR EGKK 261220Z 22010KT 180V250 9999 FEW040 22/11 Q1020=
202408261250 METAR EGKK 261250Z 21011KT 9999 FEW040 22/11 Q1020=
202408261320 METAR EGKK 261320Z 23010KT 170V260 9999 FEW042 22/11 Q1020=
202408261350 METAR EGKK 261350Z 23010KT 210V270 9999 SCT043 21/11 Q1020=
202408261420 METAR EGKK 261420Z 24009KT 210V270 9999 SCT034 BKN047 20/12 Q1020=
202408261450 METAR EGKK 261450Z 22009KT 170V250 9999 FEW033 BKN045 20/13 Q1020=
202408261520 METAR EGKK 261520Z 22011KT 190V250 9999 FEW035 BKN042 21/13 Q1020=
202408261550 METAR EGKK 261550Z 23009KT 9999 SCT045 20/13 Q1020=
202408261620 METAR EGKK 261620Z 20007KT 170V230 9999 SCT032 SCT038 20/13 Q1020=
202408261650 METAR EGKK 261650Z 22009KT 9999 SCT033 20/13 Q1020=
202408261720 METAR EGKK 261720Z 22008KT 190V260 9999 FEW032 20/13 Q1020=
202408261750 METAR EGKK 261750Z 22007KT 9999 FEW031 19/13 Q1020=
202408261820 METAR EGKK 261820Z 20006KT 9999 FEW031 18/13 Q1020=
202408261850 METAR EGKK 261850Z 21006KT CAVOK 17/14 Q1020=
202408261920 METAR EGKK 261920Z 20006KT CAVOK 17/14 Q1020=
202408261950 METAR EGKK 261950Z 20004KT 9999 FEW029 16/14 Q1020=
202408262020 METAR EGKK 262020Z 21006KT CAVOK 16/14 Q1020=
202408262050 METAR EGKK 262050Z 21006KT CAVOK 16/14 Q1020=
202408262120 METAR EGKK 262120Z 20004KT CAVOK 16/14 Q1021=
202408262150 METAR EGKK 262150Z 18003KT 140V210 CAVOK 15/14 Q1021=
202408262220 METAR EGKK 262220Z VRB01KT CAVOK 15/14 Q1020=
202408262250 METAR EGKK 262250Z VRB01KT 9999 FEW011 15/14 Q1021=
202408262320 METAR EGKK 262320Z 22006KT 9999 FEW010 16/15 Q1021=
202408262350 METAR EGKK 262350Z 22005KT 9999 FEW011 16/15 Q1020=
202408270020 METAR EGKK 270020Z 22005KT 9999 FEW013 16/15 Q1020=
202408270050 METAR EGKK 270050Z 22004KT CAVOK 16/15 Q1020=
202408270120 METAR EGKK 270120Z 19004KT 9999 FEW008 16/15 Q1020=
202408270150 METAR EGKK 270150Z 19003KT 9999 SCT011 16/15 Q1020=
202408270220 METAR EGKK 270220Z VRB02KT 9999 FEW015 15/15 Q1020=
202408270250 METAR EGKK 270250Z 16003KT 130V190 9999 FEW010 15/15 Q1019=
202408270320 METAR EGKK 270320Z VRB01KT CAVOK 15/14 Q1019=
202408270350 METAR EGKK 270350Z VRB02KT 9999 FEW008 15/15 Q1019=
202408270420 METAR EGKK 270420Z VRB02KT 9999 SCT040 15/15 Q1019=
202408270450 METAR EGKK 270450Z 16003KT 120V200 9999 BKN041 16/15 Q1019=
202408270520 METAR EGKK 270520Z 15003KT 120V190 9999 BKN042 16/15 Q1019=
202408270550 METAR EGKK 270550Z 15003KT 120V190 9999 SCT043 16/15 Q1019=
202408270620 METAR EGKK 270620Z 15004KT 110V180 9999 FEW043 16/15 Q1019=
202408270650 METAR EGKK 270650Z 15006KT 9999 FEW008 17/16 Q1019=
202408270720 METAR EGKK 270720Z 15006KT 110V180 9999 FEW008 17/16 Q1019=
202408270750 METAR EGKK 270750Z 16006KT 120V190 9999 FEW010 18/16 Q1019=
202408270820 METAR EGKK 270820Z 16007KT 120V210 9999 FEW013 19/16 Q1019=
202408270850 METAR EGKK 270850Z 18007KT 130V270 9999 FEW016 20/16 Q1019=
202408270920 METAR EGKK 270920Z 18009KT 140V210 9999 FEW023 21/14 Q1019=
202408270950 METAR EGKK 270950Z 19009KT 150V230 9999 FEW030 22/14 Q1019=
202408271020 METAR EGKK 271020Z 18010KT 150V210 9999 FEW034 22/13 Q1019=
202408271050 METAR EGKK 271050Z 20011KT 9999 FEW038 22/13 Q1019=
202408271120 METAR EGKK 271120Z 18010KT 130V210 9999 FEW038 22/12 Q1018=
202408271150 METAR EGKK 271150Z 21010KT CAVOK 23/13 Q1018=
202408271220 METAR EGKK 271220Z 18009KT 140V240 CAVOK 23/12 Q1018=
202408271250 METAR EGKK 271250Z 17009KT 130V210 CAVOK 23/12 Q1018=
202408271320 METAR EGKK 271320Z 18009KT 130V210 CAVOK 23/12 Q1018=
202408271350 METAR EGKK 271350Z 17008KT 120V230 CAVOK 24/12 Q1017=
202408271420 METAR EGKK 271420Z 18009KT 140V220 CAVOK 23/12 Q1017=
202408271450 METAR EGKK 271450Z 18008KT 140V210 CAVOK 24/12 Q1017=
202408271520 METAR EGKK 271520Z 19009KT 140V220 CAVOK 23/12 Q1017=
202408271550 METAR EGKK 271550Z 17008KT 130V200 CAVOK 23/12 Q1017=
202408271620 METAR EGKK 271620Z 18009KT 140V210 CAVOK 23/12 Q1016=
202408271650 METAR EGKK 271650Z 19008KT 140V210 CAVOK 22/12 Q1016=
202408271720 METAR EGKK 271720Z 19007KT CAVOK 22/11 Q1016=
202408271750 METAR EGKK 271750Z 18006KT 150V230 CAVOK 21/11 Q1016=
202408271820 METAR EGKK 271820Z 21004KT CAVOK 21/11 Q1017=
202408271850 METAR EGKK 271850Z 19003KT CAVOK 20/12 Q1017=
202408271920 METAR EGKK 271920Z 17002KT CAVOK 19/12 Q1016=
202408271950 METAR EGKK 271950Z 14003KT CAVOK 18/12 Q1016=
202408272020 METAR EGKK 272020Z 20001KT CAVOK 17/12 Q1017=
202408272050 METAR EGKK 272050Z 12002KT CAVOK 15/11 Q1016=
202408272120 METAR EGKK 272120Z 14003KT CAVOK 15/12 Q1016=
202408272150 METAR EGKK 272150Z 23001KT CAVOK 14/12 Q1017=
202408272220 METAR EGKK 272220Z 09002KT CAVOK 14/12 Q1017=
202408272250 METAR EGKK 272250Z VRB01KT CAVOK 13/11 Q1016=
202408272320 METAR EGKK 272320Z 26003KT 240V320 CAVOK 13/12 Q1016=
202408272350 METAR EGKK 272350Z 10003KT CAVOK 14/12 Q1016=
202408280020 METAR EGKK 280020Z NIL=
202408280050 METAR EGKK 280050Z 09003KT CAVOK 13/12 Q1016=
202408280120 METAR EGKK 280120Z 07002KT CAVOK 12/12 Q1015=
202408280150 METAR EGKK 280150Z 05004KT CAVOK 12/11 Q1015=
202408280220 METAR EGKK 280220Z 07003KT CAVOK 12/12 Q1015=
202408280250 METAR EGKK 280250Z 09004KT CAVOK 12/11 Q1015=
202408280320 METAR EGKK 280320Z 08004KT CAVOK 12/11 Q1015=
202408280350 METAR EGKK 280350Z 07003KT CAVOK 12/11 Q1014=
202408280420 METAR EGKK 280420Z 07002KT CAVOK 12/12 Q1014=
202408280450 METAR EGKK 280450Z 08004KT CAVOK 12/12 Q1014=
202408280520 METAR EGKK 280520Z 08004KT CAVOK 12/12 Q1014=
202408280550 METAR EGKK 280550Z 06003KT CAVOK 13/12 Q1014=
202408280620 METAR EGKK 280620Z 07004KT CAVOK 13/12 Q1014=
202408280650 METAR EGKK 280650Z 08003KT CAVOK 14/13 Q1014=
202408280720 METAR EGKK 280720Z 07004KT CAVOK 16/14 Q1014=
202408280750 METAR EGKK 280750Z 07003KT 280V100 CAVOK 17/15 Q1014=
202408280820 METAR EGKK 280820Z 09004KT 070V150 CAVOK 18/15 Q1014=
202408280850 METAR EGKK 280850Z 09003KT 060V130 CAVOK 20/16 Q1014=
202408280920 METAR EGKK 280920Z VRB03KT CAVOK 22/16 Q1013=
202408280950 METAR EGKK 280950Z 16007KT 130V200 CAVOK 24/15 Q1013=
202408281020 METAR EGKK 281020Z 15005KT 100V200 CAVOK 25/16 Q1013=
202408281050 METAR EGKK 281050Z 16006KT 120V210 CAVOK 25/16 Q1013=
202408281120 METAR EGKK 281120Z VRB05KT CAVOK 26/16 Q1013=
202408281150 METAR EGKK 281150Z 17008KT 140V210 CAVOK 26/15 Q1012=
202408281220 METAR EGKK 281220Z 13008KT 110V170 CAVOK 26/14 Q1012=
202408281250 METAR EGKK 281250Z 14008KT 110V200 CAVOK 27/15 Q1012=
202408281320 METAR EGKK 281320Z 16006KT 120V200 CAVOK 27/14 Q1012=
202408281350 METAR EGKK 281350Z 17009KT 130V200 CAVOK 27/14 Q1012=
202408281420 METAR EGKK 281420Z 19007KT 150V230 CAVOK 27/14 Q1012=
202408281450 METAR EGKK 281450Z 19008KT CAVOK 26/14 Q1012=
202408281520 METAR EGKK 281520Z 16008KT 120V210 CAVOK 26/14 Q1011=
202408281550 METAR EGKK 281550Z 20007KT 150V240 CAVOK 26/14 Q1011=
202408281620 METAR EGKK 281620Z 21006KT CAVOK 25/14 Q1012=
202408281650 METAR EGKK 281650Z 22007KT CAVOK 24/15 Q1012=
202408281720 METAR EGKK 281720Z 21005KT CAVOK 23/16 Q1012=
202408281750 METAR EGKK 281750Z 21005KT CAVOK 23/15 Q1012=
202408281820 METAR EGKK 281820Z 21004KT CAVOK 22/15 Q1012=
202408281850 METAR EGKK 281850Z 21004KT 170V230 CAVOK 21/16 Q1012=
202408281920 METAR EGKK 281920Z 23003KT CAVOK 21/17 Q1012=
202408281950 METAR EGKK 281950Z 21003KT CAVOK 21/16 Q1012=
202408282020 METAR EGKK 282020Z 21003KT CAVOK 20/16 Q1013=
202408282050 METAR EGKK 282050Z 23004KT CAVOK 20/16 Q1013=
202408282120 METAR EGKK 282120Z 22004KT CAVOK 19/16 Q1013=
202408282150 METAR EGKK 282150Z 24006KT CAVOK 19/16 Q1013=
202408282220 METAR EGKK 282220Z 25006KT CAVOK 18/16 Q1014=
202408282250 METAR EGKK 282250Z 26004KT 240V310 CAVOK 17/15 Q1014=
202408282320 METAR EGKK 282320Z 29005KT CAVOK 17/15 Q1014=
202408282350 METAR EGKK 282350Z 28007KT CAVOK 17/14 Q1014=
202408290020 METAR EGKK 290020Z 28005KT CAVOK 16/13 Q1015=
202408290050 METAR EGKK 290050Z VRB02KT CAVOK 16/13 Q1015=
202408290120 METAR EGKK 290120Z NIL=
202408290150 METAR EGKK 290150Z 25004KT CAVOK 14/12 Q1015=
202408290220 METAR EGKK 290220Z 25005KT CAVOK 14/12 Q1016=
202408290250 METAR EGKK 290250Z 25005KT CAVOK 14/12 Q1016=
202408290320 METAR EGKK 290320Z 25005KT CAVOK 13/11 Q1016=
202408290350 METAR EGKK 290350Z 25004KT CAVOK 12/11 Q1016=
202408290420 METAR EGKK 290420Z 25003KT CAVOK 11/10 Q1016=
202408290450 METAR EGKK 290450Z VRB02KT CAVOK 11/11 Q1017=
202408290520 METAR EGKK 290520Z VRB01KT CAVOK 12/11 Q1017=
202408290550 METAR EGKK 290550Z 21003KT CAVOK 12/11 Q1017=
202408290620 METAR EGKK 290620Z 23003KT CAVOK 13/12 Q1017=
202408290650 METAR EGKK 290650Z 26004KT 220V310 CAVOK 14/12 Q1018=
202408290720 METAR EGKK 290720Z 25004KT CAVOK 15/12 Q1018=
202408290750 METAR EGKK 290750Z 30007KT CAVOK 16/11 Q1018=
202408290820 METAR EGKK 290820Z 29007KT CAVOK 17/11 Q1019=
202408290850 METAR EGKK 290850Z 31006KT 270V330 CAVOK 18/10 Q1019=
202408290920 METAR EGKK 290920Z 29009KT 260V320 CAVOK 19/10 Q1019=
202408290950 METAR EGKK 290950Z 30008KT 250V330 9999 FEW038 20/10 Q1019=
202408291020 METAR EGKK 291020Z 29007KT 240V330 9999 FEW036 19/11 Q1018=
202408291050 METAR EGKK 291050Z 25009KT 210V280 9999 FEW037 20/10 Q1018=
202408291120 METAR EGKK 291120Z 26008KT 230V300 9999 FEW045 21/10 Q1018=
202408291150 METAR EGKK 291150Z 27010KT 9999 FEW045 21/09 Q1019=
202408291220 METAR EGKK 291220Z 26010KT 9999 FEW049 21/09 Q1019=
202408291250 METAR EGKK 291250Z 26011KT 9999 FEW048 21/10 Q1019=
202408291320 METAR EGKK 291320Z 26010KT 220V300 CAVOK 22/09 Q1019=
202408291350 METAR EGKK 291350Z 24008KT 210V270 9999 FEW049 22/09 Q1019=
202408291420 METAR EGKK 291420Z 27007KT 9999 FEW049 21/09 Q1019=
202408291450 METAR EGKK 291450Z 23009KT CAVOK 22/09 Q1019=
202408291520 METAR EGKK 291520Z 25009KT CAVOK 23/09 Q1019=
202408291550 METAR EGKK 291550Z 26007KT 210V280 CAVOK 22/09 Q1019=
202408291620 METAR EGKK 291620Z 30007KT CAVOK 22/08 Q1019=
202408291650 METAR EGKK 291650Z 30008KT 260V320 CAVOK 21/09 Q1019=
202408291720 METAR EGKK 291720Z 30006KT CAVOK 21/10 Q1020=
202408291750 METAR EGKK 291750Z 29008KT CAVOK 20/10 Q1020=
202408291820 METAR EGKK 291820Z 30006KT CAVOK 20/10 Q1020=
202408291850 METAR EGKK 291850Z 31005KT 270V340 CAVOK 19/10 Q1020=
202408291920 METAR EGKK 291920Z 21004KT CAVOK 18/11 Q1020=
202408291950 METAR EGKK 291950Z 22004KT CAVOK 17/12 Q1020=
202408292020 METAR EGKK 292020Z 21003KT CAVOK 16/12 Q1020=
202408292050 METAR EGKK 292050Z 24003KT CAVOK 15/12 Q1020=
202408292120 METAR EGKK 292120Z 21003KT CAVOK 15/12 Q1021=
202408292150 METAR EGKK 292150Z 25003KT 210V270 CAVOK 14/11 Q1021=
202408292220 METAR EGKK 292220Z 00000KT CAVOK 14/12 Q1021=
202408292250 METAR EGKK 292250Z VRB02KT CAVOK 14/11 Q1021=
202408292320 METAR EGKK 292320Z VRB02KT CAVOK 13/11 Q1021=
202408292350 METAR EGKK 292350Z VRB02KT CAVOK 13/10 Q1021=
202408300020 METAR EGKK 300020Z VRB01KT CAVOK 12/10 Q1022=
202408300050 METAR EGKK 300050Z VRB02KT CAVOK 12/10 Q1022=
202408300120 METAR EGKK 300120Z 25003KT 240V300 CAVOK 12/09 Q1022=
202408300150 METAR EGKK 300150Z VRB02KT CAVOK 12/09 Q1022=
202408300220 METAR EGKK 300220Z VRB02KT CAVOK 12/09 Q1022=
202408300250 METAR EGKK 300250Z VRB01KT CAVOK 12/09 Q1022=
202408300320 METAR EGKK 300320Z VRB01KT CAVOK 12/09 Q1022=
202408300350 METAR EGKK 300350Z 17003KT CAVOK 10/09 Q1022=
202408300420 METAR EGKK 300420Z 17001KT CAVOK 10/09 Q1022=
202408300450 METAR EGKK 300450Z VRB02KT CAVOK 10/09 Q1022=
202408300520 METAR EGKK 300520Z VRB01KT CAVOK 10/09 Q1022=
202408300550 METAR EGKK 300550Z VRB02KT CAVOK 12/09 Q1022=
202408300620 METAR EGKK 300620Z VRB02KT CAVOK 13/10 Q1022=
202408300650 METAR EGKK 300650Z 36004KT 310V030 CAVOK 14/10 Q1022=
202408300720 METAR EGKK 300720Z 35004KT 290V070 CAVOK 14/10 Q1022=
202408300750 METAR EGKK 300750Z 06003KT 360V110 CAVOK 15/11 Q1022=
202408300820 METAR EGKK 300820Z 04003KT 360V080 CAVOK 16/11 Q1023=
202408300850 METAR EGKK 300850Z 03004KT 360V080 CAVOK 17/11 Q1023=
202408300920 METAR EGKK 300920Z 03005KT 330V060 CAVOK 18/11 Q1023=
202408300950 METAR EGKK 300950Z 05007KT 360V100 CAVOK 19/11 Q1023=
202408301020 METAR EGKK 301020Z 06007KT 020V100 CAVOK 20/10 Q1023=
202408301050 METAR EGKK 301050Z 06008KT 030V110 CAVOK 21/10 Q1023=
202408301120 METAR EGKK 301120Z 07007KT 010V130 CAVOK 22/09 Q1023=
202408301150 METAR EGKK 301150Z 06008KT 9999 FEW048 21/09 Q1023=
202408301220 METAR EGKK 301220Z 06007KT 320V100 CAVOK 22/09 Q1023=
202408301250 METAR EGKK 301250Z 07009G19KT 030V120 CAVOK 22/09 Q1023=
202408301320 METAR EGKK 301320Z 06008KT 030V110 9999 FEW048 22/10 Q1023=
202408301350 METAR EGKK 301350Z 06009KT 9999 FEW048 22/11 Q1022=
202408301420 METAR EGKK 301420Z 05010KT 9999 FEW044 22/11 Q1022=
202408301450 METAR EGKK 301450Z 05010KT 9999 FEW042 22/11 Q1022=
202408301520 METAR EGKK 301520Z 07009KT 040V100 9999 FEW040 21/11 Q1022=
202408301550 METAR EGKK 301550Z 07010KT 020V090 CAVOK 20/11 Q1022=
202408301620 METAR EGKK 301620Z 08008KT CAVOK 20/11 Q1023=
202408301650 METAR EGKK 301650Z 07008KT CAVOK 20/10 Q1023=
202408301720 METAR EGKK 301720Z 06008KT CAVOK 19/10 Q1023=
202408301750 METAR EGKK 301750Z 06009KT CAVOK 19/11 Q1023=
202408301820 METAR EGKK 301820Z 07007KT CAVOK 18/11 Q1023=
202408301850 METAR EGKK 301850Z 07006KT CAVOK 17/12 Q1023=
202408301920 METAR EGKK 301920Z 06007KT CAVOK 16/12 Q1023=
202408301950 METAR EGKK 301950Z 05008KT CAVOK 17/13 Q1024=
202408302020 METAR EGKK 302020Z 06008KT CAVOK 16/13 Q1024=
202408302050 METAR EGKK 302050Z 04007KT CAVOK 16/13 Q1024=
202408302120 METAR EGKK 302120Z 05008KT CAVOK 16/13 Q1024=
202408302150 METAR EGKK 302150Z 05007KT CAVOK 16/13 Q1024=
202408302220 METAR EGKK 302220Z 05008KT CAVOK 15/13 Q1024=
202408302250 METAR EGKK 302250Z 05008KT CAVOK 15/13 Q1024=
202408302320 METAR EGKK 302320Z 05007KT 020V100 CAVOK 15/13 Q1024=
202408302350 METAR EGKK 302350Z 05007KT CAVOK 15/13 Q1024=
202408310020 METAR EGKK 310020Z 04007KT 9999 FEW043 15/13 Q1024=
202408310050 METAR EGKK 310050Z 04006KT 9999 FEW044 15/13 Q1024=
202408310120 METAR EGKK 310120Z 05006KT CAVOK 15/13 Q1024=
202408310150 METAR EGKK 310150Z 04007KT CAVOK 16/13 Q1023=
202408310220 METAR EGKK 310220Z 04007KT CAVOK 16/13 Q1023=
202408310250 METAR EGKK 310250Z 04007KT CAVOK 16/13 Q1023=
202408310320 METAR EGKK 310320Z 04009KT CAVOK 16/13 Q1023=
202408310350 METAR EGKK 310350Z 04009KT CAVOK 16/13 Q1023=
202408310420 METAR EGKK 310420Z 04008KT CAVOK 16/13 Q1023=
202408310450 METAR EGKK 310450Z 04009KT 9999 -RA NSC 16/13 Q1023=
202408310520 METAR EGKK 310520Z 04010KT CAVOK 16/14 Q1023=
202408310550 METAR EGKK 310550Z 04010KT 9999 FEW026 16/14 Q1023=
202408310620 METAR EGKK 310620Z 05009KT 9999 SCT022 17/14 Q1023=
202408310650 METAR EGKK 310650Z 04009KT 9999 FEW019 SCT032 16/14 Q1023=
202408310720 METAR EGKK 310720Z 04009KT 9999 -RA SCT018 16/14 Q1022=
202408310750 METAR EGKK 310750Z 04009KT 010V100 9999 -RA SCT013 BKN047 16/15 Q1022=
202408310820 METAR EGKK 310820Z 03010KT 9999 FEW015 BKN048 17/15 Q1022=
202408310850 METAR EGKK 310850Z 04011KT 9999 FEW016 BKN048 18/15 Q1022=
202408310920 METAR EGKK 310920Z 05014KT 9999 FEW016 BKN047 19/15 Q1022=
202408310950 METAR EGKK 310950Z 05012KT 9999 FEW018 SCT023 19/15 Q1022=
202408311020 METAR EGKK 311020Z 05015KT 9999 SCT021 BKN048 20/14 Q1022=
202408311050 METAR EGKK 311050Z 06016KT 9999 SCT027 BKN049 20/13 Q1021=
202408311120 METAR EGKK 311120Z 05018KT 030V100 9999 FEW029 SCT041 BKN048 21/13 Q1021=
202408311150 METAR EGKK 311150Z 06016KT 9999 FEW027 BKN040 20/13 Q1021=
202408311220 METAR EGKK 311220Z 06018KT 9999 SCT029 BKN039 20/13 Q1021=
202408311250 METAR EGKK 311250Z 06016KT 9999 FEW029 BKN033 20/13 Q1021=
202408311320 METAR EGKK 311320Z 06015KT 9999 FEW027 BKN035 19/13 Q1021=
202408311350 METAR EGKK 311350Z 07014KT 9999 SCT025 BKN035 19/13 Q1021=
202408311420 METAR EGKK 311420Z 06016KT 9999 BKN024 19/14 Q1021=
202408311450 METAR EGKK 311450Z 07012KT 9999 BKN022 19/14 Q1021=
202408311520 METAR EGKK 311520Z 06013KT 9999 BKN020 18/14 Q1020=
202408311550 METAR EGKK 311550Z 06013KT 9999 BKN020 18/14 Q1020=
202408311620 METAR EGKK 311620Z 07011KT 9999 BKN019 18/14 Q1020=
202408311650 METAR EGKK 311650Z 06011KT 9999 BKN019 18/14 Q1020=
202408311720 METAR EGKK 311720Z 06012KT 9999 BKN020 BKN028 18/14 Q1019=
202408311750 METAR EGKK 311750Z 06012KT 9999 BKN020 BKN028 18/14 Q1019=
202408311820 METAR EGKK 311820Z 06012KT 9999 FEW020 BKN027 18/14 Q1019=
202408311850 METAR EGKK 311850Z 05010KT 9999 BKN027 18/14 Q1019=
202408311920 METAR EGKK 311920Z 06010KT 9999 BKN026 18/15 Q1019=
202408311950 METAR EGKK 311950Z 06010KT 9999 BKN024 18/15 Q1019=
202408312020 METAR EGKK 312020Z 06009KT 9999 BKN023 18/15 Q1019=
202408312050 METAR EGKK 312050Z 06008KT 030V100 9999 FEW017 BKN023 18/15 Q1019=
202408312120 METAR EGKK 312120Z 06009G20KT 020V110 9999 FEW017 BKN027 18/15 Q1019=
202408312150 METAR EGKK 312150Z 06009KT 9999 BKN030 18/15 Q1019=
202408312220 METAR EGKK 312220Z 06005KT CAVOK 17/15 Q1018=
202408312250 METAR EGKK 312250Z 05005KT CAVOK 16/15 Q1018=
202408312320 METAR EGKK 312320Z 04006KT CAVOK 17/15 Q1018=
202408312350 METAR EGKK 312350Z 07004KT CAVOK 16/15 Q1018=
202409010020 METAR EGKK 010020Z 05006KT CAVOK 16/15 Q1018=
202409010050 METAR EGKK 010050Z 06003KT 040V100 CAVOK 15/15 Q1018=
202409010120 METAR EGKK 010120Z VRB02KT CAVOK 16/15 Q1017=
202409010150 METAR EGKK 010150Z 34003KT 8000 NSC 16/16 Q1017=
202409010220 METAR EGKK 010220Z 01004KT 8000 NSC 16/16 Q1016=
202409010250 METAR EGKK 010250Z 05003KT 9000 NSC 17/16 Q1015=
202409010320 METAR EGKK 010320Z 08005KT 8000 NSC 16/16 Q1015=
202409010350 METAR EGKK 010350Z 03005KT 8000 NSC 17/16 Q1015=
202409010420 METAR EGKK 010420Z 06009KT 7000 NSC 17/17 Q1015=
202409010450 METAR EGKK 010450Z 04008KT 6000 SCT009 17/17 Q1015=
202409010520 METAR EGKK 010520Z 03006KT 7000 FEW007 BKN009 17/17 Q1014=
202409010550 METAR EGKK 010550Z 03006KT 8000 SCT009 18/17 Q1014=
202409010620 METAR EGKK 010620Z 03005KT 360V070 8000 SCT009 18/17 Q1014=
202409010650 METAR EGKK 010650Z 02006KT 340V060 9999 SCT010 19/17 Q1014=
202409010720 METAR EGKK 010720Z 05008KT 9999 SCT011 19/17 Q1014=
202409010750 METAR EGKK 010750Z 05009KT 9999 BKN010 20/17 Q1014=
202409010820 METAR EGKK 010820Z 03009KT 9999 SCT011 20/17 Q1014=
202409010850 METAR EGKK 010850Z 04011KT 9999 SCT014 21/18 Q1014=
202409010920 METAR EGKK 010920Z 05011KT 020V100 9999 SCT014 21/18 Q1014=
202409010950 METAR EGKK 010950Z 04011KT 9999 FEW016 23/18 Q1013=
202409011020 METAR EGKK 011020Z 06011KT 030V100 9999 FEW016 23/18 Q1013=
202409011050 METAR EGKK 011050Z 04009G20KT 360V070 CAVOK 25/18 Q1013=
202409011120 METAR EGKK 011120Z 07009KT CAVOK 26/19 Q1013=
202409011150 METAR EGKK 011150Z 05010KT 020V090 CAVOK 26/19 Q1012=
202409011220 METAR EGKK 011220Z 06011KT CAVOK 26/19 Q1012=
202409011250 METAR EGKK 011250Z 06009KT 020V090 CAVOK 27/19 Q1011=
202409011320 METAR EGKK 011320Z 07009KT CAVOK 27/19 Q1011=
202409011350 METAR EGKK 011350Z 08010KT CAVOK 27/19 Q1011=
202409011420 METAR EGKK 011420Z 07011KT CAVOK 27/19 Q1011=
202409011450 METAR EGKK 011450Z 09009KT 050V120 9999 FEW034 27/19 Q1011=
202409011520 METAR EGKK 011520Z 08007KT 050V110 9999 FEW033 27/20 Q1011=
202409011550 METAR EGKK 011550Z 14008KT 9999 SCT031 26/20 Q1011=
202409011620 METAR EGKK 011620Z 16007KT 9999 BKN028 26/20 Q1011=
202409011650 METAR EGKK 011650Z 16008KT 140V210 9999 FEW024 SCT036 26/20 Q1011=
202409011720 METAR EGKK 011720Z 18005KT 150V220 9999 FEW022 SCT038 25/20 Q1011=
202409011750 METAR EGKK 011750Z 16004KT 9999 SCT036 24/20 Q1011=
202409011820 METAR EGKK 011820Z 15004KT 100V190 9999 FEW016 24/20 Q1011=
202409011850 METAR EGKK 011850Z 17003KT 150V210 CAVOK 23/20 Q1011=
202409011920 METAR EGKK 011920Z 16003KT CAVOK 22/20 Q1011=
202409011950 METAR EGKK 011950Z 13003KT CAVOK 22/20 Q1011=
202409012020 METAR EGKK 012020Z VRB01KT CAVOK 21/20 Q1011=
202409012050 METAR EGKK 012050Z 14002KT 9999 FEW042 21/19 Q1011=
202409012120 METAR EGKK 012120Z VRB02KT 9999 FEW044 21/19 Q1011=
202409012150 METAR EGKK 012150Z 15003KT 120V190 9000 BKN045 21/19 Q1011=
202409012220 METAR EGKK 012220Z 15003KT 120V180 9000 SCT043 21/19 Q1011=
202409012250 METAR EGKK 012250Z 15003KT 110V180 7000 FEW049 20/19 Q1011=
202409012320 METAR EGKK 012320Z 15005KT 7000 FEW035 20/19 Q1011=
202409012350 METAR EGKK 012350Z 14004KT 6000 FEW034 20/19 Q1011=
202409020020 METAR EGKK 020020Z 12004KT 8000 NSC 19/18 Q1011=
202409020050 METAR EGKK 020050Z 10003KT 8000 SCT022 19/18 Q1011=
202409020120 METAR EGKK 020120Z 08005KT 9999 FEW027 18/17 Q1011=
202409020150 METAR EGKK 020150Z 09004KT 9999 FEW009 18/17 Q1010=
202409020220 METAR EGKK 020220Z 08002KT 9999 BKN007 17/17 Q1010=
202409020250 METAR EGKK 020250Z 12003KT 080V170 9999 BKN006 19/18 Q1010=
202409020320 METAR EGKK 020320Z 12003KT 9999 BKN006 19/18 Q1010=
202409020350 METAR EGKK 020350Z 14003KT 100V190 9999 SCT005 BKN013 19/18 Q1010=
202409020420 METAR EGKK 020420Z 16005KT 9999 BKN005 19/18 Q1010=
202409020450 METAR EGKK 020450Z 17004KT 140V210 9999 BKN006 BKN016 19/18 Q1010=
202409020520 METAR EGKK 020520Z 16004KT 120V200 9999 BKN005 19/18 Q1009=
202409020550 METAR EGKK 020550Z 18005KT 140V210 4000 BR BKN004 19/19 Q1010=
202409020620 METAR EGKK 020620Z 18007KT 160V220 6000 BKN004 19/18 Q1010=
202409020650 METAR EGKK 020650Z 20007KT 140V220 3500 BR BKN003 18/18 Q1010=
202409020720 METAR EGKK 020720Z 20006KT 4000 BR BKN004 19/18 Q1010=
202409020750 METAR EGKK 020750Z 21007KT 180V250 9999 BKN007 19/18 Q1010=
202409020820 METAR EGKK 020820Z 21007KT 170V230 9999 4000W -RADZ BKN006 19/18 Q1010=
202409020850 METAR EGKK 020850Z 21006KT 160V240 9999 BKN007 19/18 Q1010=
202409020920 METAR EGKK 020920Z 21009KT 160V250 9999 BKN005 19/18 Q1011=
202409020950 METAR EGKK 020950Z 21009KT 170V240 7000 -RA BKN005 19/18 Q1011=
202409021020 METAR EGKK 021020Z 21008KT 160V240 9999 BKN005 18/18 Q1011=
202409021050 METAR EGKK 021050Z 21009KT 180V240 9999 BKN009 20/17 Q1011=
202409021120 METAR EGKK 021120Z 21009KT 180V240 9999 BKN012 20/17 Q1011=
202409021150 METAR EGKK 021150Z 20007KT 150V220 9999 BKN016 20/17 Q1011=
202409021220 METAR EGKK 021220Z 21009KT 170V240 9999 BKN016 20/17 Q1011=
202409021250 METAR EGKK 021250Z 20008KT 9999 BKN016 20/17 Q1011=
202409021320 METAR EGKK 021320Z 21008KT 9999 BKN018 20/16 Q1011=
202409021350 METAR EGKK 021350Z 21007KT 170V230 9999 BKN018 20/16 Q1011=
202409021420 METAR EGKK 021420Z 20007KT 160V230 9999 BKN018 20/16 Q1011=
202409021450 METAR EGKK 021450Z 19007KT 150V210 9999 SCT017 SCT021 20/16 Q1011=
202409021520 METAR EGKK 021520Z 19008KT 9999 SCT016 SCT024 20/16 Q1011=
202409021550 METAR EGKK 021550Z 20007KT 9999 BKN014 20/16 Q1011=
202409021620 METAR EGKK 021620Z 19007KT 170V230 9999 VCSH SCT006 BKN010 19/17 Q1011=
202409021650 METAR EGKK 021650Z 19007KT 9000 BKN006 18/18 Q1011=
202409021720 METAR EGKK 021720Z 18005KT 7000 BKN005 19/18 Q1011=
202409021750 METAR EGKK 021750Z 19006KT 6000 BKN004 19/18 Q1011=
202409021820 METAR EGKK 021820Z 19005KT 140V210 9999 -RA BKN007 18/18 Q1011=
202409021850 METAR EGKK 021850Z 19004KT 160V220 9000 -RA BKN004 19/18 Q1011=
202409021920 METAR EGKK 021920Z 20004KT 9000 BKN004 19/18 Q1011=
202409021950 METAR EGKK 021950Z 20005KT 160V230 7000 BKN003 18/18 Q1011=
202409022020 METAR EGKK 022020Z 19005KT 160V220 8000 BKN003 18/18 Q1011=
202409022050 METAR EGKK 022050Z 20005KT 170V230 7000 BKN004 18/18 Q1011=
202409022120 METAR EGKK 022120Z 20005KT 7000 BKN003 18/18 Q1011=
202409022150 METAR EGKK 022150Z 20004KT 160V240 8000 BKN003 18/18 Q1011=
202409022220 METAR EGKK 022220Z 23006KT 9999 SCT003 BKN006 18/18 Q1011=
202409022250 METAR EGKK 022250Z 22005KT 9000 BKN003 18/18 Q1011=
202409022320 METAR EGKK 022320Z 23005KT 9000 -RADZ SCT003 BKN012 18/17 Q1012=
202409022350 METAR EGKK 022350Z 22005KT 6000 -RADZ SCT006 BKN013 17/17 Q1011=
202409030020 METAR EGKK 030020Z 23004KT 6000 -DZ SCT003 BKN009 17/17 Q1011=
202409030050 METAR EGKK 030050Z 24003KT 5000 -RADZ FEW004 SCT007 17/17 Q1011=
202409030120 METAR EGKK 030120Z 21004KT 9999 -RA BKN005 17/17 Q1011=
202409030150 METAR EGKK 030150Z 21003KT 180V240 9999 SCT005 17/16 Q1011=
202409030220 METAR EGKK 030220Z 24003KT 9999 SCT005 17/16 Q1011=
202409030250 METAR EGKK 030250Z 20003KT 160V230 9999 -RA BKN005 17/16 Q1011=
202409030320 METAR EGKK 030320Z 17003KT 9999 SCT005 17/17 Q1011=
202409030350 METAR EGKK 030350Z 14003KT 100V170 6000 -DZ BKN006 17/17 Q1011=
202409030420 METAR EGKK 030420Z 16003KT 120V200 9999 BKN004 17/17 Q1011=
202409030450 METAR EGKK 030450Z 16003KT 6000 -RA BKN005 17/17 Q1011=
202409030520 METAR EGKK 030520Z 18003KT 150V220 9999 SCT004 BKN009 17/17 Q1011=
202409030550 METAR EGKK 030550Z 22003KT 190V260 9999 SCT004 BKN015 17/17 Q1011=
202409030620 METAR EGKK 030620Z 23004KT 9999 BKN006 17/17 Q1011=
202409030650 METAR EGKK 030650Z 24004KT 210V280 9999 -SHRA BKN005 18/17 Q1011=
202409030720 METAR EGKK 030720Z 23004KT 200V270 8000 3000SW -RA BKN004 18/17 Q1012=
202409030750 METAR EGKK 030750Z 24008KT 9999 5000NE -RA BKN005 18/17 Q1012=
202409030820 METAR EGKK 030820Z 23008KT 170V250 9999 6000N VCSH BKN007 18/17 Q1012=
202409030850 METAR EGKK 030850Z 22007KT 200V260 9999 SCT007 BKN037 18/18 Q1012=
202409030920 METAR EGKK 030920Z 24006KT 200V270 9999 SCT009 BKN012 19/18 Q1012=
202409030950 METAR EGKK 030950Z 25006KT 210V300 9999 SCT014 21/18 Q1012=
202409031020 METAR EGKK 031020Z 26009KT 9999 SCT020 21/17 Q1012=
202409031050 METAR EGKK 031050Z 24008KT 9999 FEW020 SCT031 20/17 Q1012=
202409031120 METAR COR EGKK 031120Z 22007KT 9999 SCT038 22/16 Q1012=
202409031150 METAR EGKK 031150Z 25007KT 210V280 9999 SCT026 21/16 Q1012=
202409031220 METAR EGKK 031220Z 25007KT 9999 SCT030 21/15 Q1013=
202409031250 METAR EGKK 031250Z 26009KT 230V290 9999 SCT028 22/15 Q1013=
202409031320 METAR EGKK 031320Z 26007KT 210V310 9999 SCT027 22/16 Q1013=
202409031350 METAR EGKK 031350Z 26008KT 9999 SCT029 22/16 Q1013=
202409031420 METAR EGKK 031420Z 25008KT 9999 SCT025 22/16 Q1013=
202409031450 METAR EGKK 031450Z 26011KT 9999 SCT028 22/16 Q1013=
202409031520 METAR EGKK 031520Z 29012KT 9999 FEW026 21/16 Q1013=
202409031550 METAR EGKK 031550Z 30010KT 9999 FEW025 20/15 Q1013=
202409031620 METAR EGKK 031620Z 31008KT 9999 SCT027 20/15 Q1013=
202409031650 METAR EGKK 031650Z 29010KT 9999 FEW028 20/14 Q1014=
202409031720 METAR EGKK 031720Z 33008KT 290V360 9999 FEW026 20/14 Q1014=
202409031750 METAR EGKK 031750Z 31008KT 9999 FEW025 19/14 Q1014=
202409031820 METAR EGKK 031820Z 32006KT 270V350 9999 FEW025 19/14 Q1014=
202409031850 METAR EGKK 031850Z 31004KT 260V350 CAVOK 19/14 Q1014=
202409031920 METAR EGKK 031920Z 30004KT 9999 FEW030 18/14 Q1015=
202409031950 METAR EGKK 031950Z 29004KT 260V330 9999 SCT038 18/14 Q1015=
202409032020 METAR EGKK 032020Z 29003KT 250V340 9999 FEW042 17/14 Q1015=
202409032050 METAR EGKK 032050Z VRB01KT 9999 SCT023 17/15 Q1015=
202409032120 METAR EGKK 032120Z 23003KT 9999 FEW022 SCT045 17/15 Q1016=
202409032150 METAR EGKK 032150Z 24002KT 9999 BKN020 17/15 Q1016=
202409032220 METAR EGKK 032220Z 26004KT 9999 FEW020 17/15 Q1016=
202409032250 METAR EGKK 032250Z 26005KT 9999 BKN044 17/15 Q1016=
202409032320 METAR EGKK 032320Z 25003KT 9999 BKN043 16/15 Q1016=
202409032350 METAR EGKK 032350Z 23004KT 9999 BKN043 16/15 Q1016=
202409040020 METAR EGKK 040020Z 23003KT 9999 BKN044 16/14 Q1016=
202409040050 METAR EGKK 040050Z 23003KT 9999 FEW020 SCT044 16/14 Q1016=
202409040120 METAR EGKK 040120Z VRB01KT 9999 FEW020 SCT043 15/14 Q1016=
202409040150 METAR EGKK 040150Z VRB01KT 9999 FEW049 15/14 Q1016=
202409040220 METAR EGKK 040220Z 26004KT 220V290 9999 FEW049 14/13 Q1016=
202409040250 METAR EGKK 040250Z 25005KT 220V290 9999 FEW044 14/13 Q1016=
202409040320 METAR EGKK 040320Z 21003KT 9999 FEW048 14/13 Q1016=
202409040350 METAR EGKK 040350Z 23002KT 9999 SCT049 13/13 Q1016=
202409040420 METAR EGKK 040420Z 24003KT 9999 FEW032 SCT048 14/13 Q1016=
202409040450 METAR EGKK 040450Z 24002KT 9999 FEW039 SCT048 14/13 Q1016=
202409040520 METAR EGKK 040520Z 30005KT 270V340 CAVOK 15/12 Q1016=
202409040550 METAR EGKK 040550Z 29005KT CAVOK 14/12 Q1017=
202409040620 METAR EGKK 040620Z 31004KT 270V350 CAVOK 14/12 Q1017=
202409040650 METAR EGKK 040650Z 30003KT 260V010 CAVOK 15/12 Q1017=
202409040720 METAR EGKK 040720Z 35003KT 290V040 CAVOK 16/12 Q1017=
202409040750 METAR EGKK 040750Z 30007KT CAVOK 15/12 Q1017=
202409040820 METAR EGKK 040820Z 31007KT 9999 FEW032 16/12 Q1017=
202409040850 METAR EGKK 040850Z 30007KT 280V340 9999 FEW030 16/12 Q1017=
202409040920 METAR EGKK 040920Z 34005KT 280V050 9999 FEW032 18/12 Q1017=
202409040950 METAR EGKK 040950Z 33006KT 280V020 9999 FEW032 18/12 Q1017=
202409041020 METAR EGKK 041020Z 33005KT 280V050 9999 FEW028 19/11 Q1017=
202409041050 METAR COR EGKK 041050Z VRB05KT 9999 FEW032 19/11 Q1017=
202409041120 METAR EGKK 041120Z 34007KT 290V020 9999 FEW033 19/11 Q1017=
202409041150 METAR EGKK 041150Z 35006KT 300V050 9999 SCT036 19/11 Q1017=
202409041220 METAR EGKK 041220Z 32005KT 210V010 9999 FEW038 19/10 Q1017=
202409041250 METAR EGKK 041250Z 31011KT 9999 SCT036 19/12 Q1017=
202409041320 METAR EGKK 041320Z 32009KT 9999 FEW042 18/12 Q1017=
202409041350 METAR EGKK 041350Z 34007KT 320V030 CAVOK 19/11 Q1017=
202409041420 METAR EGKK 041420Z 36006KT 300V090 9999 FEW032 19/12 Q1017=
202409041450 METAR EGKK 041450Z 34005KT 290V040 9999 FEW031 19/11 Q1017=
202409041520 METAR EGKK 041520Z 34006KT 300V010 9999 FEW033 19/11 Q1016=
202409041550 METAR EGKK 041550Z 35006KT CAVOK 19/11 Q1016=
202409041620 METAR EGKK 041620Z 03006KT 340V070 9999 FEW033 19/11 Q1016=
202409041650 METAR EGKK 041650Z 03006G16KT 330V080 CAVOK 19/11 Q1016=
202409041720 METAR EGKK 041720Z 05006KT CAVOK 18/11 Q1016=
202409041750 METAR EGKK 041750Z 05005KT CAVOK 18/11 Q1016=
202409041820 METAR EGKK 041820Z 05006KT CAVOK 18/11 Q1016=
202409041850 METAR EGKK 041850Z 05006KT 020V090 CAVOK 17/11 Q1016=
202409041920 METAR EGKK 041920Z 04007KT CAVOK 17/10 Q1016=
202409041950 METAR EGKK 041950Z 06006KT CAVOK 16/11 Q1017=
202409042020 METAR EGKK 042020Z 07005KT 9999 -RA FEW031 15/13 Q1017=
202409042050 METAR EGKK 042050Z 06006KT CAVOK 15/13 Q1017=
202409042120 METAR EGKK 042120Z 04006KT 9999 FEW047 15/13 Q1017=
202409042150 METAR EGKK 042150Z 01005KT 9999 SCT047 15/13 Q1017=
202409042220 METAR EGKK 042220Z VRB05KT 9999 FEW028 SCT045 15/13 Q1017=
202409042250 METAR EGKK 042250Z 03005KT 9999 -DZ FEW029 BKN045 15/13 Q1016=
202409042320 METAR EGKK 042320Z 04005KT 9999 BKN043 15/13 Q1016=
202409042350 METAR EGKK 042350Z 02006KT 9999 FEW016 BKN046 15/13 Q1016=
202409050020 METAR EGKK 050020Z 03008KT 9999 FEW015 BKN029 15/13 Q1016=
202409050050 METAR EGKK 050050Z 03007KT 9999 FEW014 BKN034 15/13 Q1016=
202409050120 METAR EGKK 050120Z 04008KT 9000 SCT012 BKN025 15/13 Q1016=
202409050150 METAR EGKK 050150Z 04008KT 9999 SCT013 BKN033 14/13 Q1016=
202409050220 METAR EGKK 050220Z 02006KT 9999 FEW016 BKN032 14/13 Q1015=
202409050250 METAR EGKK 050250Z 02007KT 9999 BKN034 14/13 Q1015=
202409050320 METAR EGKK 050320Z 02006KT 9999 SCT036 14/13 Q1015=
202409050350 METAR EGKK 050350Z 03008KT 9999 FEW013 14/12 Q1015=
202409050420 METAR EGKK 050420Z 02007KT 9999 SCT010 14/13 Q1015=
202409050450 METAR EGKK 050450Z 03009KT 9999 -RA BKN011 14/13 Q1014=
202409050520 METAR EGKK 050520Z 03008KT 8000 -RA FEW010 BKN043 14/13 Q1014=
202409050550 METAR EGKK 050550Z 01007KT 9999 FEW017 BKN034 15/13 Q1014=
202409050620 METAR EGKK 050620Z 02011KT 9999 -RA BKN010 14/13 Q1014=
202409050650 METAR EGKK 050650Z 01009KT 340V100 9999 BKN009 15/13 Q1014=
202409050720 METAR EGKK 050720Z 01009G19KT 350V060 9999 -RA BKN009 15/14 Q1014=
202409050750 METAR EGKK 050750Z 36009KT 9999 -RA SCT008 14/14 Q1013=
202409050820 METAR EGKK 050820Z 35008KT 9999 -RA BKN007 15/14 Q1013=
202409050850 METAR EGKK 050850Z 34010KT 330V050 9000 -RA SCT007 BKN009 15/14 Q1013=
202409050920 METAR EGKK 050920Z 35008G19KT 330V050 8000 -RA BKN006 15/15 Q1012=
202409050950 METAR EGKK 050950Z 35009KT 9999 -RA BKN007 16/15 Q1011=
202409051020 METAR EGKK 051020Z 01011KT 340V100 9999 -RA SCT007 BKN010 16/16 Q1011=
202409051050 METAR EGKK 051050Z 02013KT 9000 -RA BKN009 17/16 Q1010=
202409051120 METAR EGKK 051120Z 03011KT 9999 FEW011 BKN017 17/16 Q1010=
202409051150 METAR EGKK 051150Z 03012KT 010V070 9999 BKN015 18/16 Q1009=
202409051220 METAR EGKK 051220Z 04012KT 7000 -RA BKN017 18/16 Q1009=
202409051250 METAR EGKK 051250Z 05011KT 020V080 3000 RA BKN015 17/16 Q1009=
202409051320 METAR EGKK 051320Z 05011KT 030V120 7000 RA VCSH SCT015 BKN030CB 17/16 Q1009 RERA=
202409051350 METAR EGKK 051350Z 05011KT 9000 -RA SCT013 SCT030CB 17/17 Q1008 RERA=
202409051420 METAR EGKK 051420Z 04015KT 8000 -RA SCT015CB BKN041CB 18/17 Q1008=
202409051450 METAR EGKK 051450Z 05012KT 020V090 9999 BKN009 BKN023 18/18 Q1008=
202409051520 METAR EGKK 051520Z 05010KT 9999 BKN009 19/18 Q1008=
202409051550 METAR EGKK 051550Z 05012KT 9999 BKN009 19/18 Q1008=
202409051620 METAR EGKK 051620Z 05010KT 9999 BKN010 19/18 Q1008=
202409051650 METAR EGKK 051650Z 06009KT 3900 -RA BKN007 19/18 Q1008=
202409051720 METAR EGKK 051720Z 05008KT 4500 BR BKN005 19/18 Q1008=
202409051750 METAR EGKK 051750Z 05008G18KT 020V100 5000 BR BKN005 19/18 Q1008=
202409051820 METAR EGKK 051820Z 05007KT 5000 BR BKN006 19/18 Q1009=
202409051850 METAR EGKK 051850Z 06006KT 020V080 3000 -DZ BKN004 19/18 Q1009=
202409051920 METAR EGKK 051920Z 07006KT 3800 BR BKN006 19/18 Q1009=
202409051950 METAR EGKK 051950Z 09004KT 060V140 2500 -DZ BR BKN003 19/19 Q1010=
202409052020 METAR EGKK 052020Z 13003KT 3100 -DZ BR BKN003 BKN016 18/18 Q1010=
202409052050 METAR EGKK 052050Z VRB02KT 3500 -RA BR SCT005 BKN022 18/18 Q1010=
202409052120 METAR EGKK 052120Z 08002KT 4000 DZ BR BKN005 18/18 Q1010=
202409052150 METAR EGKK 052150Z VRB02KT 5000 -DZ BKN004 18/18 Q1010 REDZ=
202409052220 METAR EGKK 052220Z 19003KT 6000 BKN004 18/18 Q1011=
202409052250 METAR EGKK 052250Z 12001KT 7000 SCT004 BKN011 18/17 Q1011=
202409052320 METAR EGKK 052320Z 20002KT 7000 SCT004 BKN010 18/17 Q1010=
202409052350 METAR EGKK 052350Z 21005KT 7000 SCT004 BKN008 17/17 Q1011=
202409060020 METAR EGKK 060020Z 23004KT 190V260 7000 SCT004 BKN008 17/16 Q1011=
202409060050 METAR EGKK 060050Z 23004KT 7000 FEW005 BKN008 17/16 Q1010=
202409060120 METAR EGKK 060120Z VRB02KT 8000 FEW008 BKN011 16/16 Q1010=
202409060150 METAR EGKK 060150Z VRB02KT 8000 FEW004 BKN012 17/16 Q1011=
202409060220 METAR EGKK 060220Z VRB02KT 7000 SCT006 BKN013 17/16 Q1011=
202409060250 METAR EGKK 060250Z 25003KT 210V270 8000 SCT005 BKN016 16/16 Q1011=
202409060320 METAR EGKK 060320Z VRB02KT 9000 BKN015 16/16 Q1011=
202409060350 METAR EGKK 060350Z 24002KT 9000 BKN014 16/16 Q1011=
202409060420 METAR EGKK 060420Z 23002KT 9000 FEW014 SCT018 16/16 Q1010=
202409060450 METAR EGKK 060450Z 23002KT 9000 BKN014 16/16 Q1010=
202409060520 METAR EGKK 060520Z 23003KT 7000 3400N OVC013 16/16 Q1010=
202409060550 METAR EGKK 060550Z 18004KT 130V250 4000 RA OVC013 16/16 Q1011=
202409060620 METAR EGKK 060620Z 22003KT 6000 -SHRA FEW005 BKN018 16/16 Q1011 RETSRA=
202409060650 METAR EGKK 060650Z 21004KT 9999 FEW004 BKN020 16/16 Q1011=
202409060720 METAR EGKK 060720Z 30006KT 5000 -RA FEW006 BKN017 16/15 Q1010 RERA=
202409060750 METAR EGKK 060750Z 23005KT 200V270 7000 -RA FEW007 FEW016CB SCT041 15/15 Q1010 RETSRA=
202409060820 METAR EGKK 060820Z 20004KT 160V240 7000 3000SW -RA SCT004 SCT023 15/15 Q1010=
202409060850 METAR EGKK 060850Z 27005KT 7000 -RA FEW003 SCT026 BKN035 16/16 Q1010 RERA=
202409060920 METAR EGKK 060920Z 26003KT 170V320 9999 SCT005 16/16 Q1010=
202409060950 METAR EGKK 060950Z 27005KT 230V300 9999 FEW005 BKN012 17/17 Q1010=
202409061020 METAR EGKK 061020Z 21005KT 9999 FEW005 BKN009 17/16 Q1010=
202409061050 METAR EGKK 061050Z 21004KT 9999 BKN006 17/17 Q1010=
202409061120 METAR EGKK 061120Z 22007KT 9999 BKN005 17/16 Q1010=
202409061150 METAR EGKK 061150Z 23006KT 170V240 9999 FEW005 BKN010 17/16 Q1010=
202409061220 METAR EGKK 061220Z 23007KT 9999 SCT007 BKN014 16/16 Q1010=
202409061250 METAR EGKK 061250Z 21006KT 7000 -RA FEW007 BKN016 16/15 Q1011=
202409061320 METAR EGKK 061320Z 24007KT 9999 FEW007 BKN014 16/16 Q1010=
202409061350 METAR EGKK 061350Z 23007KT 9999 SCT007 BKN015 16/15 Q1010=
202409061420 METAR EGKK 061420Z 24005KT 210V270 9999 SCT007 BKN013 16/15 Q1010=
202409061450 METAR EGKK 061450Z 24007KT 9999 FEW009 BKN016 16/15 Q1010=
202409061520 METAR EGKK 061520Z 24006KT 9999 -RA BKN016 16/15 Q1010=
202409061550 METAR EGKK 061550Z 25005KT 9999 -RA BKN015 16/15 Q1010=
202409061620 METAR EGKK 061620Z 24004KT 9999 FEW008 BKN016 16/15 Q1010=
202409061650 METAR EGKK 061650Z 25003KT 220V290 9999 FEW008 BKN017 16/15 Q1010=
202409061720 METAR EGKK 061720Z 22003KT 9999 FEW008 BKN016 16/15 Q1010=
202409061750 METAR EGKK 061750Z 21004KT 9999 FEW006 BKN017 16/15 Q1010=
202409061820 METAR EGKK 061820Z 31004KT 240V330 9999 FEW008 BKN020 16/15 Q1010=
202409061850 METAR EGKK 061850Z VRB02KT 9999 FEW025 16/15 Q1010=
202409061920 METAR EGKK 061920Z 23002KT 9999 BKN032 15/15 Q1011=
202409061950 METAR EGKK 061950Z 21003KT 9999 FEW008 BKN028 15/15 Q1011=
202409062020 METAR EGKK 062020Z VRB02KT 9999 FEW035 15/15 Q1011=
202409062050 METAR EGKK 062050Z 17002KT 9999 FEW035 15/15 Q1011=
202409062120 METAR EGKK 062120Z 17003KT CAVOK 15/15 Q1011=
202409062150 METAR EGKK 062150Z 16003KT CAVOK 15/14 Q1011=
202409062220 METAR EGKK 062220Z NIL=
202409062250 METAR EGKK 062250Z VRB02KT CAVOK 14/14 Q1011=
202409062320 METAR EGKK 062320Z VRB02KT CAVOK 14/14 Q1011=
202409062350 METAR EGKK 062350Z 06001KT CAVOK 14/14 Q1011=
202409070020 METAR EGKK 070020Z VRB01KT 9999 1700N PRFG NSC 14/14 Q1011=
202409070050 METAR EGKK 070050Z VRB02KT 2000 VCFG NSC 14/13 Q1011=
202409070120 METAR EGKK 070120Z VRB01KT 5000 VCFG NSC 13/13 Q1011=
202409070150 METAR COR EGKK 070150Z 18001KT 5000 2000W PRFG NSC 13/13 Q1011=
202409070220 METAR EGKK 070220Z 35002KT 5000 BR VCFG NSC 13/13 Q1011=
202409070250 METAR COR EGKK 070250Z 02003KT 0800 R26L/P1500N FG NSC 13/13 Q1011=
202409070320 METAR EGKK 070320Z 03003KT 270V090 1700 BR PRFG NSC 13/13 Q1010=
202409070350 METAR EGKK 070350Z 19002KT 3500 BR PRFG NSC 13/13 Q1010=
202409070420 METAR EGKK 070420Z 08003KT 4800 BR VCFG NSC 12/12 Q1010=
202409070450 METAR EGKK 070450Z VRB01KT 4000 BR VCFG NSC 12/12 Q1010=
202409070520 METAR EGKK 070520Z VRB02KT 1500 0500W R26L/P1500N BR PRFG NSC 13/13 Q1010=
202409070550 METAR EGKK 070550Z 11004KT 3000 BR VCFG NSC 13/13 Q1010=
202409070620 METAR EGKK 070620Z VRB02KT 7000 3000NE BR VCFG NSC 13/13 Q1011=
202409070650 METAR EGKK 070650Z 05004KT 340V090 9000 VCFG FEW002 14/14 Q1011=
202409070720 METAR EGKK 070720Z 06003KT 300V100 9000 VCFG NSC 14/13 Q1011=
202409070750 METAR EGKK 070750Z 11002KT 9000 FEW038 14/14 Q1011=
202409070820 METAR EGKK 070820Z 05003KT 010V090 CAVOK 14/14 Q1011=
202409070850 METAR EGKK 070850Z 10003KT CAVOK 15/14 Q1011=
202409070920 METAR EGKK 070920Z 08003KT 020V110 CAVOK 15/14 Q1011=
202409070950 METAR EGKK 070950Z 06004KT 350V110 CAVOK 16/15 Q1011=
202409071020 METAR EGKK 071020Z 07003KT 340V110 9999 FEW028 17/15 Q1010=
202409071050 METAR EGKK 071050Z 06003KT 020V100 CAVOK 18/16 Q1010=
202409071120 METAR EGKK 071120Z 04003KT 350V080 CAVOK 18/16 Q1010=
202409071150 METAR EGKK 071150Z VRB01KT 9999 -RA NSC 18/17 Q1010=
202409071220 METAR EGKK 071220Z 02003KT 350V090 9999 FEW010 18/16 Q1009=
202409071250 METAR EGKK 071250Z 06003KT 360V100 9999 FEW011 18/16 Q1009=
202409071320 METAR EGKK 071320Z 04004KT 020V080 9999 FEW010 19/15 Q1009=
202409071350 METAR EGKK 071350Z 01004KT 320V060 9999 -RA NSC 18/16 Q1009=
202409071420 METAR EGKK 071420Z 04005KT 360V090 9999 FEW014 18/16 Q1009=
202409071450 METAR EGKK 071450Z VRB03KT 9999 FEW014 19/16 Q1009=
202409071520 METAR EGKK 071520Z 03004KT 340V090 9999 FEW049 19/15 Q1009=
202409071550 METAR EGKK 071550Z VRB02KT 9999 BKN048 19/16 Q1008=
202409071620 METAR EGKK 071620Z 03004KT 350V110 9999 BKN048 19/16 Q1008=
202409071650 METAR EGKK 071650Z 03005KT 340V100 9999 FEW016 BKN046 19/16 Q1008=
202409071720 METAR EGKK 071720Z VRB05KT 9999 BKN041 19/16 Q1008=
202409071750 METAR EGKK 071750Z 01006KT 9999 BKN041 19/16 Q1008=
202409071820 METAR EGKK 071820Z 04005KT 360V120 9999 BKN043 18/15 Q1008=
202409071850 METAR EGKK 071850Z 06005KT 9999 BKN040 18/16 Q1008=
202409071920 METAR EGKK 071920Z 04006KT 9999 BKN036 18/15 Q1008=
202409071950 METAR EGKK 071950Z 05005KT 9999 BKN033 18/15 Q1008=
202409072020 METAR EGKK 072020Z 09003KT 010V130 9999 FEW032 17/15 Q1008=
202409072050 METAR EGKK 072050Z 06005KT 020V120 CAVOK 17/14 Q1007=
202409072120 METAR EGKK 072120Z 06003KT 9999 BKN019 16/15 Q1007=
202409072150 METAR EGKK 072150Z 07003KT 9999 BKN017 16/15 Q1007=
202409072220 METAR EGKK 072220Z VRB02KT 9999 SCT016 16/15 Q1006=
202409072250 METAR EGKK 072250Z 12002KT 9999 FEW014 16/15 Q1007=
202409072320 METAR EGKK 072320Z 06002KT 9999 FEW033 15/15 Q1006=
202409072350 METAR EGKK 072350Z 05005KT 6000 TS SHRA SCT010CB 16/15 Q1006 RETSRA=
202409080020 METAR EGKK 080020Z 03007KT 9999 -RA SCT022CB 16/16 Q1006 RETS RESHRA=
202409080050 METAR EGKK 080050Z 09003KT 9999 SCT017 BKN025 16/15 Q1005=
202409080120 METAR EGKK 080120Z VRB02KT 9999 -RA BKN016CB BKN025 16/15 Q1006=
202409080150 METAR EGKK 080150Z 06002KT 9999 SCT006 BKN016CB 16/15 Q1006=
202409080220 METAR EGKK 080220Z 07005KT 040V130 4300 TSRA SCT004CB BKN016 15/15 Q1006 RETSRA RESHRA=
202409080250 METAR EGKK 080250Z VRB01KT 5000 -RA VCTS SCT013CB SCT023CB BKN039 15/15 Q1005 RETSRA=
202409080320 METAR EGKK 080320Z 13002KT 8000 FEW011 15/15 Q1005=
202409080350 METAR EGKK 080350Z 08004KT 4000 BR BKN010 14/14 Q1004=
202409080420 METAR EGKK 080420Z 10004KT 9999 3800S BR SCT012 SCT040 15/15 Q1004=
202409080450 METAR EGKK 080450Z 12004KT 9000 1500S BR FEW040 15/15 Q1004=
202409080520 METAR EGKK 080520Z 14003KT 9000 4000N FEW015TCU SCT034 15/15 Q1004=
202409080550 METAR EGKK 080550Z VRB02KT 9999 SCT013 BKN023 15/15 Q1005=
202409080620 METAR EGKK 080620Z 11003KT 080V150 9999 -RA FEW008 SCT019 15/15 Q1005=
202409080650 METAR EGKK 080650Z 11003KT 060V140 9999 VCSH FEW011 SCT017 16/16 Q1005=
202409080720 METAR EGKK 080720Z 15006KT 120V190 9999 FEW008 SCT017 16/15 Q1005=
202409080750 METAR EGKK 080750Z 16007KT 120V180 9999 SCT009 16/15 Q1004=
202409080820 METAR EGKK 080820Z 15005KT 120V220 9999 FEW018 17/15 Q1004=
202409080850 METAR EGKK 080850Z 17005KT 140V220 9999 FEW012 SCT023 17/16 Q1005=
202409080920 METAR EGKK 080920Z 17006KT 130V200 9999 SCT012 18/15 Q1004=
202409080950 METAR EGKK 080950Z 19006KT 160V220 9999 SCT015 18/15 Q1004=
202409081020 METAR EGKK 081020Z 17006KT 130V200 9999 SCT015 SCT022 18/15 Q1004=
202409081050 METAR EGKK 081050Z 17004KT 130V210 9999 FEW018 SCT029 18/14 Q1004=
202409081120 METAR EGKK 081120Z 14004KT 100V180 9999 VCSH SCT018 18/15 Q1004=
202409081150 METAR EGKK 081150Z 11004KT 9999 VCSH SCT017 SCT022 17/15 Q1004=
202409081220 METAR EGKK 081220Z 12006KT 9999 -RA FEW014 SCT026 15/14 Q1004 RESHRA=
202409081250 METAR EGKK 081250Z 15004KT 9999 -RA FEW019 16/15 Q1004=
202409081320 METAR EGKK 081320Z 18004KT 140V210 9999 FEW010 SCT027 17/16 Q1003=
202409081350 METAR EGKK 081350Z 22003KT 160V260 9999 FEW008 SCT024 17/16 Q1003=
202409081420 METAR EGKK 081420Z 19006KT 9999 FEW007 SCT011 19/16 Q1003=
202409081450 METAR EGKK 081450Z 20005KT 180V240 9999 FEW012 FEW024CB 18/15 Q1003=
202409081520 METAR EGKK 081520Z 21004KT 9999 FEW014 FEW030CB 18/16 Q1003=
202409081550 METAR EGKK 081550Z 19005KT 140V220 9999 FEW012 FEW035TCU 19/16 Q1003=
202409081620 METAR EGKK 081620Z 22005KT 180V260 9999 SCT015 19/15 Q1003=
202409081650 METAR EGKK 081650Z 22004KT 170V260 9999 FEW016 19/15 Q1003=
202409081720 METAR EGKK 081720Z VRB02KT 9999 FEW016 19/14 Q1003=
202409081750 METAR EGKK 081750Z 23003KT 9999 FEW016 17/14 Q1003=
202409081820 METAR EGKK 081820Z VRB02KT 9999 VCSH FEW029 17/15 Q1003=
202409081850 METAR EGKK 081850Z 19002KT 9999 VCSH SCT028 16/15 Q1003=
202409081920 METAR EGKK 081920Z 19002KT 9999 SCT025 16/15 Q1003=
202409081950 METAR EGKK 081950Z 22002KT 9999 SCT019 15/15 Q1003=
202409082020 METAR EGKK 082020Z 25004KT 9999 FEW018 14/14 Q1003=
202409082050 METAR EGKK 082050Z 25004KT CAVOK 15/14 Q1004=
202409082120 METAR EGKK 082120Z 23005KT CAVOK 14/14 Q1004=
202409082150 METAR EGKK 082150Z 25005KT CAVOK 14/13 Q1004=
202409082220 METAR EGKK 082220Z 24003KT 9999 FEW033 14/13 Q1004=
202409082250 METAR EGKK 082250Z 25003KT 9999 SCT015 14/13 Q1004=
202409082320 METAR EGKK 082320Z 27005KT 9999 SCT010 15/14 Q1004=
202409082350 METAR EGKK 082350Z 26006KT 9999 BKN009 15/15 Q1004=
202409090020 METAR EGKK 090020Z 25005KT 9999 BKN010 16/15 Q1004=
202409090050 METAR EGKK 090050Z 25005KT 9999 BKN010 16/15 Q1004=
202409090120 METAR EGKK 090120Z 30007KT 9999 BKN008 16/15 Q1005=
202409090150 METAR EGKK 090150Z 30008KT 9999 BKN009 16/15 Q1005=
202409090220 METAR EGKK 090220Z 30013KT 9999 BKN011 16/14 Q1005=
202409090250 METAR EGKK 090250Z 30009KT 4800 -RADZ BKN007 15/15 Q1005=
202409090320 METAR EGKK 090320Z 30009KT 9999 BKN007 15/15 Q1006=
202409090350 METAR EGKK 090350Z 30010KT 9999 BKN008 15/14 Q1006=
202409090420 METAR EGKK 090420Z 30012KT 9999 BKN008 14/14 Q1006=
202409090450 METAR EGKK 090450Z 30012KT 9999 BKN008 14/13 Q1007=
202409090520 METAR EGKK 090520Z 30009KT 9999 BKN008 14/13 Q1007=
202409090550 METAR EGKK 090550Z 31012KT 9999 SCT007 BKN013 15/13 Q1007=
202409090620 METAR EGKK 090620Z 30010KT 270V330 9999 BKN009 14/13 Q1008=
202409090650 METAR EGKK 090650Z 30012G22KT 9999 6000N OVC012 14/12 Q1009=
202409090720 METAR EGKK 090720Z 30013KT 9999 VCSH SCT009 BKN033 13/12 Q1009=
202409090750 METAR EGKK 090750Z 31014KT 9999 BKN013 14/12 Q1009=
202409090820 METAR EGKK 090820Z 32014KT 9999 BKN014 14/12 Q1009=
202409090850 METAR EGKK 090850Z 30016KT 9999 BKN016 15/11 Q1010=
202409090920 METAR EGKK 090920Z 30013KT 9999 BKN016 15/11 Q1010=
202409090950 METAR EGKK 090950Z 31013KT 9999 BKN016 15/12 Q1010=
202409091020 METAR EGKK 091020Z 32015KT 9999 BKN017 16/12 Q1010=
202409091050 METAR EGKK 091050Z 32015KT 9999 BKN018 16/11 Q1010=
202409091120 METAR EGKK 091120Z 32012KT 9999 BKN019 16/11 Q1011=
202409091150 METAR EGKK 091150Z 32013KT 9999 BKN019 16/11 Q1011=
202409091220 METAR EGKK 091220Z 31013KT 9999 BKN020 16/11 Q1012=
202409091250 METAR EGKK 091250Z 32012KT 9999 BKN023 16/11 Q1012=
202409091320 METAR EGKK 091320Z 31014KT 9999 BKN023 16/11 Q1012=
202409091350 METAR EGKK 091350Z 32011KT 9999 BKN024 17/11 Q1012=
202409091420 METAR EGKK 091420Z 31012KT 9999 BKN024 17/11 Q1012=
202409091450 METAR EGKK 091450Z 31012KT 9999 BKN028 17/10 Q1013=
202409091520 METAR EGKK 091520Z 32012KT 9999 FEW027 BKN037 16/10 Q1013=
202409091550 METAR EGKK 091550Z 31010KT 9999 FEW027 SCT037 17/10 Q1013=
202409091620 METAR EGKK 091620Z 30009KT 9999 SCT031 17/10 Q1013=
202409091650 METAR EGKK 091650Z 30007KT 9999 SCT032 16/10 Q1013=
202409091720 METAR EGKK 091720Z 29008KT 9999 SCT034 16/10 Q1013=
202409091750 METAR EGKK 091750Z 28006KT 9999 FEW040 16/10 Q1013=
202409091820 METAR EGKK 091820Z 24005KT CAVOK 15/10 Q1013=
202409091850 METAR EGKK 091850Z 23004KT CAVOK 14/10 Q1014=
202409091920 METAR EGKK 091920Z 22003KT CAVOK 13/10 Q1014=
202409091950 METAR EGKK 091950Z 23003KT CAVOK 13/10 Q1014=
202409092020 METAR EGKK 092020Z 23005KT CAVOK 13/10 Q1014=
202409092050 METAR EGKK 092050Z 22005KT CAVOK 12/10 Q1014=
202409092120 METAR EGKK 092120Z 23005KT CAVOK 12/10 Q1014=
202409092150 METAR EGKK 092150Z 22006KT CAVOK 12/10 Q1015=
202409092220 METAR EGKK 092220Z 24007KT CAVOK 12/09 Q1015=
202409092250 METAR EGKK 092250Z 23005KT CAVOK 11/09 Q1014=
202409092320 METAR EGKK 092320Z 22006KT CAVOK 11/09 Q1014=
202409092350 METAR EGKK 092350Z 23005KT CAVOK 11/09 Q1014=
202409100020 METAR EGKK 100020Z 21005KT CAVOK 10/09 Q1014=
202409100050 METAR EGKK 100050Z 22004KT CAVOK 10/08 Q1014=
202409100120 METAR EGKK 100120Z 21005KT CAVOK 10/08 Q1014=
202409100150 METAR EGKK 100150Z 21005KT CAVOK 10/08 Q1013=
202409100220 METAR EGKK 100220Z 22005KT CAVOK 10/08 Q1013=
202409100250 METAR EGKK 100250Z 22004KT CAVOK 10/08 Q1013=
202409100320 METAR EGKK 100320Z 22005KT CAVOK 10/09 Q1013=
202409100350 METAR EGKK 100350Z 21005KT CAVOK 10/09 Q1012=
202409100420 METAR EGKK 100420Z 24003KT CAVOK 10/09 Q1012=
202409100450 METAR EGKK 100450Z 24005KT CAVOK 10/09 Q1012=
202409100520 METAR EGKK 100520Z 22006KT CAVOK 11/10 Q1012=
202409100550 METAR EGKK 100550Z 22007KT 9999 SCT018 11/10 Q1011=
202409100620 METAR EGKK 100620Z 22005KT 9999 BKN020 12/11 Q1011=
202409100650 METAR EGKK 100650Z 22007KT 9999 FEW016 BKN024 13/12 Q1011=
202409100720 METAR EGKK 100720Z 21007KT 9999 FEW015 BKN024 14/12 Q1010=
202409100750 METAR EGKK 100750Z 23010KT 9999 FEW018 BKN028 15/13 Q1010=
202409100820 METAR EGKK 100820Z NIL=
202409100850 METAR EGKK 100850Z 23011KT 9999 FEW010 BKN035 15/13 Q1009=
202409100920 METAR EGKK 100920Z 23011KT 9999 -RA BKN018 16/13 Q1009=
202409100950 METAR EGKK 100950Z 24011KT 9999 BKN019 16/13 Q1009=
202409101020 METAR EGKK 101020Z 24011KT 9999 BKN020 17/13 Q1009=
202409101050 METAR EGKK 101050Z 24011KT 9999 BKN020 17/13 Q1008=
202409101120 METAR EGKK 101120Z 24013KT 9999 SCT020 BKN028 17/13 Q1008=
202409101150 METAR EGKK 101150Z 24014KT 9999 SCT022 BKN032 17/13 Q1008=
202409101220 METAR EGKK 101220Z 25013KT 9999 BKN025 18/13 Q1008=
202409101250 METAR EGKK 101250Z 25013KT 9999 SCT029 18/13 Q1008=
202409101320 METAR EGKK 101320Z 25013KT 9999 SCT032 18/12 Q1008=
202409101350 METAR EGKK 101350Z 24013KT 9999 SCT033 19/12 Q1007=
202409101420 METAR EGKK 101420Z 25010KT 9999 FEW032 SCT041 19/13 Q1007=
202409101450 METAR EGKK 101450Z 24010KT 9999 SCT028 SCT041 18/13 Q1007=
202409101520 METAR COR EGKK 101520Z 25010KT 9999 -SHRA SCT033 17/13 Q1007=
202409101550 METAR EGKK 101550Z 24007KT 9000 -SHRA SCT032 17/13 Q1007=
202409101620 METAR EGKK 101620Z 24008KT 9999 -RA FEW032 16/13 Q1007=
202409101650 METAR EGKK 101650Z 22007KT 9999 -RA SCT049 15/13 Q1006=
202409101720 METAR EGKK 101720Z 22009KT 9999 BKN029 15/13 Q1006=
202409101750 METAR EGKK 101750Z 21008KT 9999 BKN018 15/13 Q1006=
202409101820 METAR EGKK 101820Z 22009KT 9999 SCT013 BKN019 15/14 Q1005=
202409101850 METAR EGKK 101850Z 22009KT 9999 -RA SCT013 BKN018 15/14 Q1005=
202409101920 METAR EGKK 101920Z 24012KT 3000 RADZ BKN012 15/14 Q1005=
202409101950 METAR EGKK 101950Z 31010KT 8000 -RA FEW007 BKN013 13/13 Q1006 RERA REDZ=
202409102020 METAR EGKK 102020Z 30011KT 8000 -RADZ SCT007 BKN015 13/12 Q1006=
202409102050 METAR EGKK 102050Z 33009KT 9999 -RA FEW008 SCT021 11/10 Q1007=
202409102120 METAR EGKK 102120Z 31007KT 9999 FEW010 BKN036 11/10 Q1007=
202409102150 METAR EGKK 102150Z 31007KT 9999 FEW049 11/10 Q1007=
202409102220 METAR EGKK 102220Z 29006KT CAVOK 10/09 Q1007=
202409102250 METAR EGKK 102250Z 29008KT CAVOK 10/09 Q1007=
202409102320 METAR EGKK 102320Z 28006KT CAVOK 10/08 Q1007=
202409102350 METAR EGKK 102350Z 26006KT CAVOK 09/08 Q1008=
202409110020 METAR EGKK 110020Z 24005KT CAVOK 09/08 Q1008=
202409110050 METAR EGKK 110050Z 25006KT CAVOK 09/07 Q1008=
202409110120 METAR EGKK 110120Z 24004KT CAVOK 09/07 Q1008=
202409110150 METAR EGKK 110150Z 26005KT CAVOK 08/07 Q1008=
202409110220 METAR EGKK 110220Z 25007KT CAVOK 08/07 Q1008=
202409110250 METAR EGKK 110250Z 25006KT CAVOK 08/07 Q1009=
202409110320 METAR EGKK 110320Z 25005KT CAVOK 09/07 Q1009=
202409110350 METAR EGKK 110350Z 24005KT CAVOK 09/07 Q1009=
202409110420 METAR EGKK 110420Z 25007KT CAVOK 09/07 Q1009=
202409110450 METAR EGKK 110450Z 24006KT CAVOK 08/07 Q1009=
202409110520 METAR EGKK 110520Z 24006KT CAVOK 08/07 Q1009=
202409110550 METAR EGKK 110550Z 25009KT CAVOK 08/07 Q1009=
202409110620 METAR EGKK 110620Z 25008KT CAVOK 08/07 Q1009=
202409110650 METAR EGKK 110650Z 25009KT CAVOK 09/07 Q1009=
202409110720 METAR EGKK 110720Z 26012KT CAVOK 10/07 Q1009=
202409110750 METAR EGKK 110750Z 26013KT CAVOK 11/08 Q1009=
202409110820 METAR EGKK 110820Z 27012KT 9999 FEW012 12/07 Q1010=
202409110850 METAR EGKK 110850Z 28014KT 9999 FEW026 12/07 Q1010=
202409110920 METAR EGKK 110920Z 27013KT 250V310 9999 SCT030 13/07 Q1010=
202409110950 METAR EGKK 110950Z 29013KT 9999 SCT031 13/07 Q1010=
202409111020 METAR EGKK 111020Z 28014KT 9999 SCT035 13/06 Q1009=
202409111050 METAR EGKK 111050Z 28014KT 250V310 9999 SCT035 14/06 Q1009=
202409111120 METAR EGKK 111120Z 29016KT 9999 FEW036 14/05 Q1009=
202409111150 METAR EGKK 111150Z 27014KT 9999 FEW039 15/05 Q1010=
202409111220 METAR EGKK 111220Z 30015KT 9999 FEW042 15/05 Q1010=
202409111250 METAR EGKK 111250Z 28014KT 9999 FEW046 16/05 Q1010=
202409111320 METAR EGKK 111320Z 28015KT 9999 FEW045 16/05 Q1010=
202409111350 METAR EGKK 111350Z 27015KT 9999 FEW049 15/05 Q1010=
202409111420 METAR EGKK 111420Z 27013KT 230V300 9999 FEW030 16/06 Q1010=
202409111450 METAR EGKK 111450Z 27015KT 9999 FEW038 16/05 Q1009=
202409111520 METAR EGKK 111520Z 27016KT 9999 FEW049CB 16/05 Q1009=
202409111550 METAR EGKK 111550Z 27015KT 9999 VCSH FEW050CB 14/05 Q1009=
202409111620 METAR EGKK 111620Z 27019KT 9999 VCSH FEW030CB FEW045 14/05 Q1010=
202409111650 METAR EGKK 111650Z 29009KT 260V330 9999 -SHRA SCT035CB SCT045 14/06 Q1010=
202409111720 METAR EGKK 111720Z 28008KT 250V320 9999 -TSRA FEW031CB SCT041 10/08 Q1011 RETSRA=
202409111750 METAR EGKK 111750Z 23005KT 210V280 9999 FEW049CB 10/08 Q1011 RETSRA=
202409111820 METAR EGKK 111820Z 26006KT 9999 FEW045 10/08 Q1011=
202409111850 METAR EGKK 111850Z 23006KT 9999 FEW045 09/08 Q1011=
202409111920 METAR EGKK 111920Z 23004KT CAVOK 08/08 Q1011=
202409111950 METAR EGKK 111950Z 25006KT CAVOK 08/07 Q1012=
202409112020 METAR EGKK 112020Z 27006KT CAVOK 08/07 Q1012=
202409112050 METAR EGKK 112050Z 27007KT CAVOK 08/07 Q1012=
202409112120 METAR EGKK 112120Z 25007KT CAVOK 08/06 Q1012=
202409112150 METAR EGKK 112150Z 26006KT CAVOK 07/06 Q1013=
202409112220 METAR EGKK 112220Z 25007KT 9999 FEW043 08/06 Q1013=
202409112250 METAR EGKK 112250Z 25005KT 9999 FEW040 07/06 Q1013=
202409112320 METAR EGKK 112320Z 26005KT CAVOK 07/05 Q1013=
202409112350 METAR EGKK 112350Z 25004KT CAVOK 07/05 Q1013=
202409120020 METAR EGKK 120020Z VRB02KT 9999 FEW040 06/06 Q1013=
202409120050 METAR EGKK 120050Z 26004KT 190V310 CAVOK 07/06 Q1013=
202409120120 METAR EGKK 120120Z 28006KT CAVOK 08/05 Q1013=
202409120150 METAR EGKK 120150Z 31007KT CAVOK 08/05 Q1013=
202409120220 METAR EGKK 120220Z 30005KT CAVOK 08/05 Q1013=
202409120250 METAR EGKK 120250Z 30007KT CAVOK 08/05 Q1013=
202409120320 METAR EGKK 120320Z 30007KT CAVOK 08/05 Q1013=
202409120350 METAR EGKK 120350Z 29006KT CAVOK 08/05 Q1013=
202409120420 METAR EGKK 120420Z 28004KT CAVOK 07/05 Q1014=
202409120450 METAR EGKK 120450Z 29006KT CAVOK 07/05 Q1014=
202409120520 METAR EGKK 120520Z VRB02KT CAVOK 06/05 Q1014=
202409120550 METAR EGKK 120550Z 27006KT CAVOK 07/05 Q1014=
202409120620 METAR EGKK 120620Z VRB02KT CAVOK 07/05 Q1015=
202409120650 METAR EGKK 120650Z VRB04KT CAVOK 08/06 Q1015=
202409120720 METAR EGKK 120720Z VRB02KT CAVOK 09/06 Q1015=
202409120750 METAR EGKK 120750Z 31008KT 270V340 CAVOK 10/06 Q1015=
202409120820 METAR EGKK 120820Z 31008KT 280V360 CAVOK 11/06 Q1015=
202409120850 METAR EGKK 120850Z 31011KT 280V340 9999 FEW023 12/07 Q1016=
202409120920 METAR EGKK 120920Z 30009KT 9999 FEW024 12/06 Q1016=
202409120950 METAR EGKK 120950Z 31008KT 260V030 9999 SCT027 13/07 Q1016=
202409121020 METAR EGKK 121020Z 31009KT 280V340 9999 SCT028 13/07 Q1016=
202409121050 METAR EGKK 121050Z 32011KT 9999 SCT033 13/06 Q1016=
202409121120 METAR EGKK 121120Z 31009KT 260V340 9999 SCT034 14/06 Q1016=
202409121150 METAR EGKK 121150Z 31008KT 270V340 9999 SCT036 14/06 Q1016=
202409121220 METAR EGKK 121220Z 32010KT 9999 SCT036 14/05 Q1016=
202409121250 METAR EGKK 121250Z 31009KT 280V340 9999 SCT035 15/05 Q1016=
202409121320 METAR EGKK 121320Z 28007KT 9999 VCSH FEW041TCU 13/05 Q1016=
202409121350 METAR EGKK 121350Z 29009KT 250V320 9999 VCSH FEW030 SCT044TCU 14/05 Q1016=
202409121420 METAR EGKK 121420Z 27009KT 9999 VCSH SCT046CB 14/06 Q1016=
202409121450 METAR EGKK 121450Z 22006KT 9999 -RA FEW020CB SCT036 11/06 Q1017=
202409121520 METAR EGKK 121520Z 24006KT 9999 5000N -RA VCSH FEW013CB SCT045 10/07 Q1017=
202409121550 METAR EGKK 121550Z 31009KT 9999 4000S -RA VCSH FEW013CB BKN042 09/07 Q1018 RERA=
202409121620 METAR EGKK 121620Z VRB02KT 9999 SCT036 10/08 Q1017=
202409121650 METAR EGKK 121650Z 30005KT 270V340 9999 SCT036 11/08 Q1018=
202409121720 METAR EGKK 121720Z 30006KT CAVOK 11/08 Q1018=
202409121750 METAR EGKK 121750Z 30006KT CAVOK 11/09 Q1018=
202409121820 METAR EGKK 121820Z 31007KT CAVOK 11/08 Q1019=
202409121850 METAR EGKK 121850Z 32007KT CAVOK 10/07 Q1019=
202409121920 METAR EGKK 121920Z 32005KT 280V340 CAVOK 09/07 Q1019=
202409121950 METAR EGKK 121950Z 33006KT CAVOK 09/07 Q1020=
202409122020 METAR EGKK 122020Z 34006KT 300V010 CAVOK 09/06 Q1020=
202409122050 METAR EGKK 122050Z 33006KT 300V010 CAVOK 09/06 Q1021=
202409122120 METAR EGKK 122120Z 33004KT 280V020 CAVOK 09/06 Q1021=
202409122150 METAR EGKK 122150Z VRB02KT CAVOK 07/06 Q1022=
202409122220 METAR EGKK 122220Z 27004KT 190V310 CAVOK 07/05 Q1022=
202409122250 METAR EGKK 122250Z 30004KT 260V320 CAVOK 07/06 Q1023=
202409122320 METAR EGKK 122320Z 28005KT CAVOK 06/05 Q1023=
202409122350 METAR EGKK 122350Z 31004KT CAVOK 07/05 Q1023=
202409130020 METAR EGKK 130020Z 29004KT CAVOK 06/05 Q1024=
202409130050 METAR EGKK 130050Z 27003KT CAVOK 06/04 Q1024=
202409130120 METAR EGKK 130120Z VRB02KT CAVOK 05/04 Q1024=
202409130150 METAR EGKK 130150Z VRB01KT CAVOK 05/05 Q1024=
202409130220 METAR EGKK 130220Z 31005KT CAVOK 06/05 Q1024=
202409130250 METAR EGKK 130250Z 29003KT CAVOK 05/04 Q1025=
202409130320 METAR EGKK 130320Z VRB02KT CAVOK 06/05 Q1025=
202409130350 METAR EGKK 130350Z 29003KT 250V330 CAVOK 05/04 Q1025=
202409130420 METAR EGKK 130420Z 31005KT CAVOK 06/04 Q1025=
202409130450 METAR EGKK 130450Z 31005KT CAVOK 06/05 Q1026=
202409130520 METAR EGKK 130520Z 31007KT CAVOK 06/05 Q1026=
202409130550 METAR EGKK 130550Z 33005KT CAVOK 06/05 Q1027=
202409130620 METAR EGKK 130620Z 32006KT 280V350 CAVOK 06/05 Q1027=
202409130650 METAR EGKK 130650Z 33004KT 280V040 CAVOK 07/05 Q1027=
202409130720 METAR EGKK 130720Z 27003KT 230V340 CAVOK 08/06 Q1027=
202409130750 METAR EGKK 130750Z 31006KT 280V340 CAVOK 09/06 Q1028=
202409130820 METAR EGKK 130820Z 31004KT 270V350 CAVOK 10/07 Q1028=
202409130850 METAR EGKK 130850Z 33005KT 290V360 CAVOK 11/07 Q1028=
202409130920 METAR EGKK 130920Z 32006KT 280V360 CAVOK 12/06 Q1028=
202409130950 METAR EGKK 130950Z 32008KT CAVOK 13/06 Q1029=
202409131020 METAR COR EGKK 131020Z 32008KT 290V360 9999 FEW019 13/06 Q1029=
202409131050 METAR EGKK 131050Z 32007KT 280V010 9999 FEW016 14/05 Q1029=
202409131120 METAR EGKK 131120Z 33007KT 270V070 CAVOK 14/05 Q1029=
202409131150 METAR EGKK 131150Z 34006KT 280V040 CAVOK 15/05 Q1029=
202409131220 METAR EGKK 131220Z 33007KT 280V030 9999 FEW039 15/04 Q1029=
202409131250 METAR EGKK 131250Z 30005KT 230V360 9999 FEW039 15/05 Q1029=
202409131320 METAR EGKK 131320Z 28008KT 240V300 9999 FEW043 16/03 Q1029=
202409131350 METAR EGKK 131350Z VRB04KT CAVOK 16/03 Q1029=
202409131420 METAR EGKK 131420Z 30003KT 220V030 CAVOK 16/03 Q1029=
202409131450 METAR EGKK 131450Z 32007KT 270V360 CAVOK 16/03 Q1029=
202409131520 METAR EGKK 131520Z 32006KT 280V360 CAVOK 16/03 Q1029=
202409131550 METAR EGKK 131550Z 31007KT 280V340 CAVOK 16/03 Q1029=
202409131620 METAR EGKK 131620Z 29007KT 240V340 CAVOK 16/03 Q1029=
202409131650 METAR EGKK 131650Z 30006KT 260V330 CAVOK 16/03 Q1029=
202409131720 METAR EGKK 131720Z 30005KT CAVOK 15/03 Q1029=
202409131750 METAR EGKK 131750Z 31004KT 270V330 CAVOK 15/03 Q1029=
202409131820 METAR EGKK 131820Z 29003KT 220V330 CAVOK 14/04 Q1030=
202409131850 METAR EGKK 131850Z 21002KT CAVOK 11/06 Q1030=
202409131920 METAR EGKK 131920Z 18001KT CAVOK 10/05 Q1030=
202409131950 METAR EGKK 131950Z 16001KT CAVOK 09/06 Q1030=
202409132020 METAR EGKK 132020Z 18001KT CAVOK 09/06 Q1031=
202409132050 METAR EGKK 132050Z 20001KT CAVOK 08/06 Q1031=
202409132120 METAR EGKK 132120Z 19001KT CAVOK 07/06 Q1031=
202409132150 METAR EGKK 132150Z 17001KT CAVOK 07/06 Q1031=
202409132220 METAR EGKK 132220Z 13001KT CAVOK 07/06 Q1031=
202409132250 METAR EGKK 132250Z 23001KT CAVOK 07/06 Q1031=
202409132320 METAR EGKK 132320Z 17002KT CAVOK 06/05 Q1031=
202409132350 METAR EGKK 132350Z 19001KT CAVOK 06/05 Q1031=
202409140020 METAR EGKK 140020Z 18001KT CAVOK 06/05 Q1031=
202409140050 METAR EGKK 140050Z 24001KT CAVOK 05/05 Q1031=
202409140120 METAR EGKK 140120Z 23002KT CAVOK 05/04 Q1031=
202409140150 METAR EGKK 140150Z 20001KT CAVOK 05/04 Q1031=
202409140220 METAR EGKK 140220Z 22002KT CAVOK 05/04 Q1031=
202409140250 METAR EGKK 140250Z 27001KT CAVOK 04/04 Q1031=
202409140320 METAR EGKK 140320Z 20002KT CAVOK 05/04 Q1031=
202409140350 METAR EGKK 140350Z 19001KT CAVOK 04/04 Q1031=
202409140420 METAR EGKK 140420Z 00000KT CAVOK 04/04 Q1031=
202409140450 METAR EGKK 140450Z 25001KT CAVOK 04/04 Q1031=
202409140520 METAR EGKK 140520Z 19002KT 9999 3200NW VCFG NSC 04/04 Q1031=
202409140550 METAR EGKK 140550Z VRB01KT 9999 3000NW VCFG NSC 04/04 Q1031=
202409140620 METAR EGKK 140620Z 20001KT 9999 VCFG NSC 04/04 Q1031=
202409140650 METAR EGKK 140650Z 19001KT 9999 VCFG NSC 06/05 Q1031=
202409140720 METAR EGKK 140720Z VRB01KT CAVOK 08/06 Q1031=
202409140750 METAR EGKK 140750Z VRB01KT CAVOK 10/06 Q1031=
202409140820 METAR EGKK 140820Z VRB01KT CAVOK 12/07 Q1031=
202409140850 METAR EGKK 140850Z VRB01KT CAVOK 13/07 Q1032=
202409140920 METAR EGKK 140920Z 23003KT 200V270 CAVOK 14/07 Q1032=
202409140950 METAR EGKK 140950Z 24005KT 190V270 CAVOK 15/07 Q1032=
202409141020 METAR EGKK 141020Z 26007KT 220V290 CAVOK 16/07 Q1031=
202409141050 METAR COR EGKK 141050Z 24007KT 210V280 9999 FEW039 16/07 Q1031=
202409141120 METAR EGKK 141120Z 24007KT 9999 FEW038 16/07 Q1031=
202409141150 METAR EGKK 141150Z 22007KT 180V260 9999 SCT040 17/07 Q1031=
202409141220 METAR EGKK 141220Z 23007KT 180V260 9999 SCT045 17/08 Q1031=
202409141250 METAR EGKK 141250Z 23008KT 9999 SCT049 18/08 Q1031=
202409141320 METAR EGKK 141320Z 24008KT 190V270 9999 FEW045 18/08 Q1030=
202409141350 METAR EGKK 141350Z 23006KT 190V270 9999 SCT041 18/08 Q1030=
202409141420 METAR EGKK 141420Z 22007KT 190V260 9999 SCT041 18/09 Q1030=
202409141450 METAR EGKK 141450Z 23007KT 200V260 9999 SCT039 18/08 Q1030=
202409141520 METAR EGKK 141520Z 23006KT 190V270 9999 SCT039 17/08 Q1030=
202409141550 METAR EGKK 141550Z 24007KT 210V280 9999 SCT039 18/09 Q1030=
202409141620 METAR EGKK 141620Z 22007KT 9999 SCT038 18/09 Q1030=
202409141650 METAR EGKK 141650Z 22006KT 180V250 9999 FEW038 17/09 Q1030=
202409141720 METAR EGKK 141720Z 24007KT CAVOK 17/09 Q1030=
202409141750 METAR EGKK 141750Z 21006KT CAVOK 16/09 Q1030=
202409141820 METAR EGKK 141820Z 20005KT CAVOK 15/08 Q1030=
202409141850 METAR EGKK 141850Z 20004KT CAVOK 14/08 Q1030=
202409141920 METAR EGKK 141920Z 18004KT CAVOK 13/08 Q1030=
202409141950 METAR EGKK 141950Z 19003KT CAVOK 13/09 Q1030=
202409142020 METAR EGKK 142020Z 22004KT CAVOK 12/09 Q1030=
202409142050 METAR EGKK 142050Z 21004KT CAVOK 12/09 Q1030=
202409142120 METAR EGKK 142120Z 20003KT CAVOK 12/09 Q1029=
202409142150 METAR EGKK 142150Z 21003KT CAVOK 12/09 Q1029=
202409142220 METAR EGKK 142220Z 19002KT CAVOK 11/09 Q1029=
202409142250 METAR EGKK 142250Z 17001KT CAVOK 10/09 Q1029=
202409142320 METAR EGKK 142320Z 22002KT CAVOK 10/09 Q1029=
202409142350 METAR EGKK 142350Z 24001KT CAVOK 09/08 Q1029=
202409150020 METAR EGKK 150020Z 16001KT CAVOK 09/08 Q1029=
202409150050 METAR EGKK 150050Z 18001KT CAVOK 09/08 Q1029=
202409150120 METAR EGKK 150120Z 19002KT CAVOK 08/08 Q1029=
202409150150 METAR EGKK 150150Z 17001KT CAVOK 07/07 Q1029=
202409150220 METAR EGKK 150220Z 26003KT CAVOK 07/07 Q1029=
202409150250 METAR EGKK 150250Z 19001KT CAVOK 07/07 Q1028=
202409150320 METAR EGKK 150320Z VRB01KT CAVOK 07/07 Q1028=
202409150350 METAR EGKK 150350Z 20001KT CAVOK 07/07 Q1028=
202409150420 METAR EGKK 150420Z 19001KT CAVOK 07/06 Q1028=
202409150450 METAR EGKK 150450Z 29001KT 9000 NSC 07/06 Q1028=
202409150520 METAR EGKK 150520Z 18002KT 8000 VCFG NSC 07/06 Q1028=
202409150550 METAR EGKK 150550Z VRB01KT 9999 7000N VCFG NSC 07/06 Q1028=
202409150620 METAR EGKK 150620Z 11001KT 9999 VCFG NSC 07/07 Q1028=
202409150650 METAR EGKK 150650Z 23002KT 9999 VCFG NSC 09/09 Q1028=
202409150720 METAR EGKK 150720Z VRB02KT CAVOK 11/10 Q1028=
202409150750 METAR EGKK 150750Z 22003KT 190V250 CAVOK 12/11 Q1028=
202409150820 METAR EGKK 150820Z 23005KT CAVOK 15/12 Q1028=
202409150850 METAR EGKK 150850Z 25007KT 9999 FEW012 15/12 Q1028=
202409150920 METAR EGKK 150920Z 25008KT 9999 FEW017 15/11 Q1028=
202409150950 METAR EGKK 150950Z 24008KT 9999 FEW020 16/11 Q1028=
202409151020 METAR EGKK 151020Z 24009KT 9999 FEW023 17/11 Q1028=
202409151050 METAR EGKK 151050Z 26010KT 230V300 9999 FEW025 18/11 Q1028=
202409151120 METAR EGKK 151120Z 28008KT 230V310 9999 SCT029 18/11 Q1027=
202409151150 METAR EGKK 151150Z 26008KT 9999 SCT030 19/11 Q1027=
202409151220 METAR EGKK 151220Z 22007KT 160V270 9999 FEW031 19/11 Q1027=
202409151250 METAR EGKK 151250Z 22008KT 180V250 CAVOK 19/11 Q1026=
202409151320 METAR EGKK 151320Z 23008KT 190V280 CAVOK 20/11 Q1026=
202409151350 METAR EGKK 151350Z 24008KT CAVOK 19/11 Q1026=
202409151420 METAR EGKK 151420Z 25007KT 220V280 CAVOK 19/11 Q1026=
202409151450 METAR EGKK 151450Z 25007KT CAVOK 19/11 Q1026=
202409151520 METAR EGKK 151520Z 23006KT CAVOK 18/11 Q1026=
202409151550 METAR EGKK 151550Z 23006KT CAVOK 18/11 Q1026=
202409151620 METAR EGKK 151620Z 22005KT 190V250 CAVOK 18/11 Q1026=
202409151650 METAR EGKK 151650Z 23007KT CAVOK 17/11 Q1026=
202409151720 METAR EGKK 151720Z 24007KT CAVOK 17/12 Q1026=
202409151750 METAR EGKK 151750Z 24005KT CAVOK 16/11 Q1026=
202409151820 METAR EGKK 151820Z 24005KT CAVOK 16/11 Q1026=
202409151850 METAR EGKK 151850Z 23005KT CAVOK 16/11 Q1026=
202409151920 METAR EGKK 151920Z 24005KT CAVOK 15/11 Q1026=
202409151950 METAR EGKK 151950Z 23004KT CAVOK 15/11 Q1026=
202409152020 METAR EGKK 152020Z 24005KT CAVOK 15/11 Q1026=
202409152050 METAR EGKK 152050Z 25006KT 9999 -RA FEW042 15/12 Q1026=
202409152120 METAR EGKK 152120Z 25006KT 9999 SCT039 15/12 Q1026=
202409152150 METAR EGKK 152150Z NIL=
202409152220 METAR EGKK 152220Z 26004KT 230V300 9999 BKN033 15/12 Q1026=
202409152250 METAR EGKK 152250Z 25003KT 9999 BKN032 14/12 Q1026=
202409152320 METAR EGKK 152320Z 27003KT 9999 BKN025 14/12 Q1026=
202409152350 METAR EGKK 152350Z VRB01KT 9999 BKN032 14/12 Q1026=
202409160020 METAR EGKK 160020Z 22003KT 9999 FEW019 SCT045 14/12 Q1026=
202409160050 METAR EGKK 160050Z 23003KT 9999 FEW019 SCT031 13/12 Q1026=
202409160120 METAR EGKK 160120Z 21003KT 9999 FEW024 BKN042 13/12 Q1026=
202409160150 METAR EGKK 160150Z 23001KT 9999 FEW024 SCT032 14/12 Q1026=
202409160220 METAR EGKK 160220Z VRB01KT 9999 FEW022 SCT031 14/13 Q1026=
202409160250 METAR EGKK 160250Z 30004KT 9999 FEW020 BKN031 14/13 Q1026=
202409160320 METAR EGKK 160320Z 30003KT 9999 FEW020 SCT038 14/13 Q1026=
202409160350 METAR EGKK 160350Z 29004KT 260V330 9999 FEW039 14/13 Q1026=
202409160420 METAR EGKK 160420Z 33003KT 9999 FEW036 14/13 Q1026=
202409160450 METAR EGKK 160450Z 33004KT 270V010 9999 SCT011 14/13 Q1026=
202409160520 METAR EGKK 160520Z VRB08KT 9999 BKN011 15/13 Q1026=
202409160550 METAR EGKK 160550Z 36007KT 330V040 9999 BKN010 15/13 Q1027=
202409160620 METAR EGKK 160620Z 02005KT 310V090 9999 SCT012 SCT048 14/12 Q1027=
202409160650 METAR EGKK 160650Z 02004KT 350V130 9999 FEW011 14/12 Q1027=
202409160720 METAR EGKK 160720Z 01006KT 340V110 9999 FEW010 15/12 Q1027=
202409160750 METAR EGKK 160750Z 01007KT 9999 FEW011 15/12 Q1028=
202409160820 METAR EGKK 160820Z 02009KT 9999 FEW011 15/12 Q1028=
202409160850 METAR EGKK 160850Z 36009KT 9999 FEW012 15/12 Q1028=
202409160920 METAR EGKK 160920Z 01009KT 9999 FEW014 16/12 Q1028=
202409160950 METAR EGKK 160950Z 02008KT 350V120 9999 FEW017 16/12 Q1028=
202409161020 METAR EGKK 161020Z 04007KT 360V130 9999 SCT018 16/12 Q1028=
202409161050 METAR EGKK 161050Z 06007KT 010V090 9999 SCT019 16/12 Q1028=
202409161120 METAR EGKK 161120Z 05007KT 360V100 9999 FEW023 17/12 Q1028=
202409161150 METAR EGKK 161150Z 05008KT 9999 FEW026 18/11 Q1029=
202409161220 METAR EGKK 161220Z 04008KT 360V130 9999 SCT031 19/11 Q1029=
202409161250 METAR EGKK 161250Z VRB08G19KT 9999 SCT036 18/10 Q1029=
202409161320 METAR EGKK 161320Z 05008KT 350V080 9999 FEW040 20/10 Q1029=
202409161350 METAR EGKK 161350Z 05009KT 350V070 9999 FEW042 20/10 Q1029=
202409161420 METAR COR EGKK 161420Z 03007KT 330V080 9999 FEW042 20/10 Q1029=
202409161450 METAR EGKK 161450Z 04007KT 010V100 9999 FEW045 20/09 Q1029=
202409161520 METAR EGKK 161520Z 05008KT 020V110 9999 FEW048 20/09 Q1029=
202409161550 METAR EGKK 161550Z 04008G18KT 010V140 CAVOK 20/09 Q1028=
202409161620 METAR EGKK 161620Z 02008KT 330V110 CAVOK 20/09 Q1028=
202409161650 METAR EGKK 161650Z 02009KT CAVOK 19/09 Q1029=
202409161720 METAR EGKK 161720Z 03007KT CAVOK 19/09 Q1029=
202409161750 METAR EGKK 161750Z 01006KT CAVOK 18/09 Q1029=
202409161820 METAR EGKK 161820Z 01006KT 340V130 CAVOK 17/09 Q1029=
202409161850 METAR EGKK 161850Z 02004KT CAVOK 17/09 Q1029=
202409161920 METAR EGKK 161920Z 05007KT CAVOK 16/10 Q1030=
202409161950 METAR EGKK 161950Z 07006KT CAVOK 13/10 Q1030=
202409162020 METAR EGKK 162020Z 07006KT CAVOK 12/10 Q1030=
202409162050 METAR EGKK 162050Z 07005KT CAVOK 12/10 Q1030=
202409162120 METAR EGKK 162120Z 03004KT 020V090 CAVOK 13/11 Q1031=
202409162150 METAR EGKK 162150Z 06003KT 030V090 9999 SCT031 13/11 Q1031=
202409162220 METAR EGKK 162220Z 07005KT 9999 SCT031 12/10 Q1031=
202409162250 METAR EGKK 162250Z 06005KT CAVOK 11/10 Q1031=
202409162320 METAR EGKK 162320Z 36003KT 320V030 CAVOK 12/10 Q1031=
202409162350 METAR EGKK 162350Z 32004KT CAVOK 12/10 Q1031=
202409170020 METAR EGKK 170020Z 33003KT CAVOK 11/10 Q1031=
202409170050 METAR EGKK 170050Z 02004KT CAVOK 11/09 Q1031=
202409170120 METAR EGKK 170120Z 01003KT CAVOK 11/09 Q1031=
202409170150 METAR EGKK 170150Z 01004KT 300V040 CAVOK 10/09 Q1031=
202409170220 METAR EGKK 170220Z 01006KT CAVOK 10/09 Q1031=
202409170250 METAR EGKK 170250Z 02005KT CAVOK 10/09 Q1031=
202409170320 METAR EGKK 170320Z 01006KT CAVOK 10/09 Q1031=
202409170350 METAR EGKK 170350Z 02004KT 9999 FEW030 10/09 Q1031=
202409170420 METAR EGKK 170420Z 01005KT 9999 SCT031 11/09 Q1031=
202409170450 METAR EGKK 170450Z 02006KT 9999 SCT032 11/09 Q1031=
202409170520 METAR EGKK 170520Z 01006KT 330V040 9999 SCT032 11/09 Q1031=
202409170550 METAR EGKK 170550Z 01007KT 9999 FEW034 11/09 Q1031=
202409170620 METAR EGKK 170620Z 02007KT 9999 SCT034 11/09 Q1031=
202409170650 METAR EGKK 170650Z 01007KT 310V050 9999 FEW034 11/09 Q1031=
202409170720 METAR EGKK 170720Z 02006KT 9999 FEW034 12/10 Q1031=
202409170750 METAR EGKK 170750Z 02007KT 9999 FEW035 13/10 Q1031=
202409170820 METAR EGKK 170820Z 01007KT 9999 FEW035 14/10 Q1031=
202409170850 METAR EGKK 170850Z 02008KT 9999 FEW037 15/10 Q1031=
202409170920 METAR EGKK 170920Z 03009KT 9999 FEW034 16/11 Q1031=
202409170950 METAR EGKK 170950Z 03009KT 360V130 9999 FEW031 17/11 Q1031=
202409171020 METAR EGKK 171020Z 04012G22KT 010V080 9999 FEW027 18/11 Q1031=
202409171050 METAR EGKK 171050Z 04011KT 9999 FEW028 19/12 Q1030=
202409171120 METAR EGKK 171120Z 05014KT 020V090 9999 FEW030 19/11 Q1030=
202409171150 METAR EGKK 171150Z 05011KT 020V090 9999 SCT033 20/11 Q1030=
202409171220 METAR EGKK 171220Z 04013KT 9999 FEW035 19/11 Q1030=
202409171250 METAR EGKK 171250Z 04011KT 360V070 9999 FEW035 20/11 Q1030=
202409171320 METAR EGKK 171320Z 05014KT 9999 FEW038 19/11 Q1030=
202409171350 METAR EGKK 171350Z 07014KT 9999 FEW040 21/11 Q1029=
202409171420 METAR EGKK 171420Z 07012KT 9999 SCT042 20/11 Q1029=
202409171450 METAR EGKK 171450Z 07011KT 9999 SCT042 21/11 Q1029=
202409171520 METAR EGKK 171520Z 05013KT 9999 SCT042 20/11 Q1029=
202409171550 METAR EGKK 171550Z 05012KT 9999 FEW040 19/11 Q1029=
202409171620 METAR EGKK 171620Z 06015KT 9999 FEW036 19/11 Q1029=
202409171650 METAR EGKK 171650Z 06012KT 9999 FEW033 19/12 Q1029=
202409171720 METAR EGKK 171720Z 08012KT 9999 FEW032 18/12 Q1029=
202409171750 METAR EGKK 171750Z 06011KT 030V090 9999 FEW027 17/13 Q1029=
202409171820 METAR EGKK 171820Z 05013KT 9999 FEW024 SCT033 17/13 Q1029=
202409171850 METAR EGKK 171850Z 05013KT 9999 SCT033 17/13 Q1029=
202409171920 METAR EGKK 171920Z 05010KT 9999 FEW022 16/13 Q1029=
202409171950 METAR EGKK 171950Z 05012KT 9999 FEW021 16/13 Q1029=
202409172020 METAR EGKK 172020Z 05013KT 9999 FEW018 16/13 Q1029=
202409172050 METAR EGKK 172050Z 05012KT 9999 SCT019 16/13 Q1029=
202409172120 METAR EGKK 172120Z 05013KT 020V080 9999 SCT019 16/13 Q1029=
202409172150 METAR EGKK 172150Z 04013KT 9999 BKN018 16/13 Q1029=
202409172220 METAR EGKK 172220Z 05015KT 9999 SCT020 15/13 Q1029=
202409172250 METAR EGKK 172250Z 05013KT 9999 SCT020 15/13 Q1029=
202409172320 METAR EGKK 172320Z 05013KT 9999 SCT018 15/13 Q1029=
202409172350 METAR EGKK 172350Z 04011KT 9999 SCT018 15/13 Q1029=
202409180020 METAR EGKK 180020Z 04009KT 9999 FEW018 15/13 Q1029=
202409180050 METAR EGKK 180050Z 03009KT 9999 BKN018 15/13 Q1029=
202409180120 METAR EGKK 180120Z 03008KT 9999 SCT018 15/13 Q1029=
202409180150 METAR EGKK 180150Z 03007KT 9999 FEW019 14/13 Q1029=
202409180220 METAR EGKK 180220Z 03007KT CAVOK 14/13 Q1028=
202409180250 METAR EGKK 180250Z 03009KT CAVOK 14/13 Q1028=
202409180320 METAR EGKK 180320Z 02007KT CAVOK 14/13 Q1028=
202409180350 METAR EGKK 180350Z 02007KT CAVOK 14/13 Q1028=
202409180420 METAR EGKK 180420Z 03007KT 9999 FEW015 14/13 Q1028=
202409180450 METAR EGKK 180450Z 03006KT 9999 SCT014 14/13 Q1028=
202409180520 METAR EGKK 180520Z 04009G20KT 360V080 9999 BKN013 14/13 Q1028=
202409180550 METAR EGKK 180550Z 03007KT 9999 BKN013 15/13 Q1028=
202409180620 METAR EGKK 180620Z 03007KT 9999 BKN013 15/13 Q1028=
202409180650 METAR EGKK 180650Z 03007KT 9999 BKN016 15/14 Q1028=
202409180720 METAR EGKK 180720Z 04008KT 9999 BKN017 16/14 Q1028=
202409180750 METAR EGKK 180750Z 04009KT 010V080 9999 BKN016 16/14 Q1028=
202409180820 METAR EGKK 180820Z 04009KT 360V070 9999 BKN015 17/14 Q1028=
202409180850 METAR EGKK 180850Z 05014KT 9999 BKN016 18/14 Q1028=
202409180920 METAR EGKK 180920Z 05012KT 9999 BKN015 18/15 Q1028=
202409180950 METAR EGKK 180950Z 05017KT 9999 BKN016 19/15 Q1028=
202409181020 METAR EGKK 181020Z 05015KT 9999 BKN017 19/15 Q1028=
202409181050 METAR EGKK 181050Z 05015KT 9999 SCT018 19/15 Q1027=
202409181120 METAR EGKK 181120Z 04016KT 9999 SCT020 20/15 Q1027=
202409181150 METAR EGKK 181150Z 04017KT 9999 FEW020 20/15 Q1027=
202409181220 METAR EGKK 181220Z 05016KT 9999 FEW023 21/15 Q1027=
202409181250 METAR EGKK 181250Z 05015G25KT 9999 FEW024 22/15 Q1027=
202409181320 METAR EGKK 181320Z 06015KT 030V100 9999 FEW027 22/15 Q1026=
202409181350 METAR EGKK 181350Z 05013KT 9999 FEW027 22/15 Q1026=
202409181420 METAR EGKK 181420Z 05011KT 9999 FEW028 23/15 Q1026=
202409181450 METAR EGKK 181450Z 05012KT 030V090 CAVOK 22/15 Q1026=
202409181520 METAR EGKK 181520Z 05014KT CAVOK 22/14 Q1025=
202409181550 METAR EGKK 181550Z 05015KT CAVOK 22/14 Q1025=
202409181620 METAR EGKK 181620Z 06012KT CAVOK 22/14 Q1025=
202409181650 METAR EGKK 181650Z 06009KT CAVOK 21/15 Q1025=
202409181720 METAR EGKK 181720Z 06007KT CAVOK 20/15 Q1025=
202409181750 METAR EGKK 181750Z 06005KT CAVOK 19/15 Q1025=
202409181820 METAR EGKK 181820Z 08007KT CAVOK 18/15 Q1025=
202409181850 METAR EGKK 181850Z 06008KT CAVOK 18/15 Q1025=
202409181920 METAR EGKK 181920Z 05007KT CAVOK 18/14 Q1025=
202409181950 METAR EGKK 181950Z 04008KT CAVOK 18/14 Q1026=
202409182020 METAR EGKK 182020Z 05010KT CAVOK 18/14 Q1026=
202409182050 METAR EGKK 182050Z 05013KT 9999 FEW020 17/14 Q1026=
202409182120 METAR EGKK 182120Z 06011KT 9999 BKN017 17/14 Q1026=
202409182150 METAR EGKK 182150Z 06012KT 9999 BKN015 17/15 Q1026=
202409182220 METAR EGKK 182220Z 05011KT 9999 BKN015 17/15 Q1025=
202409182250 METAR EGKK 182250Z 05010KT 9000 BKN015 17/15 Q1025=
202409182320 METAR EGKK 182320Z 04009KT 9000 BKN013 17/15 Q1025=
202409182350 METAR EGKK 182350Z 04008KT 8000 BKN012 17/15 Q1025=
202409190020 METAR EGKK 190020Z 04007KT 9000 BKN012 17/15 Q1025=
202409190050 METAR EGKK 190050Z 05007KT 9000 BKN012 16/15 Q1025=
202409190120 METAR EGKK 190120Z 04006KT 9999 BKN011 17/16 Q1025=
202409190150 METAR EGKK 190150Z 03006KT 9999 BKN011 17/16 Q1025=
202409190220 METAR EGKK 190220Z 03005KT 9000 BKN011 17/16 Q1025=
202409190250 METAR EGKK 190250Z 03005KT 8000 BKN010 16/15 Q1024=
202409190320 METAR EGKK 190320Z 03006KT 8000 BKN010 16/15 Q1024=
202409190350 METAR EGKK 190350Z 03007KT 7000 BKN010 16/15 Q1024=
202409190420 METAR EGKK 190420Z 03007KT 8000 BKN011 16/15 Q1024=
202409190450 METAR EGKK 190450Z 03006KT 7000 SCT011 16/15 Q1024=
202409190520 METAR EGKK 190520Z 04006KT 020V100 7000 BKN011 16/15 Q1024=
202409190550 METAR EGKK 190550Z 04008KT 7000 BKN011 17/15 Q1024=
202409190620 METAR EGKK 190620Z 05009KT 9000 OVC012 17/16 Q1024=
202409190650 METAR EGKK 190650Z 04011KT 9000 OVC012 17/16 Q1025=
202409190720 METAR EGKK 190720Z 04011KT 9000 OVC012 18/16 Q1025=
202409190750 METAR EGKK 190750Z 04010KT 9000 BKN012 18/16 Q1025=
202409190820 METAR EGKK 190820Z 05011KT 9999 BKN012 18/16 Q1025=
202409190850 METAR EGKK 190850Z 05012KT 9999 BKN013 18/16 Q1025=
202409190920 METAR EGKK 190920Z 05015KT 9999 BKN014 19/16 Q1025=
202409190950 METAR EGKK 190950Z 05017KT 9999 BKN015 20/16 Q1024=
202409191020 METAR EGKK 191020Z 05014KT 9999 SCT016 21/16 Q1024=
202409191050 METAR EGKK 191050Z 04018KT 9999 SCT017 21/16 Q1024=
202409191120 METAR EGKK 191120Z 05017KT 9999 FEW020 21/16 Q1024=
202409191150 METAR EGKK 191150Z 04015KT 9999 FEW023 23/16 Q1024=
202409191220 METAR EGKK 191220Z 04013KT 9999 FEW030 23/16 Q1023=
202409191250 METAR EGKK 191250Z 05015KT 9999 FEW028 24/16 Q1023=
202409191320 METAR EGKK 191320Z 05015KT 9999 FEW032 24/15 Q1023=
202409191350 METAR EGKK 191350Z 05016KT CAVOK 24/14 Q1023=
202409191420 METAR EGKK 191420Z 06017KT CAVOK 24/14 Q1022=
202409191450 METAR EGKK 191450Z 06017KT CAVOK 23/14 Q1022=
202409191520 METAR EGKK 191520Z 07013KT CAVOK 23/14 Q1022=
202409191550 METAR EGKK 191550Z 05016KT CAVOK 23/14 Q1022=
202409191620 METAR EGKK 191620Z 06012KT CAVOK 23/14 Q1022=
202409191650 METAR EGKK 191650Z 06012KT CAVOK 22/14 Q1022=
202409191720 METAR EGKK 191720Z 06012KT CAVOK 21/14 Q1022=
202409191750 METAR EGKK 191750Z 06008KT CAVOK 20/14 Q1022=
202409191820 METAR EGKK 191820Z 06007KT CAVOK 19/14 Q1022=
202409191850 METAR EGKK 191850Z 06008KT CAVOK 19/13 Q1022=
202409191920 METAR EGKK 191920Z 05007KT CAVOK 18/13 Q1022=
202409191950 METAR EGKK 191950Z 06006KT CAVOK 18/13 Q1022=
202409192020 METAR EGKK 192020Z 04009KT CAVOK 18/14 Q1022=
202409192050 METAR EGKK 192050Z 05011KT CAVOK 18/14 Q1022=
202409192120 METAR EGKK 192120Z 05010KT CAVOK 17/14 Q1022=
202409192150 METAR EGKK 192150Z 05008KT CAVOK 16/14 Q1023=
202409192220 METAR EGKK 192220Z 04010KT CAVOK 16/14 Q1023=
202409192250 METAR EGKK 192250Z 04008KT 9000 BKN015 16/14 Q1023=
202409192320 METAR EGKK 192320Z 03012KT 9000 BKN013 16/14 Q1023=
202409192350 METAR EGKK 192350Z 04011KT 9000 BKN012 16/14 Q1022=
202409200020 METAR EGKK 200020Z 03011KT 8000 BKN011 16/14 Q1022=
202409200050 METAR EGKK 200050Z 03011KT 8000 BKN010 16/14 Q1022=
202409200120 METAR EGKK 200120Z 02009KT 8000 BKN010 16/14 Q1022=
202409200150 METAR EGKK 200150Z 02008KT 9000 BKN011 16/14 Q1022=
202409200220 METAR EGKK 200220Z 01011KT 9999 FEW018 BKN021 16/14 Q1021=
202409200250 METAR EGKK 200250Z 02012KT 9999 BKN022 16/14 Q1021=
202409200320 METAR EGKK 200320Z 01010KT 9999 BKN022 16/14 Q1021=
202409200350 METAR EGKK 200350Z 01010KT 9999 SCT024 15/14 Q1021=
202409200420 METAR EGKK 200420Z 03008KT 9999 SCT013 15/14 Q1021=
202409200450 METAR EGKK 200450Z 02009KT 9999 BKN012 16/14 Q1021=
202409200520 METAR EGKK 200520Z 02010KT 9000 BKN012 16/14 Q1021=
202409200550 METAR EGKK 200550Z 03006KT 010V080 9000 BKN012 16/14 Q1021=
202409200620 METAR EGKK 200620Z 03008KT 9000 BKN021 16/15 Q1021=
202409200650 METAR EGKK 200650Z 03009KT 9000 BKN021 17/15 Q1021=
202409200720 METAR EGKK 200720Z 04009KT 9999 SCT013 BKN025 17/15 Q1021=
202409200750 METAR EGKK 200750Z 03009KT 9999 FEW013 BKN019 BKN029 17/15 Q1021=
202409200820 METAR EGKK 200820Z 05011KT 9999 SCT013 18/15 Q1021=
202409200850 METAR EGKK 200850Z 05012KT 9999 BKN015 18/15 Q1020=
202409200920 METAR EGKK 200920Z 03008KT 9999 5000SE -SHRA SCT018 SCT030 18/15 Q1020=
202409200950 METAR EGKK 200950Z VRB05KT 7000 -RA VCTS FEW018 SCT033CB 17/15 Q1020 RETSRA=
202409201020 METAR EGKK 201020Z VRB07G17KT 1800 TSGSRA FEW008 SCT020CB 12/12 Q1021 RETSRA=
202409201050 METAR EGKK 201050Z VRB02KT 9999 FEW010 SCT030 15/14 Q1021 RETSGS RETSRA RERA=
202409201120 METAR EGKK 201120Z 01005KT 340V040 9999 FEW027 17/15 Q1020=
202409201150 METAR EGKK 201150Z 05009KT 330V080 9999 FEW023 20/16 Q1020=
202409201220 METAR EGKK 201220Z 05014KT 9999 FEW029 21/16 Q1019=
202409201250 METAR EGKK 201250Z 07013KT 9999 FEW027 21/16 Q1019=
202409201320 METAR EGKK 201320Z 06014KT 9999 FEW011 21/15 Q1019=
202409201350 METAR EGKK 201350Z 06013KT 9999 FEW021 22/15 Q1019=
202409201420 METAR EGKK 201420Z 07014KT 9999 FEW028 22/15 Q1019=
202409201450 METAR EGKK 201450Z 07011KT 9999 FEW028 22/15 Q1018=
202409201520 METAR EGKK 201520Z 06011KT 9999 FEW017 21/15 Q1018=
202409201550 METAR EGKK 201550Z 06011KT CAVOK 21/15 Q1018=
202409201620 METAR EGKK 201620Z 07012KT CAVOK 20/14 Q1018=
202409201650 METAR EGKK 201650Z 07010KT CAVOK 19/15 Q1018=
202409201720 METAR EGKK 201720Z 07012KT 9999 FEW028 18/15 Q1019=
202409201750 METAR EGKK 201750Z 05011KT CAVOK 18/15 Q1019=
202409201820 METAR EGKK 201820Z 06007KT CAVOK 17/15 Q1019=
202409201850 METAR EGKK 201850Z 06006KT CAVOK 17/15 Q1019=
202409201920 METAR EGKK 201920Z 06006KT 9000 NSC 16/15 Q1019=
202409201950 METAR EGKK 201950Z 04007KT 360V110 CAVOK 17/15 Q1019=
202409202020 METAR EGKK 202020Z 05007KT 9000 NSC 16/15 Q1019=
202409202050 METAR EGKK 202050Z 07005KT CAVOK 16/14 Q1019=
202409202120 METAR EGKK 202120Z 05006KT 9999 FEW043 16/15 Q1019=
202409202150 METAR EGKK 202150Z 05006KT 360V100 9999 FEW046 16/15 Q1019=
202409202220 METAR EGKK 202220Z 05003KT 320V090 9000 SCT045 15/14 Q1019=
202409202250 METAR EGKK 202250Z 04004KT 9000 FEW048 16/15 Q1019=
202409202320 METAR EGKK 202320Z NIL=
202409202350 METAR EGKK 202350Z 03003KT 7000 SCT048 15/15 Q1018=
202409210020 METAR EGKK 210020Z 03004KT 6000 SCT045 15/15 Q1018=
202409210050 METAR EGKK 210050Z 02003KT 6000 FEW046 15/14 Q1018=
202409210120 METAR EGKK 210120Z 02002KT 5000 BR FEW045 14/14 Q1018=
202409210150 METAR EGKK 210150Z 32003KT 280V350 6000 VCSH FEW048CB 15/14 Q1018=
202409210220 METAR EGKK 210220Z 02005KT 6000 VCTS VCSH SCT049CB 15/14 Q1018=
202409210250 METAR EGKK 210250Z VRB03KT 6000 VCTS VCSH FEW012 SCT042CB 15/15 Q1018=
202409210320 METAR EGKK 210320Z VRB02KT 7000 SCT042 15/14 Q1018=
202409210350 METAR EGKK 210350Z 04003KT 360V090 6000 BKN045 15/15 Q1017=
202409210420 METAR EGKK 210420Z 05003KT 5000 BR SCT045 14/13 Q1017=
202409210450 METAR EGKK 210450Z 06003KT 4700 BR MIFG FEW046 13/13 Q1017=
202409210520 METAR EGKK 210520Z 07003KT 3500 BR MIFG FEW011 13/13 Q1017=
202409210550 METAR EGKK 210550Z 09003KT 3600 BR FEW007 13/13 Q1017=
202409210620 METAR EGKK 210620Z 08004KT 4000 BR NSC 14/14 Q1018=
202409210650 METAR EGKK 210650Z 08004KT 4800 BR NSC 15/14 Q1018=
202409210720 METAR EGKK 210720Z 09004KT 5000 BR NSC 15/15 Q1018=
202409210750 METAR EGKK 210750Z 07006KT 6000 NSC 16/15 Q1018=
202409210820 METAR EGKK 210820Z 11004KT 090V160 6000 NSC 17/16 Q1018=
202409210850 METAR EGKK 210850Z 10006KT 070V130 9000 FEW047 17/16 Q1018=
202409210920 METAR EGKK 210920Z 08004KT 9000 NSC 18/16 Q1018=
202409210950 METAR EGKK 210950Z 04004KT 320V080 9999 FEW022 19/16 Q1018=
202409211020 METAR EGKK 211020Z VRB01KT 9999 FEW020 19/16 Q1018=
202409211050 METAR EGKK 211050Z 06006KT 010V080 9999 -RA FEW040 18/16 Q1018=
202409211120 METAR EGKK 211120Z 06008KT 360V090 9000 FEW038 19/16 Q1017=
202409211150 METAR EGKK 211150Z 06007KT 010V090 9999 FEW020 19/15 Q1017=
202409211220 METAR EGKK 211220Z 06006KT 9999 FEW033 20/16 Q1017=
202409211250 METAR EGKK 211250Z 06006KT 040V110 9999 FEW024 22/16 Q1017=
202409211320 METAR EGKK 211320Z 09009KT CAVOK 22/16 Q1016=
202409211350 METAR EGKK 211350Z 10009KT 060V120 9999 FEW032 22/14 Q1016=
202409211420 METAR EGKK 211420Z 09009KT CAVOK 22/13 Q1016=
202409211450 METAR EGKK 211450Z 09009KT 9999 FEW030 22/14 Q1016=
202409211520 METAR EGKK 211520Z 08009KT 9999 FEW027 23/14 Q1015=
202409211550 METAR EGKK 211550Z 10009KT 9999 FEW032 22/14 Q1015=
202409211620 METAR EGKK 211620Z 10008KT 9999 FEW031 22/14 Q1015=
202409211650 METAR EGKK 211650Z 11006KT CAVOK 21/15 Q1015=
202409211720 METAR EGKK 211720Z 10005KT CAVOK 20/15 Q1015=
202409211750 METAR EGKK 211750Z 09004KT CAVOK 19/15 Q1015=
202409211820 METAR EGKK 211820Z 09003KT CAVOK 19/15 Q1016=
202409211850 METAR EGKK 211850Z 09003KT CAVOK 19/15 Q1016=
202409211920 METAR EGKK 211920Z 09003KT CAVOK 18/15 Q1016=
202409211950 METAR EGKK 211950Z 09004KT CAVOK 17/15 Q1016=
202409212020 METAR EGKK 212020Z 09004KT CAVOK 17/15 Q1016=
202409212050 METAR EGKK 212050Z 07005KT 9999 SCT049 17/15 Q1016=
202409212120 METAR EGKK 212120Z 13005KT 100V190 9999 -SHRA BKN042CB 18/16 Q1016=
202409212150 METAR EGKK 212150Z VRB01KT 9999 -SHRA FEW045CB 17/16 Q1015 RESHRA=
202409212220 METAR EGKK 212220Z 06004KT 9999 -SHRA SCT048CB 17/16 Q1015=
202409212250 METAR EGKK 212250Z 07006KT 9999 FEW045 16/16 Q1015=
202409212320 METAR EGKK 212320Z 10006KT 060V140 9999 BKN042 17/16 Q1015=
202409212350 METAR EGKK 212350Z 07005KT 9999 -RA FEW045 17/16 Q1015=
202409220020 METAR EGKK 220020Z 09004KT 9999 FEW040 16/16 Q1015=
202409220050 METAR EGKK 220050Z 09007KT 9999 FEW045 16/15 Q1015=
202409220120 METAR EGKK 220120Z 11009KT 7000 RA SCT044 16/15 Q1015 RERA=
202409220150 METAR EGKK 220150Z 09008KT 5000 RA FEW028 SCT036 16/15 Q1015 RERA=
202409220220 METAR EGKK 220220Z 06007KT 9000 -RA FEW039 16/15 Q1014 RERA=
202409220250 METAR EGKK 220250Z 06005KT 9000 -RA FEW014 SCT030 15/15 Q1014 RERA=
202409220320 METAR EGKK 220320Z 04005KT 9999 -RA SCT033 16/15 Q1013=
202409220350 METAR EGKK 220350Z 09003KT 9999 -RA NSC 16/15 Q1013=
202409220420 METAR EGKK 220420Z 07005KT 9999 -RA NSC 16/15 Q1013=
202409220450 METAR EGKK 220450Z 08005KT 9000 -RA FEW045 15/15 Q1013=
202409220520 METAR EGKK 220520Z 07006KT 9999 -RA NSC 15/15 Q1012=
202409220550 METAR EGKK 220550Z 07006KT 8000 -RA SCT003 SCT030 16/16 Q1012=
202409220620 METAR EGKK 220620Z 07007KT 6000 -RA SCT004 BKN034 16/16 Q1012 RESHRA=
202409220650 METAR EGKK 220650Z 07007KT 7000 FEW004 SCT021 BKN034 16/16 Q1012=
202409220720 METAR EGKK 220720Z 09006KT 6000 -RA SCT005 BKN032 16/16 Q1012=
202409220750 METAR EGKK 220750Z 08005KT 5000 -RA SCT005 17/17 Q1012=
202409220820 METAR EGKK 220820Z 08005KT 5000 -RA SCT005 SCT027 17/17 Q1012=
202409220850 METAR EGKK 220850Z 07005KT 6000 SCT004 17/17 Q1012=
202409220920 METAR EGKK 220920Z 08004KT 6000 BKN004 18/17 Q1012=
202409220950 METAR EGKK 220950Z 08005KT 7000 -RA SCT007 18/17 Q1012=
202409221020 METAR EGKK 221020Z 09005KT 9000 -RA SCT008 SCT011 18/17 Q1012=
202409221050 METAR EGKK 221050Z 10006KT 9999 SCT009 18/18 Q1011=
202409221120 METAR EGKK 221120Z 12004KT 090V150 9999 BKN008 18/17 Q1011=
202409221150 METAR EGKK 221150Z 11005KT 9999 SCT011 BKN016 19/18 Q1011=
202409221220 METAR EGKK 221220Z 11008KT 9999 SCT013 SCT029 20/17 Q1011=
202409221250 METAR EGKK 221250Z 13007KT 9999 -RA SCT012 BKN025 19/17 Q1010=
202409221320 METAR EGKK 221320Z 14007KT 100V180 9999 SCT011 BKN018 20/17 Q1010=
202409221350 METAR EGKK 221350Z 15006KT 9999 SCT012 BKN026 19/17 Q1010=
202409221420 METAR EGKK 221420Z 16006KT 130V190 9999 FEW011 SCT026 BKN030 19/17 Q1010=
202409221450 METAR EGKK 221450Z 15006KT 9999 VCSH FEW013 BKN018 19/17 Q1010=
202409221520 METAR EGKK 221520Z 15005KT 120V180 9999 VCSH SCT009 BKN024CB 18/17 Q1010=
202409221550 METAR EGKK 221550Z 15005KT 9999 SCT010 BKN015 19/17 Q1009=
202409221620 METAR EGKK 221620Z 15004KT 110V190 9999 SCT010 19/17 Q1009=
202409221650 METAR EGKK 221650Z VRB03KT 9999 VCSH SCT011 BKN020 19/17 Q1009=
202409221720 METAR EGKK 221720Z 13003KT 080V160 9999 SCT011 BKN022 19/17 Q1009=
202409221750 METAR EGKK 221750Z 12003KT 9999 SCT010 BKN022 18/17 Q1009=
202409221820 METAR EGKK 221820Z NIL=
202409221850 METAR EGKK 221850Z 11003KT 070V140 9999 FEW010 SCT015 BKN030 17/17 Q1009=
202409221920 METAR EGKK 221920Z 10003KT 8000 SCT008 BKN017 17/17 Q1009=
202409221950 METAR EGKK 221950Z VRB02KT 5000 -DZ SCT008 BKN011 17/17 Q1009=
202409222020 METAR EGKK 222020Z 09001KT 9999 -RA SCT005 BKN007 17/17 Q1009=
202409222050 METAR COR EGKK 222050Z VRB02KT 8000 -DZ SCT004 BKN012 17/17 Q1009=
202409222120 METAR EGKK 222120Z 31004KT 270V010 5000 -RA BKN003 17/16 Q1008=
202409222150 METAR EGKK 222150Z 27004KT 250V330 4000 RA SCT003 BKN011 16/16 Q1008=
202409222220 METAR EGKK 222220Z 21004KT 170V250 3000 RADZ FEW010 SCT021 BKN028 16/16 Q1008 REDZ=
202409222250 METAR EGKK 222250Z 29004KT 6000 -RADZ FEW017 SCT028 16/16 Q1007 RERA REDZ=
202409222320 METAR EGKK 222320Z 22003KT 190V250 5000 -RADZ SCT005 BKN039 16/16 Q1007=
202409222350 METAR EGKK 222350Z 24003KT 4000 -RADZ SCT004 BKN027 16/16 Q1007=
202409230020 METAR EGKK 230020Z 25004KT 6000 -RA SCT006 SCT033 16/16 Q1007=
202409230050 METAR EGKK 230050Z 26005KT 7000 -RADZ FEW005 SCT014 16/16 Q1006=
202409230120 METAR EGKK 230120Z 24005KT 7000 -RA FEW004 16/16 Q1006=
202409230150 METAR EGKK 230150Z 22003KT 170V250 7000 -RA FEW021 SCT042 16/15 Q1006=
202409230220 METAR EGKK 230220Z 23005KT 9000 -RA FEW007 SCT022 BKN046 15/15 Q1005=
202409230250 METAR EGKK 230250Z 24004KT 9999 -RA SCT028 SCT037 15/15 Q1005=
202409230320 METAR EGKK 230320Z 23004KT 9000 -RA FEW010 SCT024 15/15 Q1005=
202409230350 METAR EGKK 230350Z 23004KT 6000 -RA SCT004 BKN021 15/15 Q1005 RERA=
202409230420 METAR EGKK 230420Z 23004KT 8000 -RA SCT004 BKN010 16/15 Q1005=
202409230450 METAR EGKK 230450Z 23004KT 8000 -RA SCT004 BKN007 15/15 Q1005=
202409230520 METAR EGKK 230520Z 22004KT 7000 -RADZ BKN004 16/15 Q1005=
202409230550 METAR EGKK 230550Z 23005KT 200V260 7000 -RA BKN006 16/15 Q1004 RERA REDZ=
202409230620 METAR EGKK 230620Z 23007KT 9999 -RA SCT006 BKN034 16/16 Q1004=
202409230650 METAR EGKK 230650Z 22007KT 190V250 9000 -RA BKN006 16/16 Q1004=
202409230720 METAR EGKK 230720Z 22007KT 9999 BKN006 16/16 Q1005=
202409230750 METAR EGKK 230750Z 22008KT 9999 -RA FEW006 SCT038 16/15 Q1005=
202409230820 METAR EGKK 230820Z 21007KT 180V250 9999 -RA BKN007 16/15 Q1005=
202409230850 METAR EGKK 230850Z 21007KT 180V250 9999 BKN007 16/15 Q1005=
202409230920 METAR EGKK 230920Z 22007KT 190V260 9999 SCT008 BKN012 16/15 Q1005=
202409230950 METAR EGKK 230950Z 22008KT 9999 -RA BKN007 16/16 Q1005=
202409231020 METAR EGKK 231020Z 21010KT 9999 -RA SCT008 BKN014 16/15 Q1005=
202409231050 METAR EGKK 231050Z 21010KT 9999 BKN001 16/15 Q1005=
202409231120 METAR EGKK 231120Z 21008KT 9999 FEW008 SCT012 16/15 Q1005=
202409231150 METAR EGKK 231150Z 20010KT 9999 SCT013 17/16 Q1005=
202409231220 METAR EGKK 231220Z 21010KT 9999 VCSH SCT012 18/15 Q1004=
202409231250 METAR EGKK 231250Z 23009KT 180V270 9999 3000NE VCSH SCT009 SCT013 17/15 Q1004 RESHRA=
202409231320 METAR EGKK 231320Z 21010KT 180V250 9999 SCT017 18/14 Q1004=
202409231350 METAR EGKK 231350Z 22011KT 180V240 9999 SCT020 18/14 Q1004=
202409231420 METAR EGKK 231420Z 22011KT 9999 SCT018 SCT025 18/14 Q1004=
202409231450 METAR EGKK 231450Z 21009KT 9999 SCT024 18/14 Q1004=
202409231520 METAR EGKK 231520Z 21010KT 9999 SCT026 18/13 Q1004=
202409231550 METAR EGKK 231550Z 21008KT 9999 SCT023 17/13 Q1003=
202409231620 METAR EGKK 231620Z 21007KT 170V240 9999 SCT018 16/14 Q1003=
202409231650 METAR EGKK 231650Z 20009KT 160V230 9999 FEW018 16/13 Q1003=
202409231720 METAR EGKK 231720Z 21007KT 9999 FEW022 16/13 Q1003=
202409231750 METAR EGKK 231750Z 21006KT 9999 FEW026 16/13 Q1003=
202409231820 METAR EGKK 231820Z 20006KT CAVOK 16/13 Q1003=
202409231850 METAR EGKK 231850Z 20006KT 170V230 9999 FEW033 15/13 Q1003=
202409231920 METAR EGKK 231920Z 20005KT 9999 FEW032 15/13 Q1003=
202409231950 METAR EGKK 231950Z 20005KT 160V240 9999 FEW041 15/13 Q1003=
202409232020 METAR EGKK 232020Z 20004KT CAVOK 15/13 Q1003=
202409232050 METAR EGKK 232050Z 20004KT 160V230 9999 FEW030 15/13 Q1003=
202409232120 METAR EGKK 232120Z 16003KT 9999 SCT018 15/13 Q1003=
202409232150 METAR EGKK 232150Z 17003KT 130V210 8000 -RA FEW014 BKN017 15/13 Q1003=
202409232220 METAR EGKK 232220Z NIL=
202409232250 METAR EGKK 232250Z 19003KT 9999 FEW012 14/13 Q1002=
202409232320 METAR EGKK 232320Z 18001KT 9999 SCT020 14/14 Q1002=
202409232350 METAR EGKK 232350Z VRB01KT 9999 FEW020 SCT026 14/14 Q1002=
202409240020 METAR EGKK 240020Z 13001KT 9999 FEW014 SCT026 14/14 Q1002=
202409240050 METAR EGKK 240050Z 18001KT 9999 FEW011 SCT022 14/14 Q1002=
202409240120 METAR EGKK 240120Z 18002KT 9999 -RA FEW032 14/14 Q1001=
202409240150 METAR EGKK 240150Z VRB01KT 9999 SCT027 14/14 Q1001=
202409240220 METAR EGKK 240220Z VRB01KT 9999 FEW007 BKN018 14/14 Q1001=
202409240250 METAR EGKK 240250Z 29003KT 6000 FEW003 BKN008 14/14 Q1001=
202409240320 METAR EGKK 240320Z 29005KT 8000 SCT004 BKN009 14/14 Q1001=
202409240350 METAR EGKK 240350Z 31005KT 9000 FEW005 BKN007 14/14 Q1001=
202409240420 METAR EGKK 240420Z 32007KT 9999 BKN005 14/14 Q1001=
202409240450 METAR EGKK 240450Z 32006KT 8000 BKN004 14/14 Q1001=
202409240520 METAR EGKK 240520Z 32006KT 280V360 9000 BKN006 14/14 Q1001=
202409240550 METAR EGKK 240550Z 30006KT 270V340 9999 FEW004 BKN007 14/13 Q1001=
202409240620 METAR EGKK 240620Z 30007KT 8000 FEW006 BKN007 14/13 Q1002=
202409240650 METAR EGKK 240650Z 31008KT 6000 FEW004 BKN006 14/13 Q1002=
202409240720 METAR EGKK 240720Z 30007KT 4400 BR SCT005 BKN011 14/14 Q1002=
202409240750 METAR EGKK 240750Z 31008KT 270V330 7000 BKN006 14/13 Q1002=
202409240820 METAR EGKK 240820Z 31008KT 9999 SCT008 BKN015 14/13 Q1003=
202409240850 METAR EGKK 240850Z 30009KT 9999 FEW008 BKN014 15/13 Q1003=
202409240920 METAR EGKK 240920Z 31009KT 290V050 9999 SCT010 BKN020 15/13 Q1003=
202409240950 METAR EGKK 240950Z 32010KT 9999 SCT012 BKN016 15/13 Q1003=
202409241020 METAR EGKK 241020Z 30008KT 9999 FEW012 BKN019 15/13 Q1004=
202409241050 METAR EGKK 241050Z 30008KT 9999 BKN010 15/13 Q1004=
202409241120 METAR EGKK 241120Z 29009KT 9999 SCT010 BKN012 14/13 Q1004=
202409241150 METAR EGKK 241150Z 30011KT 9999 FEW012 BKN014 15/12 Q1004=
202409241220 METAR EGKK 241220Z 30008KT 9999 FEW014 BKN039 15/12 Q1004=
202409241250 METAR EGKK 241250Z 30008KT 9999 FEW020 BKN042 16/12 Q1004=
202409241320 METAR EGKK 241320Z 29008KT 9999 FEW021 SCT030 16/12 Q1004=
202409241350 METAR EGKK 241350Z 29007KT 240V310 9999 FEW023 SCT034 16/11 Q1004=
202409241420 METAR EGKK 241420Z 29009KT 9999 SCT024 SCT039 16/11 Q1004=
202409241450 METAR EGKK 241450Z 28009KT 9999 SCT025 SCT039 17/11 Q1004=
202409241520 METAR EGKK 241520Z 27009KT 9999 SCT037 16/11 Q1004=
202409241550 METAR EGKK 241550Z 27007KT 9999 FEW040 16/11 Q1004=
202409241620 METAR EGKK 241620Z 27007KT 9999 SCT029 16/11 Q1004=
202409241650 METAR EGKK 241650Z 26008KT 9999 SCT040 15/11 Q1005=
202409241720 METAR EGKK 241720Z 26008KT 9999 BKN042 15/10 Q1005=
202409241750 METAR EGKK 241750Z 25006KT 9999 BKN040 15/10 Q1005=
202409241820 METAR EGKK 241820Z 24005KT 9999 BKN041 15/11 Q1005=
202409241850 METAR EGKK 241850Z 25008KT 9999 BKN039 14/10 Q1005=
202409241920 METAR EGKK 241920Z 25008KT 9999 BKN041 14/10 Q1005=
202409241950 METAR EGKK 241950Z 25006KT 9999 BKN040 14/10 Q1005=
202409242020 METAR EGKK 242020Z 22004KT 9999 BKN039 13/10 Q1005=
202409242050 METAR EGKK 242050Z 22005KT 9999 BKN039 13/10 Q1005=
202409242120 METAR EGKK 242120Z 23004KT 9999 SCT038 13/09 Q1005=
202409242150 METAR EGKK 242150Z 23005KT 9999 FEW038 12/09 Q1005=
202409242220 METAR EGKK 242220Z 25005KT CAVOK 12/09 Q1005=
202409242250 METAR EGKK 242250Z 23006KT 9999 SCT034 12/09 Q1005=
202409242320 METAR EGKK 242320Z 24006KT 9999 BKN033 12/09 Q1005=
202409242350 METAR EGKK 242350Z 23004KT 9999 BKN030 12/09 Q1005=
202409250020 METAR EGKK 250020Z 22003KT 9999 BKN033 12/10 Q1005=
202409250050 METAR EGKK 250050Z 26004KT 9999 BKN039 12/10 Q1004=
202409250120 METAR EGKK 250120Z 22004KT 9999 BKN039 12/10 Q1004=
202409250150 METAR EGKK 250150Z 21004KT 9999 BKN038 12/10 Q1004=
202409250220 METAR EGKK 250220Z 21004KT 9999 BKN036 12/10 Q1004=
202409250250 METAR EGKK 250250Z 21004KT 9999 BKN039 12/10 Q1003=
202409250320 METAR EGKK 250320Z 20003KT 9999 SCT035 12/10 Q1003=
202409250350 METAR EGKK 250350Z 26003KT 9000 -SHRA BKN035 12/10 Q1003=
202409250420 METAR EGKK 250420Z VRB02KT 3500 -SHRA BKN025 11/11 Q1003=
202409250450 METAR EGKK 250450Z VRB01KT 4500 -SHRA FEW010 BKN018 11/11 Q1002=
202409250520 METAR EGKK 250520Z 13002KT 9000 FEW011 BKN019 11/11 Q1002=
202409250550 METAR EGKK 250550Z 11003KT 9999 FEW010 BKN015 11/11 Q1002=
202409250620 METAR EGKK 250620Z 09004KT 9999 FEW004 SCT025 11/11 Q1002=
202409250650 METAR EGKK 250650Z 09004KT 9999 FEW004 SCT018 11/11 Q1001=
202409250720 METAR EGKK 250720Z 09005KT 9999 FEW004 BKN017 11/11 Q1001=
202409250750 METAR EGKK 250750Z 09004KT 9999 FEW005 SCT014 12/11 Q1001=
202409250820 METAR EGKK 250820Z 09004KT 9999 FEW009 SCT019 12/12 Q1001=
202409250850 METAR EGKK 250850Z 10003KT 060V130 9999 FEW011 13/12 Q1001=
202409250920 METAR EGKK 250920Z 12003KT 090V160 9999 FEW009 SCT022 14/13 Q1001=
202409250950 METAR EGKK 250950Z 21003KT 130V240 9999 FEW011 15/13 Q1000=
202409251020 METAR EGKK 251020Z 22005KT 9999 SCT011 15/13 Q1000=
202409251050 METAR EGKK 251050Z 23008KT 200V260 9999 SCT017 16/13 Q1000=
202409251120 METAR EGKK 251120Z 22008KT 9999 SCT018 16/13 Q1000=
202409251150 METAR EGKK 251150Z 22006KT 180V270 9999 FEW020 16/13 Q0999=
202409251220 METAR EGKK 251220Z 21009KT 170V250 9999 VCSH SCT025 SCT039 17/11 Q0999=
202409251250 METAR EGKK 251250Z 22009KT 190V250 9999 FEW028 SCT032 17/12 Q0999=
202409251320 METAR EGKK 251320Z 21008KT 9999 SCT024 SCT030 17/11 Q0999=
202409251350 METAR EGKK 251350Z 21009KT 160V240 9999 FEW025 SCT033 16/11 Q0998=
202409251420 METAR EGKK 251420Z 20006KT 140V240 9999 FEW032 16/12 Q0998=
202409251450 METAR EGKK 251450Z 17006KT 140V210 9999 FEW019 SCT041 16/13 Q0997=
202409251520 METAR EGKK 251520Z 17006KT 130V200 9999 FEW020 SCT031 16/13 Q0997=
202409251550 METAR EGKK 251550Z 16006KT 120V200 9999 FEW023 SCT031 16/13 Q0996=
202409251620 METAR EGKK 251620Z 16006KT 130V200 9999 FEW027 SCT039 16/13 Q0995=
202409251650 METAR EGKK 251650Z 14006KT 110V180 9999 FEW021 SCT027 16/13 Q0995=
202409251720 METAR EGKK 251720Z 13006KT 9999 -RA FEW018 SCT022 BKN027 16/13 Q0994=
202409251750 METAR EGKK 251750Z 13006KT 6000 -RA BKN012 15/14 Q0993=
202409251820 METAR EGKK 251820Z 14005KT 090V180 9999 -RA BKN007 15/14 Q0993=
202409251850 METAR EGKK 251850Z 14006KT 110V170 3800 RADZ BKN005 BKN009 15/14 Q0992 REDZ=
202409251920 METAR EGKK 251920Z 14005KT 110V180 3500 -RADZ SCT005 BKN009 15/15 Q0992 RERA REDZ=
202409251950 METAR EGKK 251950Z 19006KT 160V220 9999 -RA BKN006 BKN015 15/15 Q0991=
202409252020 METAR EGKK 252020Z 20007KT 160V240 4200 -RADZ BKN007 BKN011 16/15 Q0991=
202409252050 METAR EGKK 252050Z 25009KT 210V270 9999 -RA SCT006 BKN017 14/13 Q0991=
202409252120 METAR EGKK 252120Z 22003KT 9999 -RA SCT017 BKN033 14/13 Q0991=
202409252150 METAR EGKK 252150Z 22003KT 9999 FEW015 BKN040 14/13 Q0990=
202409252220 METAR EGKK 252220Z 22004KT 9999 FEW012 SCT035 13/12 Q0990=
202409252250 METAR EGKK 252250Z 24002KT 9999 SCT010 13/12 Q0990=
202409252320 METAR EGKK 252320Z 19002KT 9999 FEW008 12/12 Q0990=
202409252350 METAR EGKK 252350Z 18002KT 9999 FEW010 12/12 Q0989=
202409260020 METAR COR EGKK 260020Z 19002KT 9999 FEW015 12/12 Q0989=
202409260050 METAR EGKK 260050Z VRB01KT 9999 FEW016 12/12 Q0989=
202409260120 METAR EGKK 260120Z 15002KT CAVOK 12/12 Q0988=
202409260150 METAR EGKK 260150Z 16003KT 9999 -RA SCT049 13/12 Q0988=
202409260220 METAR EGKK 260220Z 13003KT 9999 -RA FEW045 13/13 Q0987=
202409260250 METAR EGKK 260250Z 12004KT 9999 -RA SCT017 BKN034 13/13 Q0987=
202409260320 METAR EGKK 260320Z 19003KT 130V240 9999 -RA SCT009 SCT014 13/13 Q0987 RERA=
202409260350 METAR EGKK 260350Z 17004KT 130V210 9999 -RA SCT012 BKN018 14/13 Q0987=
202409260420 METAR EGKK 260420Z 19008KT 150V230 9999 -RA SCT010 SCT028 14/14 Q0986=
202409260450 METAR EGKK 260450Z 19006KT 160V230 9999 -RA SCT009 SCT013 14/14 Q0986 RERA=
202409260520 METAR EGKK 260520Z 22008KT 9999 SCT009 SCT014 15/14 Q0986=
202409260550 METAR EGKK 260550Z 21006KT 9999 FEW014 SCT020 14/14 Q0986=
202409260620 METAR EGKK 260620Z 21008KT 190V250 9999 FEW011 14/13 Q0986=
202409260650 METAR EGKK 260650Z 22008KT 9999 FEW020 14/13 Q0986=
202409260720 METAR EGKK 260720Z 21007KT 9999 FEW020 15/13 Q0986=
202409260750 METAR EGKK 260750Z 21007KT 190V250 9999 FEW021 15/13 Q0987=
202409260820 METAR EGKK 260820Z 21007KT 180V240 9999 FEW020 16/13 Q0987=
202409260850 METAR EGKK 260850Z 21009KT 170V230 9999 FEW020 17/14 Q0987=
202409260920 METAR COR EGKK 260920Z 21008KT 170V240 9999 VCSH FEW016 FEW032TCU 16/13 Q0987=
202409260950 METAR EGKK 260950Z 23009KT 190V260 9999 -SHRA FEW021 SCT031TCU 18/14 Q0987=
202409261020 METAR EGKK 261020Z 22007KT 170V270 9999 VCSH FEW013 BKN023 16/14 Q0987=
202409261050 METAR EGKK 261050Z 21010G20KT 160V240 9999 FEW021 SCT048 17/14 Q0987=
202409261120 METAR EGKK 261120Z 20010KT 170V240 9999 VCSH FEW017 SCT020TCU 17/14 Q0987=
202409261150 METAR EGKK 261150Z 18008G22KT 140V220 9999 VCSH SCT014 SCT029TCU 16/14 Q0987=
202409261220 METAR EGKK 261220Z 20011KT 9999 VCSH FEW015 BKN025TCU 18/13 Q0986=
202409261250 METAR EGKK 261250Z 20010KT 160V230 9999 -SHRA FEW011 SCT017 BKN030TCU 17/14 Q0986 RESHRA=
202409261320 METAR EGKK 261320Z 20014KT 170V230 9999 FEW023 SCT030 17/13 Q0985=
202409261350 METAR EGKK 261350Z 19014G27KT 160V230 6000 -SHRA SCT015 BKN022 16/14 Q0984=
202409261420 METAR EGKK 261420Z 21014G27KT 170V240 9999 VCSH FEW010 SCT014 FEW023CB 16/14 Q0984=
202409261450 METAR EGKK 261450Z 24017KT 9999 SCT011 SCT029 17/12 Q0985=
202409261520 METAR EGKK 261520Z 24011KT 9999 SCT025 17/12 Q0985=
202409261550 METAR EGKK 261550Z 24011KT 9999 FEW025 SCT032 16/12 Q0985=
202409261620 METAR EGKK 261620Z 23011KT 9999 -SHRA FEW016 SCT026 FEW030CB 15/12 Q0986=
202409261650 METAR EGKK 261650Z 23011KT 9999 VCSH FEW020 FEW032CB 14/12 Q0986=
202409261720 METAR EGKK 261720Z 23009KT 9999 -SHRA FEW018 SCT033 14/12 Q0987=
202409261750 METAR EGKK 261750Z 24010KT 9999 FEW015 SCT035 14/13 Q0988=
202409261820 METAR EGKK 261820Z 24008KT 9999 -SHRA FEW011 SCT018 14/13 Q0988=
202409261850 METAR EGKK 261850Z 24010KT 9999 FEW023 14/12 Q0989=
202409261920 METAR EGKK 261920Z 24010KT 9999 FEW026 13/11 Q0989=
202409261950 METAR EGKK 261950Z 24011KT 9999 FEW028 13/11 Q0990=
202409262020 METAR EGKK 262020Z 23009KT CAVOK 13/10 Q0990=
202409262050 METAR EGKK 262050Z 23008KT 9999 FEW048 13/10 Q0990=
202409262120 METAR EGKK 262120Z 23010KT 9999 FEW030 13/11 Q0990=
202409262150 METAR EGKK 262150Z 23008KT 9999 FEW025 BKN032 13/11 Q0990=
202409262220 METAR EGKK 262220Z 23010KT 9999 -RA FEW022 SCT032 13/11 Q0991=
202409262250 METAR EGKK 262250Z 23011KT CAVOK 12/10 Q0991=
202409262320 METAR EGKK 262320Z 23010KT CAVOK 12/10 Q0991=
202409262350 METAR EGKK 262350Z 23010KT CAVOK 12/10 Q0991=
202409270020 METAR EGKK 270020Z 22008KT 9999 FEW028 SCT040 12/10 Q0991=
202409270050 METAR EGKK 270050Z 22009KT 9999 FEW041 12/10 Q0991=
202409270120 METAR EGKK 270120Z 22009KT CAVOK 12/10 Q0991=
202409270150 METAR EGKK 270150Z 22006KT CAVOK 12/10 Q0991=
202409270220 METAR EGKK 270220Z 22008KT 9999 -RA FEW023 SCT035 12/10 Q0991=
202409270250 METAR EGKK 270250Z 23008KT 9999 -RA FEW038 12/11 Q0991=
202409270320 METAR EGKK 270320Z 22006KT 9999 -RA NSC 11/11 Q0991=
202409270350 METAR EGKK 270350Z 22006KT 9000 -RA FEW019 BKN030 11/11 Q0991=
202409270420 METAR EGKK 270420Z 30007KT 9999 -RA SCT008 BKN013 BKN020 11/10 Q0991=
202409270450 METAR EGKK 270450Z 30006KT 9999 -RA SCT010 SCT018 11/10 Q0992=
202409270520 METAR EGKK 270520Z 31006KT 9999 -RA SCT016 11/10 Q0992=
202409270550 METAR EGKK 270550Z 31007KT 9999 SCT012 BKN016 11/10 Q0993=
202409270620 METAR EGKK 270620Z 31010KT 9999 -RA FEW009 BKN016 11/09 Q0993=
202409270650 METAR EGKK 270650Z 31012KT 9999 VCSH FEW014 BKN020 BKN046 11/09 Q0994=
202409270720 METAR EGKK 270720Z 31010KT 9999 -RADZ SCT010 BKN015 10/09 Q0994=
202409270750 METAR EGKK 270750Z 30011KT 9999 -RADZ FEW008 BKN011 10/09 Q0995=
202409270820 METAR EGKK 270820Z 31012KT 9999 VCSH BKN012 10/09 Q0996=
202409270850 METAR EGKK 270850Z 33014KT 9999 -RADZ BKN013 10/09 Q0996=
202409270920 METAR EGKK 270920Z 33014KT 9999 -RA BKN010 BKN037 10/08 Q0997=
202409270950 METAR EGKK 270950Z 32013KT 9999 -RA SCT010 SCT023 09/09 Q0998=
202409271020 METAR EGKK 271020Z 31012KT 9999 -RA FEW009 SCT016 BKN035 10/09 Q0999=
202409271050 METAR EGKK 271050Z 32011KT 280V350 9999 -RA FEW008 BKN012 10/09 Q1000=
202409271120 METAR EGKK 271120Z 32011KT 9999 -RA BKN009 BKN030 11/10 Q1001=
202409271150 METAR EGKK 271150Z 32013KT 280V350 9999 -RA SCT009 BKN017 BKN030 11/10 Q1001=
202409271220 METAR EGKK 271220Z 32011KT 9999 -RA SCT014 BKN045 11/10 Q1002=
202409271250 METAR EGKK 271250Z 32012KT 9999 VCSH SCT015 BKN030 12/10 Q1003=
202409271320 METAR EGKK 271320Z 32011KT 9999 -RA FEW011 BKN030 12/10 Q1003=
202409271350 METAR EGKK 271350Z 33011KT 9999 VCSH FEW013 BKN020 12/10 Q1004=
202409271420 METAR EGKK 271420Z 32010KT 9999 FEW012 SCT018 12/10 Q1005=
202409271450 METAR EGKK 271450Z 33010KT 9999 FEW016 SCT036 12/09 Q1006=
202409271520 METAR EGKK 271520Z 33011KT 9999 VCSH SCT031 13/08 Q1006=
202409271550 METAR EGKK 271550Z 33012KT 9999 VCSH FEW029 SCT034 13/08 Q1007=
202409271620 METAR EGKK 271620Z 34010KT 300V010 9999 FEW036 13/07 Q1008=
202409271650 METAR EGKK 271650Z 32009KT 9999 FEW044 12/06 Q1009=
202409271720 METAR EGKK 271720Z 33008KT 9999 FEW046 12/06 Q1010=
202409271750 METAR EGKK 271750Z 30006KT 9999 FEW042 11/06 Q1010=
202409271820 METAR EGKK 271820Z 30006KT 9999 FEW046 11/06 Q1011=
202409271850 METAR EGKK 271850Z 30007KT CAVOK 10/06 Q1012=
202409271920 METAR EGKK 271920Z 30006KT CAVOK 10/06 Q1013=
202409271950 METAR EGKK 271950Z 28006KT CAVOK 09/05 Q1013=
202409272020 METAR EGKK 272020Z 30007KT CAVOK 09/05 Q1014=
202409272050 METAR EGKK 272050Z 30007KT CAVOK 09/04 Q1014=
202409272120 METAR EGKK 272120Z 30006KT CAVOK 08/04 Q1015=
202409272150 METAR EGKK 272150Z 31006KT CAVOK 08/04 Q1015=
202409272220 METAR EGKK 272220Z 30005KT CAVOK 07/04 Q1016=
202409272250 METAR EGKK 272250Z 31004KT 290V350 CAVOK 07/04 Q1016=
202409272320 METAR EGKK 272320Z 30005KT CAVOK 07/04 Q1017=
202409272350 METAR EGKK 272350Z 30005KT CAVOK 07/04 Q1017=
202409280020 METAR EGKK 280020Z 30004KT CAVOK 06/04 Q1017=
202409280050 METAR EGKK 280050Z 26003KT 230V290 CAVOK 06/04 Q1018=
202409280120 METAR EGKK 280120Z 30003KT CAVOK 06/04 Q1018=
202409280150 METAR EGKK 280150Z VRB02KT CAVOK 05/04 Q1018=
202409280220 METAR EGKK 280220Z 23003KT 190V280 CAVOK 04/04 Q1019=
202409280250 METAR EGKK 280250Z 20003KT CAVOK 04/04 Q1019=
202409280320 METAR EGKK 280320Z 24002KT CAVOK 04/03 Q1019=
202409280350 METAR EGKK 280350Z 15002KT CAVOK 04/04 Q1019=
202409280420 METAR EGKK 280420Z 18003KT CAVOK 04/03 Q1020=
202409280450 METAR EGKK 280450Z 18002KT CAVOK 03/03 Q1020=
202409280520 METAR EGKK 280520Z VRB01KT CAVOK 03/03 Q1020=
202409280550 METAR EGKK 280550Z VRB02KT CAVOK 03/03 Q1021=
202409280620 METAR EGKK 280620Z VRB02KT CAVOK 03/03 Q1021=
202409280650 METAR EGKK 280650Z 20003KT 180V250 CAVOK 04/04 Q1022=
202409280720 METAR EGKK 280720Z VRB01KT CAVOK 06/05 Q1022=
202409280750 METAR EGKK 280750Z 30005KT 280V340 CAVOK 08/06 Q1023=
202409280820 METAR EGKK 280820Z 29005KT 250V330 CAVOK 09/06 Q1023=
202409280850 METAR EGKK 280850Z 31006KT 280V360 CAVOK 09/06 Q1023=
202409280920 METAR EGKK 280920Z 32005KT CAVOK 10/06 Q1024=
202409280950 METAR EGKK 280950Z 32007KT 280V360 9999 FEW032 11/06 Q1024=
202409281020 METAR EGKK 281020Z 31007KT 270V350 9999 FEW024 12/06 Q1024=
202409281050 METAR EGKK 281050Z 31009KT 270V340 9999 FEW032 13/06 Q1024=
202409281120 METAR EGKK 281120Z 32007KT 290V360 9999 FEW034 12/05 Q1024=
202409281150 METAR EGKK 281150Z 31009KT 9999 SCT034 13/05 Q1025=
202409281220 METAR EGKK 281220Z 32008KT 9999 SCT036 13/05 Q1025=
202409281250 METAR EGKK 281250Z 30007KT 9999 SCT039 13/05 Q1025=
202409281320 METAR EGKK 281320Z 28007KT 250V310 9999 SCT042 14/05 Q1025=
202409281350 METAR EGKK 281350Z 33008KT 300V030 9999 SCT040 15/05 Q1025=
202409281420 METAR EGKK 281420Z 29008G22KT 250V010 9999 SCT039 15/05 Q1025=
202409281450 METAR EGKK 281450Z 30005KT 240V010 9999 SCT042 15/04 Q1025=
202409281520 METAR EGKK 281520Z 30008KT 9999 FEW043 14/04 Q1025=
202409281550 METAR EGKK 281550Z 29006KT 9999 FEW044 14/05 Q1025=
202409281620 METAR EGKK 281620Z 32006KT 9999 SCT041 14/04 Q1025=
202409281650 METAR EGKK 281650Z 30005KT 9999 SCT044 14/04 Q1026=
202409281720 METAR EGKK 281720Z 30004KT 260V330 9999 SCT048 13/05 Q1026=
202409281750 METAR EGKK 281750Z 27004KT 210V320 9999 FEW049 12/05 Q1026=
202409281820 METAR EGKK 281820Z 22002KT 9999 FEW047 10/07 Q1026=
202409281850 METAR EGKK 281850Z VRB01KT 9999 FEW045 10/07 Q1026=
202409281920 METAR EGKK 281920Z VRB01KT 9999 FEW046 09/07 Q1026=
202409281950 METAR EGKK 281950Z 16001KT CAVOK 09/07 Q1026=
202409282020 METAR EGKK 282020Z 14002KT CAVOK 08/07 Q1027=
202409282050 METAR EGKK 282050Z 17001KT CAVOK 08/06 Q1027=
202409282120 METAR EGKK 282120Z VRB02KT CAVOK 07/06 Q1027=
202409282150 METAR EGKK 282150Z 19001KT CAVOK 07/06 Q1027=
202409282220 METAR EGKK 282220Z VRB01KT CAVOK 06/05 Q1027=
202409282250 METAR EGKK 282250Z VRB01KT 9000 NSC 06/05 Q1027=
202409282320 METAR EGKK 282320Z 09002KT 9000 NSC 06/05 Q1027=
202409282350 METAR EGKK 282350Z 09003KT 9000 NSC 05/05 Q1027=
202409290020 METAR EGKK 290020Z 09003KT CAVOK 05/05 Q1026=
202409290050 METAR EGKK 290050Z 10003KT CAVOK 05/04 Q1026=
202409290120 METAR EGKK 290120Z 07002KT CAVOK 05/05 Q1026=
202409290150 METAR EGKK 290150Z 09003KT 9999 3500S VCFG NSC 04/04 Q1026=
202409290220 METAR EGKK 290220Z 06002KT 9999 BKN040 05/04 Q1025=
202409290250 METAR EGKK 290250Z 08003KT 9999 BKN042 04/04 Q1025=
202409290320 METAR EGKK 290320Z 09003KT 9999 SCT032 05/04 Q1025=
202409290350 METAR EGKK 290350Z 07003KT 9999 VCFG SCT040 04/04 Q1025=
202409290420 METAR EGKK 290420Z 08003KT 9999 FEW040 04/04 Q1024=
202409290450 METAR EGKK 290450Z 07003KT CAVOK 04/04 Q1024=
202409290520 METAR EGKK 290520Z 07003KT 9999 FEW035 04/04 Q1024=
202409290550 METAR EGKK 290550Z 08004KT 9999 FEW034 04/04 Q1024=
202409290620 METAR EGKK 290620Z 08004KT 9999 FEW034 05/04 Q1024=
202409290650 METAR EGKK 290650Z 07003KT CAVOK 05/05 Q1024=
202409290720 METAR EGKK 290720Z 08004KT CAVOK 06/06 Q1023=
202409290750 METAR EGKK 290750Z 07003KT CAVOK 06/06 Q1023=
202409290820 METAR EGKK 290820Z 08004KT 9999 FEW034 07/07 Q1023=
202409290850 METAR EGKK 290850Z 09004KT CAVOK 08/08 Q1023=
202409290920 METAR EGKK 290920Z 12005KT CAVOK 11/09 Q1022=
202409290950 METAR EGKK 290950Z 13007KT 100V170 CAVOK 13/08 Q1022=
202409291020 METAR EGKK 291020Z 14008KT 110V180 CAVOK 13/08 Q1022=
202409291050 METAR EGKK 291050Z 15011KT 120V190 9999 FEW033 13/07 Q1021=
202409291120 METAR EGKK 291120Z 15011KT 9999 SCT031 14/07 Q1021=
202409291150 METAR EGKK 291150Z 16012KT 9999 SCT032 SCT038 14/07 Q1020=
202409291220 METAR EGKK 291220Z 16014KT 9999 SCT033 SCT043 14/06 Q1020=
202409291250 METAR EGKK 291250Z 16012KT 130V200 9999 BKN034 14/07 Q1020=
202409291320 METAR EGKK 291320Z 15012KT 120V200 9999 SCT034 14/07 Q1019=
202409291350 METAR EGKK 291350Z 15010KT 110V180 9999 SCT035 14/07 Q1019=
202409291420 METAR EGKK 291420Z 13013G23KT 9999 FEW033 13/06 Q1018=
202409291450 METAR EGKK 291450Z 15011KT 110V180 9999 FEW031 14/07 Q1017=
202409291520 METAR EGKK 291520Z 14011KT 110V170 9999 FEW031 14/07 Q1017=
202409291550 METAR EGKK 291550Z 14013G24KT 100V180 9999 FEW031 14/07 Q1016=
202409291620 METAR EGKK 291620Z 13012KT 9999 FEW031 13/07 Q1015=
202409291650 METAR EGKK 291650Z 13011KT 9999 FEW030 13/07 Q1015=
202409291720 METAR EGKK 291720Z 13011KT 9999 FEW024 13/07 Q1014=
202409291750 METAR EGKK 291750Z 12011KT CAVOK 13/06 Q1013=
202409291820 METAR EGKK 291820Z 13009KT 100V160 CAVOK 13/06 Q1013=
202409291850 METAR EGKK 291850Z 13011KT 9999 -RA SCT035 13/06 Q1013=
202409291920 METAR EGKK 291920Z 14010KT 9999 -RA SCT033 12/08 Q1012=
202409291950 METAR EGKK 291950Z 12008KT 9999 SCT039 11/08 Q1012=
202409292020 METAR EGKK 292020Z 13010KT 100V160 9999 -RA FEW023 BKN027 11/09 Q1012=
202409292050 METAR EGKK 292050Z 13010KT 9000 -RA FEW012 SCT017 BKN028 11/09 Q1011=
202409292120 METAR EGKK 292120Z 13011KT 2500 -RA BKN007 10/10 Q1010=
202409292150 METAR EGKK 292150Z 12012KT 4700 -RA SCT006 BKN010 11/10 Q1009=
202409292220 METAR EGKK 292220Z 13012KT 100V160 3400 -RA SCT006 BKN009 11/10 Q1009=
202409292250 METAR EGKK 292250Z 12010KT 2800 -RA SCT006 BKN007 11/11 Q1008=
202409292320 METAR EGKK 292320Z 12011KT 3800 -RA BKN007 11/11 Q1007=
202409292350 METAR EGKK 292350Z 13012KT 2700 RA SCT006 BKN007 12/11 Q1006=
202409300020 METAR EGKK 300020Z 13010KT 3200 RA FEW005 BKN007 12/11 Q1005=
202409300050 METAR EGKK 300050Z 13010KT 6000 -RA SCT006 BKN013 12/12 Q1005 RERA=
202409300120 METAR EGKK 300120Z 13010KT 9999 -RA SCT007 BKN013 12/12 Q1004=
202409300150 METAR EGKK 300150Z 14011KT 9999 -RA BKN007 BKN012 13/12 Q1003=
202409300220 METAR EGKK 300220Z 14010KT 3800 RA BKN006 BKN009 13/13 Q1002=
202409300250 METAR EGKK 300250Z 13012KT 4000 RA BKN006 BKN009 13/13 Q1002=
202409300320 METAR EGKK 300320Z 14011G22KT 100V170 3400 RA BKN006 BKN009 13/13 Q1001=
202409300350 METAR EGKK 300350Z 14009KT 3200 RA BKN005 BKN009 14/13 Q1000=
202409300420 METAR EGKK 300420Z 15008KT 100V190 3600 RA BKN006 14/14 Q1000=
202409300450 METAR EGKK 300450Z 20009KT 170V240 2200 -RA SCT007 BKN011 15/15 Q1000 RERA=
202409300520 METAR EGKK 300520Z 20008KT 160V230 9999 -RA SCT006 BKN014 15/15 Q1000=
202409300550 METAR EGKK 300550Z 20008KT 160V220 9999 -RA BKN011 BKN016 15/14 Q0999=
202409300620 METAR EGKK 300620Z 19007KT 150V220 5000 -RA SCT010 BKN036 15/14 Q0999=
202409300650 METAR EGKK 300650Z 20009KT 6000 -RA SCT007 BKN010 15/14 Q0999=
202409300720 METAR EGKK 300720Z 19008KT 8000 SCT007 BKN012 15/14 Q0999=
202409300750 METAR EGKK 300750Z 19008KT 7000 -RA BKN006 15/15 Q0999=
202409300820 METAR EGKK 300820Z 22007KT 5000 -DZ BKN006 15/15 Q0999=
202409300850 METAR EGKK 300850Z 23008KT 9000 BKN007 15/15 Q0999=
202409300920 METAR EGKK 300920Z 23009KT 9000 SCT006 BKN011 16/15 Q0999=
202409300950 METAR EGKK 300950Z 23008KT 3500 BR SCT005 BKN009 16/15 Q1000=
202409301020 METAR EGKK 301020Z 24010KT 7000 FEW008 SCT013 BKN020 17/16 Q1000=
202409301050 METAR EGKK 301050Z 25010KT 6000 SCT007 SCT013 17/16 Q1000 REDZ=
202409301120 METAR EGKK 301120Z 25014KT 9999 -RA FEW009 SCT012 17/16 Q1001=
202409301150 METAR EGKK 301150Z 26018KT 9999 SCT014 BKN027 17/15 Q1001=
202409301220 METAR EGKK 301220Z 26015KT 9999 SCT020 SCT030 16/14 Q1002=
202409301250 METAR EGKK 301250Z 25019G30KT 9999 SCT010 BKN030 16/13 Q1002=
202409301320 METAR EGKK 301320Z 26017KT 9999 SCT017 BKN024 15/12 Q1003=
202409301350 METAR EGKK 301350Z 26015KT 9999 SCT023 15/12 Q1003=
202409301420 METAR EGKK 301420Z 25017KT 9999 BKN021 15/11 Q1004=
202409301450 METAR EGKK 301450Z 25014KT 9999 -RA BKN018 15/12 Q1004=
202409301520 METAR EGKK 301520Z 25014KT 9999 SCT020 15/12 Q1004=
202409301550 METAR EGKK 301550Z 25013KT 9999 SCT020 14/12 Q1004=
202409301620 METAR EGKK 301620Z 24012KT 9999 BKN018 14/12 Q1004=
202409301650 METAR EGKK 301650Z 24012KT 9999 BKN021 14/12 Q1004=
202409301720 METAR EGKK 301720Z 24011KT 9999 SCT023 14/11 Q1004=
202409301750 METAR EGKK 301750Z 24014KT 9999 SCT020 14/11 Q1005=
202409301820 METAR EGKK 301820Z 25013KT 9999 BKN021 14/11 Q1005=
202409301850 METAR EGKK 301850Z 25015KT 9999 SCT020 14/11 Q1005=
202409301920 METAR EGKK 301920Z 25015KT 9999 SCT035 14/11 Q1005=
202409301950 METAR EGKK 301950Z 26017KT 9999 SCT025 13/10 Q1006=
202409302020 METAR EGKK 302020Z 26016KT 9999 FEW024 SCT032 13/10 Q1006=
202409302050 METAR EGKK 302050Z 26017KT 9999 SCT022 13/10 Q1006=
202409302120 METAR EGKK 302120Z 26016KT 9999 SCT021 12/09 Q1006=
202409302150 METAR EGKK 302150Z 26016KT 9999 FEW021 12/09 Q1007=
202409302220 METAR EGKK 302220Z 27013KT 9999 FEW021 11/09 Q1007=
202409302250 METAR EGKK 302250Z 26015KT 9999 FEW021 11/08 Q1007=
202409302320 METAR EGKK 302320Z 26012KT CAVOK 11/08 Q1007=
202409302350 METAR EGKK 302350Z 26011KT CAVOK 11/08 Q1008=